[
  {
    "id": 1506,
    "name": "FL - CLAY COUNTY",
    "zipcode": 32003,
    "tax": 0.07
  }, {
    "id": 1507,
    "name": "FL - FLORIDA STATE",
    "zipcode": 32004,
    "tax": 0.06
  }, {
    "id": 1508,
    "name": "FL - CLAY COUNTY",
    "zipcode": 32006,
    "tax": 0.07
  }, {
    "id": 1509,
    "name": "FL - PUTNAM COUNTY",
    "zipcode": 32007,
    "tax": 0.07
  }, {
    "id": 1510,
    "name": "FL - SUWANNEE COUNTY",
    "zipcode": 32008,
    "tax": 0.07
  }, {
    "id": 1511,
    "name": "FL - NASSAU COUNTY",
    "zipcode": 32009,
    "tax": 0.07
  }, {
    "id": 1512,
    "name": "FL - NASSAU COUNTY",
    "zipcode": 32011,
    "tax": 0.07
  }, {
    "id": 1513,
    "name": "FL - LAFAYETTE COUNTY",
    "zipcode": 32013,
    "tax": 0.07
  }, {
    "id": 1514,
    "name": "FL - COLUMBIA COUNTY",
    "zipcode": 32024,
    "tax": 0.07
  }, {
    "id": 1515,
    "name": "FL - COLUMBIA COUNTY",
    "zipcode": 32025,
    "tax": 0.07
  }, {
    "id": 1516,
    "name": "FL - CLAY COUNTY",
    "zipcode": 32030,
    "tax": 0.07
  }, {
    "id": 1517,
    "name": "FL - FLORIDA STATE",
    "zipcode": 32033,
    "tax": 0.06
  }, {
    "id": 1518,
    "name": "FL - NASSAU COUNTY",
    "zipcode": 32034,
    "tax": 0.07
  }, {
    "id": 1519,
    "name": "FL - NASSAU COUNTY",
    "zipcode": 32035,
    "tax": 0.07
  }, {
    "id": 1520,
    "name": "FL - COLUMBIA COUNTY",
    "zipcode": 32038,
    "tax": 0.07
  }, {
    "id": 1521,
    "name": "FL - BAKER COUNTY",
    "zipcode": 32040,
    "tax": 0.07
  }, {
    "id": 1522,
    "name": "FL - NASSAU COUNTY",
    "zipcode": 32041,
    "tax": 0.07
  }, {
    "id": 1523,
    "name": "FL - BRADFORD COUNTY",
    "zipcode": 32042,
    "tax": 0.07
  }, {
    "id": 1524,
    "name": "FL - CLAY COUNTY",
    "zipcode": 32043,
    "tax": 0.07
  }, {
    "id": 1525,
    "name": "FL - BRADFORD COUNTY",
    "zipcode": 32044,
    "tax": 0.07
  }, {
    "id": 1526,
    "name": "FL - NASSAU COUNTY",
    "zipcode": 32046,
    "tax": 0.07
  }, {
    "id": 1527,
    "name": "FL - CLAY COUNTY",
    "zipcode": 32050,
    "tax": 0.07
  }, {
    "id": 1528,
    "name": "FL - HAMILTON COUNTY",
    "zipcode": 32052,
    "tax": 0.07
  }, {
    "id": 1529,
    "name": "FL - HAMILTON COUNTY",
    "zipcode": 32053,
    "tax": 0.07
  }, {
    "id": 1530,
    "name": "FL - UNION COUNTY",
    "zipcode": 32054,
    "tax": 0.07
  }, {
    "id": 1531,
    "name": "FL - COLUMBIA COUNTY",
    "zipcode": 32055,
    "tax": 0.07
  }, {
    "id": 1532,
    "name": "FL - COLUMBIA COUNTY",
    "zipcode": 32056,
    "tax": 0.07
  }, {
    "id": 1533,
    "name": "FL - BRADFORD COUNTY",
    "zipcode": 32058,
    "tax": 0.07
  }, {
    "id": 1534,
    "name": "FL - MADISON COUNTY",
    "zipcode": 32059,
    "tax": 0.075
  }, {
    "id": 1535,
    "name": "FL - SUWANNEE COUNTY",
    "zipcode": 32060,
    "tax": 0.07
  }, {
    "id": 1536,
    "name": "FL - COLUMBIA COUNTY",
    "zipcode": 32061,
    "tax": 0.07
  }, {
    "id": 1537,
    "name": "FL - SUWANNEE COUNTY",
    "zipcode": 32062,
    "tax": 0.07
  }, {
    "id": 1538,
    "name": "FL - BAKER COUNTY",
    "zipcode": 32063,
    "tax": 0.07
  }, {
    "id": 1539,
    "name": "FL - SUWANNEE COUNTY",
    "zipcode": 32064,
    "tax": 0.07
  }, {
    "id": 1540,
    "name": "FL - CLAY COUNTY",
    "zipcode": 32065,
    "tax": 0.07
  }, {
    "id": 1541,
    "name": "FL - LAFAYETTE COUNTY",
    "zipcode": 32066,
    "tax": 0.07
  }, {
    "id": 1542,
    "name": "FL - CLAY COUNTY",
    "zipcode": 32067,
    "tax": 0.07
  }, {
    "id": 1543,
    "name": "FL - CLAY COUNTY",
    "zipcode": 32068,
    "tax": 0.07
  }, {
    "id": 1544,
    "name": "FL - SUWANNEE COUNTY",
    "zipcode": 32071,
    "tax": 0.07
  }, {
    "id": 1545,
    "name": "FL - BAKER COUNTY",
    "zipcode": 32072,
    "tax": 0.07
  }, {
    "id": 1546,
    "name": "FL - CLAY COUNTY",
    "zipcode": 32073,
    "tax": 0.07
  }, {
    "id": 1547,
    "name": "FL - FLORIDA STATE",
    "zipcode": 32080,
    "tax": 0.06
  }, {
    "id": 1548,
    "name": "FL - FLORIDA STATE",
    "zipcode": 32081,
    "tax": 0.06
  }, {
    "id": 1549,
    "name": "FL - FLORIDA STATE",
    "zipcode": 32082,
    "tax": 0.06
  }, {
    "id": 1550,
    "name": "FL - UNION COUNTY",
    "zipcode": 32083,
    "tax": 0.07
  }, {
    "id": 1551,
    "name": "FL - FLORIDA STATE",
    "zipcode": 32084,
    "tax": 0.06
  }, {
    "id": 1552,
    "name": "FL - FLORIDA STATE",
    "zipcode": 32085,
    "tax": 0.06
  }, {
    "id": 1553,
    "name": "FL - FLORIDA STATE",
    "zipcode": 32086,
    "tax": 0.06
  }, {
    "id": 1554,
    "name": "FL - BAKER COUNTY",
    "zipcode": 32087,
    "tax": 0.07
  }, {
    "id": 1555,
    "name": "FL - BRADFORD COUNTY",
    "zipcode": 32091,
    "tax": 0.07
  }, {
    "id": 1556,
    "name": "FL - FLORIDA STATE",
    "zipcode": 32092,
    "tax": 0.06
  }, {
    "id": 1557,
    "name": "FL - SUWANNEE COUNTY",
    "zipcode": 32094,
    "tax": 0.07
  }, {
    "id": 1558,
    "name": "FL - FLORIDA STATE",
    "zipcode": 32095,
    "tax": 0.06
  }, {
    "id": 1559,
    "name": "FL - HAMILTON COUNTY",
    "zipcode": 32096,
    "tax": 0.07
  }, {
    "id": 1560,
    "name": "FL - NASSAU COUNTY",
    "zipcode": 32097,
    "tax": 0.07
  }, {
    "id": 1561,
    "name": "FL - DUVAL COUNTY",
    "zipcode": 32099,
    "tax": 0.07
  }, {
    "id": 1562,
    "name": "FL - LAKE COUNTY",
    "zipcode": 32102,
    "tax": 0.07
  }, {
    "id": 1563,
    "name": "FL - VOLUSIA COUNTY",
    "zipcode": 32105,
    "tax": 0.065
  }, {
    "id": 1564,
    "name": "FL - FLAGLER COUNTY",
    "zipcode": 32110,
    "tax": 0.07
  }, {
    "id": 1565,
    "name": "FL - FLORIDA STATE",
    "zipcode": 32111,
    "tax": 0.06
  }, {
    "id": 1566,
    "name": "FL - PUTNAM COUNTY",
    "zipcode": 32112,
    "tax": 0.07
  }, {
    "id": 1567,
    "name": "FL - FLORIDA STATE",
    "zipcode": 32113,
    "tax": 0.06
  }, {
    "id": 1568,
    "name": "FL - VOLUSIA COUNTY",
    "zipcode": 32114,
    "tax": 0.065
  }, {
    "id": 1569,
    "name": "FL - VOLUSIA COUNTY",
    "zipcode": 32115,
    "tax": 0.065
  }, {
    "id": 1570,
    "name": "FL - VOLUSIA COUNTY",
    "zipcode": 32116,
    "tax": 0.065
  }, {
    "id": 1571,
    "name": "FL - VOLUSIA COUNTY",
    "zipcode": 32117,
    "tax": 0.065
  }, {
    "id": 1572,
    "name": "FL - VOLUSIA COUNTY",
    "zipcode": 32118,
    "tax": 0.065
  }, {
    "id": 1573,
    "name": "FL - VOLUSIA COUNTY",
    "zipcode": 32119,
    "tax": 0.065
  }, {
    "id": 1574,
    "name": "FL - VOLUSIA COUNTY",
    "zipcode": 32120,
    "tax": 0.065
  }, {
    "id": 1575,
    "name": "FL - VOLUSIA COUNTY",
    "zipcode": 32121,
    "tax": 0.065
  }, {
    "id": 1576,
    "name": "FL - VOLUSIA COUNTY",
    "zipcode": 32122,
    "tax": 0.065
  }, {
    "id": 1577,
    "name": "FL - VOLUSIA COUNTY",
    "zipcode": 32123,
    "tax": 0.065
  }, {
    "id": 1578,
    "name": "FL - VOLUSIA COUNTY",
    "zipcode": 32124,
    "tax": 0.065
  }, {
    "id": 1579,
    "name": "FL - VOLUSIA COUNTY",
    "zipcode": 32125,
    "tax": 0.065
  }, {
    "id": 1580,
    "name": "FL - VOLUSIA COUNTY",
    "zipcode": 32126,
    "tax": 0.065
  }, {
    "id": 1581,
    "name": "FL - VOLUSIA COUNTY",
    "zipcode": 32127,
    "tax": 0.065
  }, {
    "id": 1582,
    "name": "FL - VOLUSIA COUNTY",
    "zipcode": 32128,
    "tax": 0.065
  }, {
    "id": 1583,
    "name": "FL - VOLUSIA COUNTY",
    "zipcode": 32129,
    "tax": 0.065
  }, {
    "id": 1584,
    "name": "FL - VOLUSIA COUNTY",
    "zipcode": 32130,
    "tax": 0.065
  }, {
    "id": 1585,
    "name": "FL - PUTNAM COUNTY",
    "zipcode": 32131,
    "tax": 0.07
  }, {
    "id": 1586,
    "name": "FL - VOLUSIA COUNTY",
    "zipcode": 32132,
    "tax": 0.065
  }, {
    "id": 1587,
    "name": "FL - FLORIDA STATE",
    "zipcode": 32133,
    "tax": 0.06
  }, {
    "id": 1588,
    "name": "FL - FLORIDA STATE",
    "zipcode": 32134,
    "tax": 0.06
  }, {
    "id": 1589,
    "name": "FL - FLAGLER COUNTY",
    "zipcode": 32135,
    "tax": 0.07
  }, {
    "id": 1590,
    "name": "FL - FLAGLER COUNTY",
    "zipcode": 32136,
    "tax": 0.07
  }, {
    "id": 1591,
    "name": "FL - FLAGLER COUNTY",
    "zipcode": 32137,
    "tax": 0.07
  }, {
    "id": 1592,
    "name": "FL - PUTNAM COUNTY",
    "zipcode": 32138,
    "tax": 0.07
  }, {
    "id": 1593,
    "name": "FL - PUTNAM COUNTY",
    "zipcode": 32139,
    "tax": 0.07
  }, {
    "id": 1594,
    "name": "FL - PUTNAM COUNTY",
    "zipcode": 32140,
    "tax": 0.07
  }, {
    "id": 1595,
    "name": "FL - VOLUSIA COUNTY",
    "zipcode": 32141,
    "tax": 0.065
  }, {
    "id": 1596,
    "name": "FL - FLAGLER COUNTY",
    "zipcode": 32142,
    "tax": 0.07
  }, {
    "id": 1597,
    "name": "FL - FLAGLER COUNTY",
    "zipcode": 32143,
    "tax": 0.07
  }, {
    "id": 1598,
    "name": "FL - FLORIDA STATE",
    "zipcode": 32145,
    "tax": 0.06
  }, {
    "id": 1599,
    "name": "FL - PUTNAM COUNTY",
    "zipcode": 32147,
    "tax": 0.07
  }, {
    "id": 1600,
    "name": "FL - PUTNAM COUNTY",
    "zipcode": 32148,
    "tax": 0.07
  }, {
    "id": 1601,
    "name": "FL - PUTNAM COUNTY",
    "zipcode": 32149,
    "tax": 0.07
  }, {
    "id": 1602,
    "name": "FL - PUTNAM COUNTY",
    "zipcode": 32157,
    "tax": 0.07
  }, {
    "id": 1603,
    "name": "FL - LAKE COUNTY",
    "zipcode": 32158,
    "tax": 0.07
  }, {
    "id": 1604,
    "name": "FL - LAKE COUNTY",
    "zipcode": 32159,
    "tax": 0.07
  }, {
    "id": 1605,
    "name": "FL - CLAY COUNTY",
    "zipcode": 32160,
    "tax": 0.07
  }, {
    "id": 1606,
    "name": "FL - SUMTER COUNTY",
    "zipcode": 32162,
    "tax": 0.07
  }, {
    "id": 1607,
    "name": "FL - FLAGLER COUNTY",
    "zipcode": 32164,
    "tax": 0.07
  }, {
    "id": 1608,
    "name": "FL - VOLUSIA COUNTY",
    "zipcode": 32168,
    "tax": 0.065
  }, {
    "id": 1609,
    "name": "FL - VOLUSIA COUNTY",
    "zipcode": 32169,
    "tax": 0.065
  }, {
    "id": 1610,
    "name": "FL - VOLUSIA COUNTY",
    "zipcode": 32170,
    "tax": 0.065
  }, {
    "id": 1611,
    "name": "FL - VOLUSIA COUNTY",
    "zipcode": 32173,
    "tax": 0.065
  }, {
    "id": 1612,
    "name": "FL - VOLUSIA COUNTY",
    "zipcode": 32174,
    "tax": 0.065
  }, {
    "id": 1613,
    "name": "FL - VOLUSIA COUNTY",
    "zipcode": 32175,
    "tax": 0.065
  }, {
    "id": 1614,
    "name": "FL - VOLUSIA COUNTY",
    "zipcode": 32176,
    "tax": 0.065
  }, {
    "id": 1615,
    "name": "FL - PUTNAM COUNTY",
    "zipcode": 32177,
    "tax": 0.07
  }, {
    "id": 1616,
    "name": "FL - PUTNAM COUNTY",
    "zipcode": 32178,
    "tax": 0.07
  }, {
    "id": 1617,
    "name": "FL - FLORIDA STATE",
    "zipcode": 32179,
    "tax": 0.06
  }, {
    "id": 1618,
    "name": "FL - VOLUSIA COUNTY",
    "zipcode": 32180,
    "tax": 0.065
  }, {
    "id": 1619,
    "name": "FL - PUTNAM COUNTY",
    "zipcode": 32181,
    "tax": 0.07
  }, {
    "id": 1620,
    "name": "FL - FLORIDA STATE",
    "zipcode": 32182,
    "tax": 0.06
  }, {
    "id": 1621,
    "name": "FL - FLORIDA STATE",
    "zipcode": 32183,
    "tax": 0.06
  }, {
    "id": 1622,
    "name": "FL - PUTNAM COUNTY",
    "zipcode": 32185,
    "tax": 0.07
  }, {
    "id": 1623,
    "name": "FL - PUTNAM COUNTY",
    "zipcode": 32187,
    "tax": 0.07
  }, {
    "id": 1624,
    "name": "FL - PUTNAM COUNTY",
    "zipcode": 32189,
    "tax": 0.07
  }, {
    "id": 1625,
    "name": "FL - VOLUSIA COUNTY",
    "zipcode": 32190,
    "tax": 0.065
  }, {
    "id": 1626,
    "name": "FL - FLORIDA STATE",
    "zipcode": 32192,
    "tax": 0.06
  }, {
    "id": 1627,
    "name": "FL - PUTNAM COUNTY",
    "zipcode": 32193,
    "tax": 0.07
  }, {
    "id": 1628,
    "name": "FL - FLORIDA STATE",
    "zipcode": 32195,
    "tax": 0.06
  }, {
    "id": 1629,
    "name": "FL - VOLUSIA COUNTY",
    "zipcode": 32198,
    "tax": 0.065
  }, {
    "id": 1630,
    "name": "FL - DUVAL COUNTY",
    "zipcode": 32201,
    "tax": 0.07
  }, {
    "id": 1631,
    "name": "FL - DUVAL COUNTY",
    "zipcode": 32202,
    "tax": 0.07
  }, {
    "id": 1632,
    "name": "FL - DUVAL COUNTY",
    "zipcode": 32203,
    "tax": 0.07
  }, {
    "id": 1633,
    "name": "FL - DUVAL COUNTY",
    "zipcode": 32204,
    "tax": 0.07
  }, {
    "id": 1634,
    "name": "FL - DUVAL COUNTY",
    "zipcode": 32205,
    "tax": 0.07
  }, {
    "id": 1635,
    "name": "FL - DUVAL COUNTY",
    "zipcode": 32206,
    "tax": 0.07
  }, {
    "id": 1636,
    "name": "FL - DUVAL COUNTY",
    "zipcode": 32207,
    "tax": 0.07
  }, {
    "id": 1637,
    "name": "FL - DUVAL COUNTY",
    "zipcode": 32208,
    "tax": 0.07
  }, {
    "id": 1638,
    "name": "FL - DUVAL COUNTY",
    "zipcode": 32209,
    "tax": 0.07
  }, {
    "id": 1639,
    "name": "FL - DUVAL COUNTY",
    "zipcode": 32210,
    "tax": 0.07
  }, {
    "id": 1640,
    "name": "FL - DUVAL COUNTY",
    "zipcode": 32211,
    "tax": 0.07
  }, {
    "id": 1641,
    "name": "FL - DUVAL COUNTY",
    "zipcode": 32212,
    "tax": 0.07
  }, {
    "id": 1642,
    "name": "FL - DUVAL COUNTY",
    "zipcode": 32214,
    "tax": 0.07
  }, {
    "id": 1643,
    "name": "FL - DUVAL COUNTY",
    "zipcode": 32215,
    "tax": 0.07
  }, {
    "id": 1644,
    "name": "FL - DUVAL COUNTY",
    "zipcode": 32216,
    "tax": 0.07
  }, {
    "id": 1645,
    "name": "FL - DUVAL COUNTY",
    "zipcode": 32217,
    "tax": 0.07
  }, {
    "id": 1646,
    "name": "FL - DUVAL COUNTY",
    "zipcode": 32218,
    "tax": 0.07
  }, {
    "id": 1647,
    "name": "FL - DUVAL COUNTY",
    "zipcode": 32219,
    "tax": 0.07
  }, {
    "id": 1648,
    "name": "FL - DUVAL COUNTY",
    "zipcode": 32220,
    "tax": 0.07
  }, {
    "id": 1649,
    "name": "FL - DUVAL COUNTY",
    "zipcode": 32221,
    "tax": 0.07
  }, {
    "id": 1650,
    "name": "FL - DUVAL COUNTY",
    "zipcode": 32222,
    "tax": 0.07
  }, {
    "id": 1651,
    "name": "FL - DUVAL COUNTY",
    "zipcode": 32223,
    "tax": 0.07
  }, {
    "id": 1652,
    "name": "FL - DUVAL COUNTY",
    "zipcode": 32224,
    "tax": 0.07
  }, {
    "id": 1653,
    "name": "FL - DUVAL COUNTY",
    "zipcode": 32225,
    "tax": 0.07
  }, {
    "id": 1654,
    "name": "FL - DUVAL COUNTY",
    "zipcode": 32226,
    "tax": 0.07
  }, {
    "id": 1655,
    "name": "FL - DUVAL COUNTY",
    "zipcode": 32227,
    "tax": 0.07
  }, {
    "id": 1656,
    "name": "FL - DUVAL COUNTY",
    "zipcode": 32228,
    "tax": 0.07
  }, {
    "id": 1657,
    "name": "FL - DUVAL COUNTY",
    "zipcode": 32229,
    "tax": 0.07
  }, {
    "id": 1658,
    "name": "FL - DUVAL COUNTY",
    "zipcode": 32230,
    "tax": 0.07
  }, {
    "id": 1659,
    "name": "FL - DUVAL COUNTY",
    "zipcode": 32231,
    "tax": 0.07
  }, {
    "id": 1660,
    "name": "FL - DUVAL COUNTY",
    "zipcode": 32232,
    "tax": 0.07
  }, {
    "id": 1661,
    "name": "FL - DUVAL COUNTY",
    "zipcode": 32233,
    "tax": 0.07
  }, {
    "id": 1662,
    "name": "FL - DUVAL COUNTY",
    "zipcode": 32234,
    "tax": 0.07
  }, {
    "id": 1663,
    "name": "FL - DUVAL COUNTY",
    "zipcode": 32235,
    "tax": 0.07
  }, {
    "id": 1664,
    "name": "FL - DUVAL COUNTY",
    "zipcode": 32236,
    "tax": 0.07
  }, {
    "id": 1665,
    "name": "FL - DUVAL COUNTY",
    "zipcode": 32237,
    "tax": 0.07
  }, {
    "id": 1666,
    "name": "FL - DUVAL COUNTY",
    "zipcode": 32238,
    "tax": 0.07
  }, {
    "id": 1667,
    "name": "FL - DUVAL COUNTY",
    "zipcode": 32239,
    "tax": 0.07
  }, {
    "id": 1668,
    "name": "FL - DUVAL COUNTY",
    "zipcode": 32240,
    "tax": 0.07
  }, {
    "id": 1669,
    "name": "FL - DUVAL COUNTY",
    "zipcode": 32241,
    "tax": 0.07
  }, {
    "id": 1670,
    "name": "FL - DUVAL COUNTY",
    "zipcode": 32244,
    "tax": 0.07
  }, {
    "id": 1671,
    "name": "FL - DUVAL COUNTY",
    "zipcode": 32245,
    "tax": 0.07
  }, {
    "id": 1672,
    "name": "FL - DUVAL COUNTY",
    "zipcode": 32246,
    "tax": 0.07
  }, {
    "id": 1673,
    "name": "FL - DUVAL COUNTY",
    "zipcode": 32247,
    "tax": 0.07
  }, {
    "id": 1674,
    "name": "FL - DUVAL COUNTY",
    "zipcode": 32250,
    "tax": 0.07
  }, {
    "id": 1675,
    "name": "FL - DUVAL COUNTY",
    "zipcode": 32254,
    "tax": 0.07
  }, {
    "id": 1676,
    "name": "FL - DUVAL COUNTY",
    "zipcode": 32255,
    "tax": 0.07
  }, {
    "id": 1677,
    "name": "FL - DUVAL COUNTY",
    "zipcode": 32256,
    "tax": 0.07
  }, {
    "id": 1678,
    "name": "FL - DUVAL COUNTY",
    "zipcode": 32257,
    "tax": 0.07
  }, {
    "id": 1679,
    "name": "FL - DUVAL COUNTY",
    "zipcode": 32258,
    "tax": 0.07
  }, {
    "id": 1680,
    "name": "FL - FLORIDA STATE",
    "zipcode": 32259,
    "tax": 0.06
  }, {
    "id": 1681,
    "name": "FL - DUVAL COUNTY",
    "zipcode": 32260,
    "tax": 0.07
  }, {
    "id": 1682,
    "name": "FL - DUVAL COUNTY",
    "zipcode": 32266,
    "tax": 0.07
  }, {
    "id": 1683,
    "name": "FL - DUVAL COUNTY",
    "zipcode": 32277,
    "tax": 0.07
  }, {
    "id": 1684,
    "name": "FL - LEON COUNTY",
    "zipcode": 32301,
    "tax": 0.075
  }, {
    "id": 1685,
    "name": "FL - LEON COUNTY",
    "zipcode": 32302,
    "tax": 0.075
  }, {
    "id": 1686,
    "name": "FL - LEON COUNTY",
    "zipcode": 32303,
    "tax": 0.075
  }, {
    "id": 1687,
    "name": "FL - LEON COUNTY",
    "zipcode": 32304,
    "tax": 0.075
  }, {
    "id": 1688,
    "name": "FL - LEON COUNTY",
    "zipcode": 32305,
    "tax": 0.075
  }, {
    "id": 1689,
    "name": "FL - LEON COUNTY",
    "zipcode": 32306,
    "tax": 0.075
  }, {
    "id": 1690,
    "name": "FL - LEON COUNTY",
    "zipcode": 32307,
    "tax": 0.075
  }, {
    "id": 1691,
    "name": "FL - LEON COUNTY",
    "zipcode": 32308,
    "tax": 0.075
  }, {
    "id": 1692,
    "name": "FL - LEON COUNTY",
    "zipcode": 32309,
    "tax": 0.075
  }, {
    "id": 1693,
    "name": "FL - LEON COUNTY",
    "zipcode": 32310,
    "tax": 0.075
  }, {
    "id": 1694,
    "name": "FL - LEON COUNTY",
    "zipcode": 32311,
    "tax": 0.075
  }, {
    "id": 1695,
    "name": "FL - LEON COUNTY",
    "zipcode": 32312,
    "tax": 0.075
  }, {
    "id": 1696,
    "name": "FL - LEON COUNTY",
    "zipcode": 32313,
    "tax": 0.075
  }, {
    "id": 1697,
    "name": "FL - LEON COUNTY",
    "zipcode": 32314,
    "tax": 0.075
  }, {
    "id": 1698,
    "name": "FL - LEON COUNTY",
    "zipcode": 32315,
    "tax": 0.075
  }, {
    "id": 1699,
    "name": "FL - LEON COUNTY",
    "zipcode": 32316,
    "tax": 0.075
  }, {
    "id": 1700,
    "name": "FL - LEON COUNTY",
    "zipcode": 32317,
    "tax": 0.075
  }, {
    "id": 1701,
    "name": "FL - LEON COUNTY",
    "zipcode": 32318,
    "tax": 0.075
  }, {
    "id": 1702,
    "name": "FL - FRANKLIN COUNTY",
    "zipcode": 32320,
    "tax": 0.07
  }, {
    "id": 1703,
    "name": "FL - LIBERTY COUNTY",
    "zipcode": 32321,
    "tax": 0.075
  }, {
    "id": 1704,
    "name": "FL - FRANKLIN COUNTY",
    "zipcode": 32322,
    "tax": 0.07
  }, {
    "id": 1705,
    "name": "FL - FRANKLIN COUNTY",
    "zipcode": 32323,
    "tax": 0.07
  }, {
    "id": 1706,
    "name": "FL - GADSDEN COUNTY",
    "zipcode": 32324,
    "tax": 0.075
  }, {
    "id": 1707,
    "name": "FL - WAKULLA COUNTY",
    "zipcode": 32326,
    "tax": 0.07
  }, {
    "id": 1708,
    "name": "FL - WAKULLA COUNTY",
    "zipcode": 32327,
    "tax": 0.07
  }, {
    "id": 1709,
    "name": "FL - FRANKLIN COUNTY",
    "zipcode": 32328,
    "tax": 0.07
  }, {
    "id": 1710,
    "name": "FL - FRANKLIN COUNTY",
    "zipcode": 32329,
    "tax": 0.07
  }, {
    "id": 1711,
    "name": "FL - GADSDEN COUNTY",
    "zipcode": 32330,
    "tax": 0.075
  }, {
    "id": 1712,
    "name": "FL - MADISON COUNTY",
    "zipcode": 32331,
    "tax": 0.075
  }, {
    "id": 1713,
    "name": "FL - GADSDEN COUNTY",
    "zipcode": 32332,
    "tax": 0.075
  }, {
    "id": 1714,
    "name": "FL - GADSDEN COUNTY",
    "zipcode": 32333,
    "tax": 0.075
  }, {
    "id": 1715,
    "name": "FL - LIBERTY COUNTY",
    "zipcode": 32334,
    "tax": 0.075
  }, {
    "id": 1716,
    "name": "FL - LIBERTY COUNTY",
    "zipcode": 32335,
    "tax": 0.075
  }, {
    "id": 1717,
    "name": "FL - JEFFERSON COUNTY",
    "zipcode": 32336,
    "tax": 0.07
  }, {
    "id": 1718,
    "name": "FL - JEFFERSON COUNTY",
    "zipcode": 32337,
    "tax": 0.07
  }, {
    "id": 1719,
    "name": "FL - MADISON COUNTY",
    "zipcode": 32340,
    "tax": 0.075
  }, {
    "id": 1720,
    "name": "FL - MADISON COUNTY",
    "zipcode": 32341,
    "tax": 0.075
  }, {
    "id": 1721,
    "name": "FL - GADSDEN COUNTY",
    "zipcode": 32343,
    "tax": 0.075
  }, {
    "id": 1722,
    "name": "FL - JEFFERSON COUNTY",
    "zipcode": 32344,
    "tax": 0.07
  }, {
    "id": 1723,
    "name": "FL - JEFFERSON COUNTY",
    "zipcode": 32345,
    "tax": 0.07
  }, {
    "id": 1724,
    "name": "FL - WAKULLA COUNTY",
    "zipcode": 32346,
    "tax": 0.07
  }, {
    "id": 1725,
    "name": "FL - TAYLOR COUNTY",
    "zipcode": 32347,
    "tax": 0.07
  }, {
    "id": 1726,
    "name": "FL - TAYLOR COUNTY",
    "zipcode": 32348,
    "tax": 0.07
  }, {
    "id": 1727,
    "name": "FL - MADISON COUNTY",
    "zipcode": 32350,
    "tax": 0.075
  }, {
    "id": 1728,
    "name": "FL - GADSDEN COUNTY",
    "zipcode": 32351,
    "tax": 0.075
  }, {
    "id": 1729,
    "name": "FL - GADSDEN COUNTY",
    "zipcode": 32352,
    "tax": 0.075
  }, {
    "id": 1730,
    "name": "FL - GADSDEN COUNTY",
    "zipcode": 32353,
    "tax": 0.075
  }, {
    "id": 1731,
    "name": "FL - WAKULLA COUNTY",
    "zipcode": 32355,
    "tax": 0.07
  }, {
    "id": 1732,
    "name": "FL - TAYLOR COUNTY",
    "zipcode": 32356,
    "tax": 0.07
  }, {
    "id": 1733,
    "name": "FL - WAKULLA COUNTY",
    "zipcode": 32358,
    "tax": 0.07
  }, {
    "id": 1734,
    "name": "FL - DIXIE COUNTY",
    "zipcode": 32359,
    "tax": 0.07
  }, {
    "id": 1735,
    "name": "FL - LIBERTY COUNTY",
    "zipcode": 32360,
    "tax": 0.075
  }, {
    "id": 1736,
    "name": "FL - JEFFERSON COUNTY",
    "zipcode": 32361,
    "tax": 0.07
  }, {
    "id": 1737,
    "name": "FL - LEON COUNTY",
    "zipcode": 32362,
    "tax": 0.075
  }, {
    "id": 1738,
    "name": "FL - LEON COUNTY",
    "zipcode": 32395,
    "tax": 0.075
  }, {
    "id": 1739,
    "name": "FL - LEON COUNTY",
    "zipcode": 32399,
    "tax": 0.075
  }, {
    "id": 1740,
    "name": "FL - BAY COUNTY",
    "zipcode": 32401,
    "tax": 0.065
  }, {
    "id": 1741,
    "name": "FL - BAY COUNTY",
    "zipcode": 32402,
    "tax": 0.065
  }, {
    "id": 1742,
    "name": "FL - BAY COUNTY",
    "zipcode": 32403,
    "tax": 0.065
  }, {
    "id": 1743,
    "name": "FL - BAY COUNTY",
    "zipcode": 32404,
    "tax": 0.065
  }, {
    "id": 1744,
    "name": "FL - BAY COUNTY",
    "zipcode": 32405,
    "tax": 0.065
  }, {
    "id": 1745,
    "name": "FL - BAY COUNTY",
    "zipcode": 32406,
    "tax": 0.065
  }, {
    "id": 1746,
    "name": "FL - BAY COUNTY",
    "zipcode": 32407,
    "tax": 0.065
  }, {
    "id": 1747,
    "name": "FL - BAY COUNTY",
    "zipcode": 32408,
    "tax": 0.065
  }, {
    "id": 1748,
    "name": "FL - BAY COUNTY",
    "zipcode": 32409,
    "tax": 0.065
  }, {
    "id": 1749,
    "name": "FL - GULF COUNTY",
    "zipcode": 32410,
    "tax": 0.07
  }, {
    "id": 1750,
    "name": "FL - BAY COUNTY",
    "zipcode": 32411,
    "tax": 0.065
  }, {
    "id": 1751,
    "name": "FL - BAY COUNTY",
    "zipcode": 32412,
    "tax": 0.065
  }, {
    "id": 1752,
    "name": "FL - BAY COUNTY",
    "zipcode": 32413,
    "tax": 0.065
  }, {
    "id": 1753,
    "name": "FL - BAY COUNTY",
    "zipcode": 32417,
    "tax": 0.065
  }, {
    "id": 1754,
    "name": "FL - JACKSON COUNTY",
    "zipcode": 32420,
    "tax": 0.075
  }, {
    "id": 1755,
    "name": "FL - CALHOUN COUNTY",
    "zipcode": 32421,
    "tax": 0.075
  }, {
    "id": 1756,
    "name": "FL - JACKSON COUNTY",
    "zipcode": 32423,
    "tax": 0.075
  }, {
    "id": 1757,
    "name": "FL - CALHOUN COUNTY",
    "zipcode": 32424,
    "tax": 0.075
  }, {
    "id": 1758,
    "name": "FL - HOLMES COUNTY",
    "zipcode": 32425,
    "tax": 0.07
  }, {
    "id": 1759,
    "name": "FL - JACKSON COUNTY",
    "zipcode": 32426,
    "tax": 0.075
  }, {
    "id": 1760,
    "name": "FL - WASHINGTON COUNTY",
    "zipcode": 32427,
    "tax": 0.07
  }, {
    "id": 1761,
    "name": "FL - WASHINGTON COUNTY",
    "zipcode": 32428,
    "tax": 0.07
  }, {
    "id": 1762,
    "name": "FL - CALHOUN COUNTY",
    "zipcode": 32430,
    "tax": 0.075
  }, {
    "id": 1763,
    "name": "FL - JACKSON COUNTY",
    "zipcode": 32431,
    "tax": 0.075
  }, {
    "id": 1764,
    "name": "FL - WALTON COUNTY",
    "zipcode": 32433,
    "tax": 0.07
  }, {
    "id": 1765,
    "name": "FL - WALTON COUNTY",
    "zipcode": 32434,
    "tax": 0.07
  }, {
    "id": 1766,
    "name": "FL - WALTON COUNTY",
    "zipcode": 32435,
    "tax": 0.07
  }, {
    "id": 1767,
    "name": "FL - WASHINGTON COUNTY",
    "zipcode": 32437,
    "tax": 0.07
  }, {
    "id": 1768,
    "name": "FL - BAY COUNTY",
    "zipcode": 32438,
    "tax": 0.065
  }, {
    "id": 1769,
    "name": "FL - WALTON COUNTY",
    "zipcode": 32439,
    "tax": 0.07
  }, {
    "id": 1770,
    "name": "FL - JACKSON COUNTY",
    "zipcode": 32440,
    "tax": 0.075
  }, {
    "id": 1771,
    "name": "FL - JACKSON COUNTY",
    "zipcode": 32442,
    "tax": 0.075
  }, {
    "id": 1772,
    "name": "FL - JACKSON COUNTY",
    "zipcode": 32443,
    "tax": 0.075
  }, {
    "id": 1773,
    "name": "FL - BAY COUNTY",
    "zipcode": 32444,
    "tax": 0.065
  }, {
    "id": 1774,
    "name": "FL - JACKSON COUNTY",
    "zipcode": 32445,
    "tax": 0.075
  }, {
    "id": 1775,
    "name": "FL - JACKSON COUNTY",
    "zipcode": 32446,
    "tax": 0.075
  }, {
    "id": 1776,
    "name": "FL - JACKSON COUNTY",
    "zipcode": 32447,
    "tax": 0.075
  }, {
    "id": 1777,
    "name": "FL - JACKSON COUNTY",
    "zipcode": 32448,
    "tax": 0.075
  }, {
    "id": 1778,
    "name": "FL - CALHOUN COUNTY",
    "zipcode": 32449,
    "tax": 0.075
  }, {
    "id": 1779,
    "name": "FL - HOLMES COUNTY",
    "zipcode": 32452,
    "tax": 0.07
  }, {
    "id": 1780,
    "name": "FL - WALTON COUNTY",
    "zipcode": 32455,
    "tax": 0.07
  }, {
    "id": 1781,
    "name": "FL - GULF COUNTY",
    "zipcode": 32456,
    "tax": 0.07
  }, {
    "id": 1782,
    "name": "FL - GULF COUNTY",
    "zipcode": 32457,
    "tax": 0.07
  }, {
    "id": 1783,
    "name": "FL - WALTON COUNTY",
    "zipcode": 32459,
    "tax": 0.07
  }, {
    "id": 1784,
    "name": "FL - JACKSON COUNTY",
    "zipcode": 32460,
    "tax": 0.075
  }, {
    "id": 1785,
    "name": "FL - BAY COUNTY",
    "zipcode": 32461,
    "tax": 0.065
  }, {
    "id": 1786,
    "name": "FL - WASHINGTON COUNTY",
    "zipcode": 32462,
    "tax": 0.07
  }, {
    "id": 1787,
    "name": "FL - WASHINGTON COUNTY",
    "zipcode": 32463,
    "tax": 0.07
  }, {
    "id": 1788,
    "name": "FL - HOLMES COUNTY",
    "zipcode": 32464,
    "tax": 0.07
  }, {
    "id": 1789,
    "name": "FL - GULF COUNTY",
    "zipcode": 32465,
    "tax": 0.07
  }, {
    "id": 1790,
    "name": "FL - BAY COUNTY",
    "zipcode": 32466,
    "tax": 0.065
  }, {
    "id": 1791,
    "name": "FL - ESCAMBIA COUNTY",
    "zipcode": 32501,
    "tax": 0.075
  }, {
    "id": 1792,
    "name": "FL - ESCAMBIA COUNTY",
    "zipcode": 32502,
    "tax": 0.075
  }, {
    "id": 1793,
    "name": "FL - ESCAMBIA COUNTY",
    "zipcode": 32503,
    "tax": 0.075
  }, {
    "id": 1794,
    "name": "FL - ESCAMBIA COUNTY",
    "zipcode": 32504,
    "tax": 0.075
  }, {
    "id": 1795,
    "name": "FL - ESCAMBIA COUNTY",
    "zipcode": 32505,
    "tax": 0.075
  }, {
    "id": 1796,
    "name": "FL - ESCAMBIA COUNTY",
    "zipcode": 32506,
    "tax": 0.075
  }, {
    "id": 1797,
    "name": "FL - ESCAMBIA COUNTY",
    "zipcode": 32507,
    "tax": 0.075
  }, {
    "id": 1798,
    "name": "FL - ESCAMBIA COUNTY",
    "zipcode": 32508,
    "tax": 0.075
  }, {
    "id": 1799,
    "name": "FL - ESCAMBIA COUNTY",
    "zipcode": 32509,
    "tax": 0.075
  }, {
    "id": 1800,
    "name": "FL - ESCAMBIA COUNTY",
    "zipcode": 32511,
    "tax": 0.075
  }, {
    "id": 1801,
    "name": "FL - ESCAMBIA COUNTY",
    "zipcode": 32512,
    "tax": 0.075
  }, {
    "id": 1802,
    "name": "FL - ESCAMBIA COUNTY",
    "zipcode": 32513,
    "tax": 0.075
  }, {
    "id": 1803,
    "name": "FL - ESCAMBIA COUNTY",
    "zipcode": 32514,
    "tax": 0.075
  }, {
    "id": 1804,
    "name": "FL - ESCAMBIA COUNTY",
    "zipcode": 32516,
    "tax": 0.075
  }, {
    "id": 1805,
    "name": "FL - ESCAMBIA COUNTY",
    "zipcode": 32520,
    "tax": 0.075
  }, {
    "id": 1806,
    "name": "FL - ESCAMBIA COUNTY",
    "zipcode": 32521,
    "tax": 0.075
  }, {
    "id": 1807,
    "name": "FL - ESCAMBIA COUNTY",
    "zipcode": 32522,
    "tax": 0.075
  }, {
    "id": 1808,
    "name": "FL - ESCAMBIA COUNTY",
    "zipcode": 32523,
    "tax": 0.075
  }, {
    "id": 1809,
    "name": "FL - ESCAMBIA COUNTY",
    "zipcode": 32524,
    "tax": 0.075
  }, {
    "id": 1810,
    "name": "FL - ESCAMBIA COUNTY",
    "zipcode": 32526,
    "tax": 0.075
  }, {
    "id": 1811,
    "name": "FL - SANTA ROSA COUNTY",
    "zipcode": 32530,
    "tax": 0.065
  }, {
    "id": 1812,
    "name": "FL - FLORIDA STATE",
    "zipcode": 32531,
    "tax": 0.06
  }, {
    "id": 1813,
    "name": "FL - ESCAMBIA COUNTY",
    "zipcode": 32533,
    "tax": 0.075
  }, {
    "id": 1814,
    "name": "FL - ESCAMBIA COUNTY",
    "zipcode": 32534,
    "tax": 0.075
  }, {
    "id": 1815,
    "name": "FL - ESCAMBIA COUNTY",
    "zipcode": 32535,
    "tax": 0.075
  }, {
    "id": 1816,
    "name": "FL - FLORIDA STATE",
    "zipcode": 32536,
    "tax": 0.06
  }, {
    "id": 1817,
    "name": "FL - FLORIDA STATE",
    "zipcode": 32538,
    "tax": 0.06
  }, {
    "id": 1818,
    "name": "FL - FLORIDA STATE",
    "zipcode": 32539,
    "tax": 0.06
  }, {
    "id": 1819,
    "name": "FL - FLORIDA STATE",
    "zipcode": 32540,
    "tax": 0.06
  }, {
    "id": 1820,
    "name": "FL - FLORIDA STATE",
    "zipcode": 32541,
    "tax": 0.06
  }, {
    "id": 1821,
    "name": "FL - FLORIDA STATE",
    "zipcode": 32542,
    "tax": 0.06
  }, {
    "id": 1822,
    "name": "FL - FLORIDA STATE",
    "zipcode": 32544,
    "tax": 0.06
  }, {
    "id": 1823,
    "name": "FL - FLORIDA STATE",
    "zipcode": 32547,
    "tax": 0.06
  }, {
    "id": 1824,
    "name": "FL - FLORIDA STATE",
    "zipcode": 32548,
    "tax": 0.06
  }, {
    "id": 1825,
    "name": "FL - FLORIDA STATE",
    "zipcode": 32549,
    "tax": 0.06
  }, {
    "id": 1826,
    "name": "FL - WALTON COUNTY",
    "zipcode": 32550,
    "tax": 0.07
  }, {
    "id": 1827,
    "name": "FL - ESCAMBIA COUNTY",
    "zipcode": 32559,
    "tax": 0.075
  }, {
    "id": 1828,
    "name": "FL - ESCAMBIA COUNTY",
    "zipcode": 32560,
    "tax": 0.075
  }, {
    "id": 1829,
    "name": "FL - ESCAMBIA COUNTY",
    "zipcode": 32561,
    "tax": 0.075
  }, {
    "id": 1830,
    "name": "FL - SANTA ROSA COUNTY",
    "zipcode": 32562,
    "tax": 0.065
  }, {
    "id": 1831,
    "name": "FL - SANTA ROSA COUNTY",
    "zipcode": 32563,
    "tax": 0.065
  }, {
    "id": 1832,
    "name": "FL - FLORIDA STATE",
    "zipcode": 32564,
    "tax": 0.06
  }, {
    "id": 1833,
    "name": "FL - SANTA ROSA COUNTY",
    "zipcode": 32565,
    "tax": 0.065
  }, {
    "id": 1834,
    "name": "FL - SANTA ROSA COUNTY",
    "zipcode": 32566,
    "tax": 0.065
  }, {
    "id": 1835,
    "name": "FL - WALTON COUNTY",
    "zipcode": 32567,
    "tax": 0.07
  }, {
    "id": 1836,
    "name": "FL - ESCAMBIA COUNTY",
    "zipcode": 32568,
    "tax": 0.075
  }, {
    "id": 1837,
    "name": "FL - FLORIDA STATE",
    "zipcode": 32569,
    "tax": 0.06
  }, {
    "id": 1838,
    "name": "FL - SANTA ROSA COUNTY",
    "zipcode": 32570,
    "tax": 0.065
  }, {
    "id": 1839,
    "name": "FL - SANTA ROSA COUNTY",
    "zipcode": 32571,
    "tax": 0.065
  }, {
    "id": 1840,
    "name": "FL - SANTA ROSA COUNTY",
    "zipcode": 32572,
    "tax": 0.065
  }, {
    "id": 1841,
    "name": "FL - ESCAMBIA COUNTY",
    "zipcode": 32577,
    "tax": 0.075
  }, {
    "id": 1842,
    "name": "FL - FLORIDA STATE",
    "zipcode": 32578,
    "tax": 0.06
  }, {
    "id": 1843,
    "name": "FL - FLORIDA STATE",
    "zipcode": 32579,
    "tax": 0.06
  }, {
    "id": 1844,
    "name": "FL - FLORIDA STATE",
    "zipcode": 32580,
    "tax": 0.06
  }, {
    "id": 1845,
    "name": "FL - SANTA ROSA COUNTY",
    "zipcode": 32583,
    "tax": 0.065
  }, {
    "id": 1846,
    "name": "FL - FLORIDA STATE",
    "zipcode": 32588,
    "tax": 0.06
  }, {
    "id": 1847,
    "name": "FL - ESCAMBIA COUNTY",
    "zipcode": 32590,
    "tax": 0.075
  }, {
    "id": 1848,
    "name": "FL - ESCAMBIA COUNTY",
    "zipcode": 32591,
    "tax": 0.075
  }, {
    "id": 1849,
    "name": "FL - ESCAMBIA COUNTY",
    "zipcode": 32592,
    "tax": 0.075
  }, {
    "id": 1850,
    "name": "FL - FLORIDA STATE",
    "zipcode": 32601,
    "tax": 0.06
  }, {
    "id": 1851,
    "name": "FL - FLORIDA STATE",
    "zipcode": 32602,
    "tax": 0.06
  }, {
    "id": 1852,
    "name": "FL - FLORIDA STATE",
    "zipcode": 32603,
    "tax": 0.06
  }, {
    "id": 1853,
    "name": "FL - FLORIDA STATE",
    "zipcode": 32604,
    "tax": 0.06
  }, {
    "id": 1854,
    "name": "FL - FLORIDA STATE",
    "zipcode": 32605,
    "tax": 0.06
  }, {
    "id": 1855,
    "name": "FL - FLORIDA STATE",
    "zipcode": 32606,
    "tax": 0.06
  }, {
    "id": 1856,
    "name": "FL - FLORIDA STATE",
    "zipcode": 32607,
    "tax": 0.06
  }, {
    "id": 1857,
    "name": "FL - FLORIDA STATE",
    "zipcode": 32608,
    "tax": 0.06
  }, {
    "id": 1858,
    "name": "FL - FLORIDA STATE",
    "zipcode": 32609,
    "tax": 0.06
  }, {
    "id": 1859,
    "name": "FL - FLORIDA STATE",
    "zipcode": 32610,
    "tax": 0.06
  }, {
    "id": 1860,
    "name": "FL - FLORIDA STATE",
    "zipcode": 32611,
    "tax": 0.06
  }, {
    "id": 1861,
    "name": "FL - FLORIDA STATE",
    "zipcode": 32612,
    "tax": 0.06
  }, {
    "id": 1862,
    "name": "FL - FLORIDA STATE",
    "zipcode": 32613,
    "tax": 0.06
  }, {
    "id": 1863,
    "name": "FL - FLORIDA STATE",
    "zipcode": 32614,
    "tax": 0.06
  }, {
    "id": 1864,
    "name": "FL - FLORIDA STATE",
    "zipcode": 32615,
    "tax": 0.06
  }, {
    "id": 1865,
    "name": "FL - FLORIDA STATE",
    "zipcode": 32616,
    "tax": 0.06
  }, {
    "id": 1866,
    "name": "FL - FLORIDA STATE",
    "zipcode": 32617,
    "tax": 0.06
  }, {
    "id": 1867,
    "name": "FL - FLORIDA STATE",
    "zipcode": 32618,
    "tax": 0.06
  }, {
    "id": 1868,
    "name": "FL - GILCHRIST COUNTY",
    "zipcode": 32619,
    "tax": 0.07
  }, {
    "id": 1869,
    "name": "FL - LEVY COUNTY",
    "zipcode": 32621,
    "tax": 0.07
  }, {
    "id": 1870,
    "name": "FL - BRADFORD COUNTY",
    "zipcode": 32622,
    "tax": 0.07
  }, {
    "id": 1871,
    "name": "FL - LEVY COUNTY",
    "zipcode": 32625,
    "tax": 0.07
  }, {
    "id": 1872,
    "name": "FL - LEVY COUNTY",
    "zipcode": 32626,
    "tax": 0.07
  }, {
    "id": 1873,
    "name": "FL - FLORIDA STATE",
    "zipcode": 32627,
    "tax": 0.06
  }, {
    "id": 1874,
    "name": "FL - DIXIE COUNTY",
    "zipcode": 32628,
    "tax": 0.07
  }, {
    "id": 1875,
    "name": "FL - FLORIDA STATE",
    "zipcode": 32631,
    "tax": 0.06
  }, {
    "id": 1876,
    "name": "FL - FLORIDA STATE",
    "zipcode": 32633,
    "tax": 0.06
  }, {
    "id": 1877,
    "name": "FL - FLORIDA STATE",
    "zipcode": 32635,
    "tax": 0.06
  }, {
    "id": 1878,
    "name": "FL - LEVY COUNTY",
    "zipcode": 32639,
    "tax": 0.07
  }, {
    "id": 1879,
    "name": "FL - FLORIDA STATE",
    "zipcode": 32640,
    "tax": 0.06
  }, {
    "id": 1880,
    "name": "FL - FLORIDA STATE",
    "zipcode": 32641,
    "tax": 0.06
  }, {
    "id": 1881,
    "name": "FL - FLORIDA STATE",
    "zipcode": 32643,
    "tax": 0.06
  }, {
    "id": 1882,
    "name": "FL - LEVY COUNTY",
    "zipcode": 32644,
    "tax": 0.07
  }, {
    "id": 1883,
    "name": "FL - DIXIE COUNTY",
    "zipcode": 32648,
    "tax": 0.07
  }, {
    "id": 1884,
    "name": "FL - FLORIDA STATE",
    "zipcode": 32653,
    "tax": 0.06
  }, {
    "id": 1885,
    "name": "FL - FLORIDA STATE",
    "zipcode": 32655,
    "tax": 0.06
  }, {
    "id": 1886,
    "name": "FL - CLAY COUNTY",
    "zipcode": 32656,
    "tax": 0.07
  }, {
    "id": 1887,
    "name": "FL - FLORIDA STATE",
    "zipcode": 32662,
    "tax": 0.06
  }, {
    "id": 1888,
    "name": "FL - FLORIDA STATE",
    "zipcode": 32664,
    "tax": 0.06
  }, {
    "id": 1889,
    "name": "FL - PUTNAM COUNTY",
    "zipcode": 32666,
    "tax": 0.07
  }, {
    "id": 1890,
    "name": "FL - FLORIDA STATE",
    "zipcode": 32667,
    "tax": 0.06
  }, {
    "id": 1891,
    "name": "FL - LEVY COUNTY",
    "zipcode": 32668,
    "tax": 0.07
  }, {
    "id": 1892,
    "name": "FL - FLORIDA STATE",
    "zipcode": 32669,
    "tax": 0.06
  }, {
    "id": 1893,
    "name": "FL - DIXIE COUNTY",
    "zipcode": 32680,
    "tax": 0.07
  }, {
    "id": 1894,
    "name": "FL - LEVY COUNTY",
    "zipcode": 32683,
    "tax": 0.07
  }, {
    "id": 1895,
    "name": "FL - FLORIDA STATE",
    "zipcode": 32686,
    "tax": 0.06
  }, {
    "id": 1896,
    "name": "FL - DIXIE COUNTY",
    "zipcode": 32692,
    "tax": 0.07
  }, {
    "id": 1897,
    "name": "FL - GILCHRIST COUNTY",
    "zipcode": 32693,
    "tax": 0.07
  }, {
    "id": 1898,
    "name": "FL - FLORIDA STATE",
    "zipcode": 32694,
    "tax": 0.06
  }, {
    "id": 1899,
    "name": "FL - LEVY COUNTY",
    "zipcode": 32696,
    "tax": 0.07
  }, {
    "id": 1900,
    "name": "FL - UNION COUNTY",
    "zipcode": 32697,
    "tax": 0.07
  }, {
    "id": 1901,
    "name": "FL - FLORIDA STATE",
    "zipcode": 32701,
    "tax": 0.06
  }, {
    "id": 1902,
    "name": "FL - LAKE COUNTY",
    "zipcode": 32702,
    "tax": 0.07
  }, {
    "id": 1903,
    "name": "FL - ORANGE COUNTY",
    "zipcode": 32703,
    "tax": 0.065
  }, {
    "id": 1904,
    "name": "FL - ORANGE COUNTY",
    "zipcode": 32704,
    "tax": 0.065
  }, {
    "id": 1905,
    "name": "FL - VOLUSIA COUNTY",
    "zipcode": 32706,
    "tax": 0.065
  }, {
    "id": 1906,
    "name": "FL - FLORIDA STATE",
    "zipcode": 32707,
    "tax": 0.06
  }, {
    "id": 1907,
    "name": "FL - FLORIDA STATE",
    "zipcode": 32708,
    "tax": 0.06
  }, {
    "id": 1908,
    "name": "FL - ORANGE COUNTY",
    "zipcode": 32709,
    "tax": 0.065
  }, {
    "id": 1909,
    "name": "FL - ORANGE COUNTY",
    "zipcode": 32712,
    "tax": 0.065
  }, {
    "id": 1910,
    "name": "FL - VOLUSIA COUNTY",
    "zipcode": 32713,
    "tax": 0.065
  }, {
    "id": 1911,
    "name": "FL - FLORIDA STATE",
    "zipcode": 32714,
    "tax": 0.06
  }, {
    "id": 1912,
    "name": "FL - FLORIDA STATE",
    "zipcode": 32715,
    "tax": 0.06
  }, {
    "id": 1913,
    "name": "FL - FLORIDA STATE",
    "zipcode": 32716,
    "tax": 0.06
  }, {
    "id": 1914,
    "name": "FL - FLORIDA STATE",
    "zipcode": 32718,
    "tax": 0.06
  }, {
    "id": 1915,
    "name": "FL - FLORIDA STATE",
    "zipcode": 32719,
    "tax": 0.06
  }, {
    "id": 1916,
    "name": "FL - VOLUSIA COUNTY",
    "zipcode": 32720,
    "tax": 0.065
  }, {
    "id": 1917,
    "name": "FL - VOLUSIA COUNTY",
    "zipcode": 32721,
    "tax": 0.065
  }, {
    "id": 1918,
    "name": "FL - VOLUSIA COUNTY",
    "zipcode": 32722,
    "tax": 0.065
  }, {
    "id": 1919,
    "name": "FL - VOLUSIA COUNTY",
    "zipcode": 32723,
    "tax": 0.065
  }, {
    "id": 1920,
    "name": "FL - VOLUSIA COUNTY",
    "zipcode": 32724,
    "tax": 0.065
  }, {
    "id": 1921,
    "name": "FL - VOLUSIA COUNTY",
    "zipcode": 32725,
    "tax": 0.065
  }, {
    "id": 1922,
    "name": "FL - LAKE COUNTY",
    "zipcode": 32726,
    "tax": 0.07
  }, {
    "id": 1923,
    "name": "FL - LAKE COUNTY",
    "zipcode": 32727,
    "tax": 0.07
  }, {
    "id": 1924,
    "name": "FL - VOLUSIA COUNTY",
    "zipcode": 32728,
    "tax": 0.065
  }, {
    "id": 1925,
    "name": "FL - FLORIDA STATE",
    "zipcode": 32730,
    "tax": 0.06
  }, {
    "id": 1926,
    "name": "FL - FLORIDA STATE",
    "zipcode": 32732,
    "tax": 0.06
  }, {
    "id": 1927,
    "name": "FL - LAKE COUNTY",
    "zipcode": 32735,
    "tax": 0.07
  }, {
    "id": 1928,
    "name": "FL - LAKE COUNTY",
    "zipcode": 32736,
    "tax": 0.07
  }, {
    "id": 1929,
    "name": "FL - VOLUSIA COUNTY",
    "zipcode": 32738,
    "tax": 0.065
  }, {
    "id": 1930,
    "name": "FL - VOLUSIA COUNTY",
    "zipcode": 32739,
    "tax": 0.065
  }, {
    "id": 1931,
    "name": "FL - VOLUSIA COUNTY",
    "zipcode": 32744,
    "tax": 0.065
  }, {
    "id": 1932,
    "name": "FL - FLORIDA STATE",
    "zipcode": 32746,
    "tax": 0.06
  }, {
    "id": 1933,
    "name": "FL - FLORIDA STATE",
    "zipcode": 32747,
    "tax": 0.06
  }, {
    "id": 1934,
    "name": "FL - FLORIDA STATE",
    "zipcode": 32750,
    "tax": 0.06
  }, {
    "id": 1935,
    "name": "FL - ORANGE COUNTY",
    "zipcode": 32751,
    "tax": 0.065
  }, {
    "id": 1936,
    "name": "FL - FLORIDA STATE",
    "zipcode": 32752,
    "tax": 0.06
  }, {
    "id": 1937,
    "name": "FL - VOLUSIA COUNTY",
    "zipcode": 32753,
    "tax": 0.065
  }, {
    "id": 1938,
    "name": "FL - FLORIDA STATE",
    "zipcode": 32754,
    "tax": 0.06
  }, {
    "id": 1939,
    "name": "FL - LAKE COUNTY",
    "zipcode": 32756,
    "tax": 0.07
  }, {
    "id": 1940,
    "name": "FL - LAKE COUNTY",
    "zipcode": 32757,
    "tax": 0.07
  }, {
    "id": 1941,
    "name": "FL - VOLUSIA COUNTY",
    "zipcode": 32759,
    "tax": 0.065
  }, {
    "id": 1942,
    "name": "FL - FLORIDA STATE",
    "zipcode": 32762,
    "tax": 0.06
  }, {
    "id": 1943,
    "name": "FL - VOLUSIA COUNTY",
    "zipcode": 32763,
    "tax": 0.065
  }, {
    "id": 1944,
    "name": "FL - VOLUSIA COUNTY",
    "zipcode": 32764,
    "tax": 0.065
  }, {
    "id": 1945,
    "name": "FL - FLORIDA STATE",
    "zipcode": 32765,
    "tax": 0.06
  }, {
    "id": 1946,
    "name": "FL - FLORIDA STATE",
    "zipcode": 32766,
    "tax": 0.06
  }, {
    "id": 1947,
    "name": "FL - LAKE COUNTY",
    "zipcode": 32767,
    "tax": 0.07
  }, {
    "id": 1948,
    "name": "FL - FLORIDA STATE",
    "zipcode": 32771,
    "tax": 0.06
  }, {
    "id": 1949,
    "name": "FL - FLORIDA STATE",
    "zipcode": 32772,
    "tax": 0.06
  }, {
    "id": 1950,
    "name": "FL - FLORIDA STATE",
    "zipcode": 32773,
    "tax": 0.06
  }, {
    "id": 1951,
    "name": "FL - VOLUSIA COUNTY",
    "zipcode": 32774,
    "tax": 0.065
  }, {
    "id": 1952,
    "name": "FL - FLORIDA STATE",
    "zipcode": 32775,
    "tax": 0.06
  }, {
    "id": 1953,
    "name": "FL - LAKE COUNTY",
    "zipcode": 32776,
    "tax": 0.07
  }, {
    "id": 1954,
    "name": "FL - LAKE COUNTY",
    "zipcode": 32778,
    "tax": 0.07
  }, {
    "id": 1955,
    "name": "FL - FLORIDA STATE",
    "zipcode": 32779,
    "tax": 0.06
  }, {
    "id": 1956,
    "name": "FL - FLORIDA STATE",
    "zipcode": 32780,
    "tax": 0.06
  }, {
    "id": 1957,
    "name": "FL - FLORIDA STATE",
    "zipcode": 32781,
    "tax": 0.06
  }, {
    "id": 1958,
    "name": "FL - FLORIDA STATE",
    "zipcode": 32782,
    "tax": 0.06
  }, {
    "id": 1959,
    "name": "FL - FLORIDA STATE",
    "zipcode": 32783,
    "tax": 0.06
  }, {
    "id": 1960,
    "name": "FL - LAKE COUNTY",
    "zipcode": 32784,
    "tax": 0.07
  }, {
    "id": 1961,
    "name": "FL - ORANGE COUNTY",
    "zipcode": 32789,
    "tax": 0.065
  }, {
    "id": 1962,
    "name": "FL - ORANGE COUNTY",
    "zipcode": 32790,
    "tax": 0.065
  }, {
    "id": 1963,
    "name": "FL - FLORIDA STATE",
    "zipcode": 32791,
    "tax": 0.06
  }, {
    "id": 1964,
    "name": "FL - ORANGE COUNTY",
    "zipcode": 32792,
    "tax": 0.065
  }, {
    "id": 1965,
    "name": "FL - ORANGE COUNTY",
    "zipcode": 32793,
    "tax": 0.065
  }, {
    "id": 1966,
    "name": "FL - ORANGE COUNTY",
    "zipcode": 32794,
    "tax": 0.065
  }, {
    "id": 1967,
    "name": "FL - FLORIDA STATE",
    "zipcode": 32795,
    "tax": 0.06
  }, {
    "id": 1968,
    "name": "FL - FLORIDA STATE",
    "zipcode": 32796,
    "tax": 0.06
  }, {
    "id": 1969,
    "name": "FL - ORANGE COUNTY",
    "zipcode": 32798,
    "tax": 0.065
  }, {
    "id": 1970,
    "name": "FL - ORANGE COUNTY",
    "zipcode": 32801,
    "tax": 0.065
  }, {
    "id": 1971,
    "name": "FL - ORANGE COUNTY",
    "zipcode": 32802,
    "tax": 0.065
  }, {
    "id": 1972,
    "name": "FL - ORANGE COUNTY",
    "zipcode": 32803,
    "tax": 0.065
  }, {
    "id": 1973,
    "name": "FL - ORANGE COUNTY",
    "zipcode": 32804,
    "tax": 0.065
  }, {
    "id": 1974,
    "name": "FL - ORANGE COUNTY",
    "zipcode": 32805,
    "tax": 0.065
  }, {
    "id": 1975,
    "name": "FL - ORANGE COUNTY",
    "zipcode": 32806,
    "tax": 0.065
  }, {
    "id": 1976,
    "name": "FL - ORANGE COUNTY",
    "zipcode": 32807,
    "tax": 0.065
  }, {
    "id": 1977,
    "name": "FL - ORANGE COUNTY",
    "zipcode": 32808,
    "tax": 0.065
  }, {
    "id": 1978,
    "name": "FL - ORANGE COUNTY",
    "zipcode": 32809,
    "tax": 0.065
  }, {
    "id": 1979,
    "name": "FL - ORANGE COUNTY",
    "zipcode": 32810,
    "tax": 0.065
  }, {
    "id": 1980,
    "name": "FL - ORANGE COUNTY",
    "zipcode": 32811,
    "tax": 0.065
  }, {
    "id": 1981,
    "name": "FL - ORANGE COUNTY",
    "zipcode": 32812,
    "tax": 0.065
  }, {
    "id": 1982,
    "name": "FL - ORANGE COUNTY",
    "zipcode": 32814,
    "tax": 0.065
  }, {
    "id": 1983,
    "name": "FL - ORANGE COUNTY",
    "zipcode": 32815,
    "tax": 0.065
  }, {
    "id": 1984,
    "name": "FL - ORANGE COUNTY",
    "zipcode": 32816,
    "tax": 0.065
  }, {
    "id": 1985,
    "name": "FL - ORANGE COUNTY",
    "zipcode": 32817,
    "tax": 0.065
  }, {
    "id": 1986,
    "name": "FL - ORANGE COUNTY",
    "zipcode": 32818,
    "tax": 0.065
  }, {
    "id": 1987,
    "name": "FL - ORANGE COUNTY",
    "zipcode": 32819,
    "tax": 0.065
  }, {
    "id": 1988,
    "name": "FL - ORANGE COUNTY",
    "zipcode": 32820,
    "tax": 0.065
  }, {
    "id": 1989,
    "name": "FL - ORANGE COUNTY",
    "zipcode": 32821,
    "tax": 0.065
  }, {
    "id": 1990,
    "name": "FL - ORANGE COUNTY",
    "zipcode": 32822,
    "tax": 0.065
  }, {
    "id": 1991,
    "name": "FL - ORANGE COUNTY",
    "zipcode": 32824,
    "tax": 0.065
  }, {
    "id": 1992,
    "name": "FL - ORANGE COUNTY",
    "zipcode": 32825,
    "tax": 0.065
  }, {
    "id": 1993,
    "name": "FL - ORANGE COUNTY",
    "zipcode": 32826,
    "tax": 0.065
  }, {
    "id": 1994,
    "name": "FL - ORANGE COUNTY",
    "zipcode": 32827,
    "tax": 0.065
  }, {
    "id": 1995,
    "name": "FL - ORANGE COUNTY",
    "zipcode": 32828,
    "tax": 0.065
  }, {
    "id": 1996,
    "name": "FL - ORANGE COUNTY",
    "zipcode": 32829,
    "tax": 0.065
  }, {
    "id": 1997,
    "name": "FL - ORANGE COUNTY",
    "zipcode": 32830,
    "tax": 0.065
  }, {
    "id": 1998,
    "name": "FL - ORANGE COUNTY",
    "zipcode": 32831,
    "tax": 0.065
  }, {
    "id": 1999,
    "name": "FL - ORANGE COUNTY",
    "zipcode": 32832,
    "tax": 0.065
  }, {
    "id": 2000,
    "name": "FL - ORANGE COUNTY",
    "zipcode": 32833,
    "tax": 0.065
  }, {
    "id": 2001,
    "name": "FL - ORANGE COUNTY",
    "zipcode": 32834,
    "tax": 0.065
  }, {
    "id": 2002,
    "name": "FL - ORANGE COUNTY",
    "zipcode": 32835,
    "tax": 0.065
  }, {
    "id": 2003,
    "name": "FL - ORANGE COUNTY",
    "zipcode": 32836,
    "tax": 0.065
  }, {
    "id": 2004,
    "name": "FL - ORANGE COUNTY",
    "zipcode": 32837,
    "tax": 0.065
  }, {
    "id": 2005,
    "name": "FL - ORANGE COUNTY",
    "zipcode": 32839,
    "tax": 0.065
  }, {
    "id": 2006,
    "name": "FL - ORANGE COUNTY",
    "zipcode": 32853,
    "tax": 0.065
  }, {
    "id": 2007,
    "name": "FL - ORANGE COUNTY",
    "zipcode": 32854,
    "tax": 0.065
  }, {
    "id": 2008,
    "name": "FL - ORANGE COUNTY",
    "zipcode": 32855,
    "tax": 0.065
  }, {
    "id": 2009,
    "name": "FL - ORANGE COUNTY",
    "zipcode": 32856,
    "tax": 0.065
  }, {
    "id": 2010,
    "name": "FL - ORANGE COUNTY",
    "zipcode": 32857,
    "tax": 0.065
  }, {
    "id": 2011,
    "name": "FL - ORANGE COUNTY",
    "zipcode": 32858,
    "tax": 0.065
  }, {
    "id": 2012,
    "name": "FL - ORANGE COUNTY",
    "zipcode": 32859,
    "tax": 0.065
  }, {
    "id": 2013,
    "name": "FL - ORANGE COUNTY",
    "zipcode": 32860,
    "tax": 0.065
  }, {
    "id": 2014,
    "name": "FL - ORANGE COUNTY",
    "zipcode": 32861,
    "tax": 0.065
  }, {
    "id": 2015,
    "name": "FL - ORANGE COUNTY",
    "zipcode": 32862,
    "tax": 0.065
  }, {
    "id": 2016,
    "name": "FL - ORANGE COUNTY",
    "zipcode": 32867,
    "tax": 0.065
  }, {
    "id": 2017,
    "name": "FL - ORANGE COUNTY",
    "zipcode": 32868,
    "tax": 0.065
  }, {
    "id": 2018,
    "name": "FL - ORANGE COUNTY",
    "zipcode": 32869,
    "tax": 0.065
  }, {
    "id": 2019,
    "name": "FL - ORANGE COUNTY",
    "zipcode": 32872,
    "tax": 0.065
  }, {
    "id": 2020,
    "name": "FL - ORANGE COUNTY",
    "zipcode": 32877,
    "tax": 0.065
  }, {
    "id": 2021,
    "name": "FL - ORANGE COUNTY",
    "zipcode": 32878,
    "tax": 0.065
  }, {
    "id": 2022,
    "name": "FL - ORANGE COUNTY",
    "zipcode": 32885,
    "tax": 0.065
  }, {
    "id": 2023,
    "name": "FL - ORANGE COUNTY",
    "zipcode": 32886,
    "tax": 0.065
  }, {
    "id": 2024,
    "name": "FL - ORANGE COUNTY",
    "zipcode": 32887,
    "tax": 0.065
  }, {
    "id": 2025,
    "name": "FL - ORANGE COUNTY",
    "zipcode": 32891,
    "tax": 0.065
  }, {
    "id": 2026,
    "name": "FL - ORANGE COUNTY",
    "zipcode": 32896,
    "tax": 0.065
  }, {
    "id": 2027,
    "name": "FL - ORANGE COUNTY",
    "zipcode": 32897,
    "tax": 0.065
  }, {
    "id": 2028,
    "name": "FL - FLORIDA STATE",
    "zipcode": 32901,
    "tax": 0.06
  }, {
    "id": 2029,
    "name": "FL - FLORIDA STATE",
    "zipcode": 32902,
    "tax": 0.06
  }, {
    "id": 2030,
    "name": "FL - FLORIDA STATE",
    "zipcode": 32903,
    "tax": 0.06
  }, {
    "id": 2031,
    "name": "FL - FLORIDA STATE",
    "zipcode": 32904,
    "tax": 0.06
  }, {
    "id": 2032,
    "name": "FL - FLORIDA STATE",
    "zipcode": 32905,
    "tax": 0.06
  }, {
    "id": 2033,
    "name": "FL - FLORIDA STATE",
    "zipcode": 32906,
    "tax": 0.06
  }, {
    "id": 2034,
    "name": "FL - FLORIDA STATE",
    "zipcode": 32907,
    "tax": 0.06
  }, {
    "id": 2035,
    "name": "FL - FLORIDA STATE",
    "zipcode": 32908,
    "tax": 0.06
  }, {
    "id": 2036,
    "name": "FL - FLORIDA STATE",
    "zipcode": 32909,
    "tax": 0.06
  }, {
    "id": 2037,
    "name": "FL - FLORIDA STATE",
    "zipcode": 32910,
    "tax": 0.06
  }, {
    "id": 2038,
    "name": "FL - FLORIDA STATE",
    "zipcode": 32911,
    "tax": 0.06
  }, {
    "id": 2039,
    "name": "FL - FLORIDA STATE",
    "zipcode": 32912,
    "tax": 0.06
  }, {
    "id": 2040,
    "name": "FL - FLORIDA STATE",
    "zipcode": 32919,
    "tax": 0.06
  }, {
    "id": 2041,
    "name": "FL - FLORIDA STATE",
    "zipcode": 32920,
    "tax": 0.06
  }, {
    "id": 2042,
    "name": "FL - FLORIDA STATE",
    "zipcode": 32922,
    "tax": 0.06
  }, {
    "id": 2043,
    "name": "FL - FLORIDA STATE",
    "zipcode": 32923,
    "tax": 0.06
  }, {
    "id": 2044,
    "name": "FL - FLORIDA STATE",
    "zipcode": 32924,
    "tax": 0.06
  }, {
    "id": 2045,
    "name": "FL - FLORIDA STATE",
    "zipcode": 32925,
    "tax": 0.06
  }, {
    "id": 2046,
    "name": "FL - FLORIDA STATE",
    "zipcode": 32926,
    "tax": 0.06
  }, {
    "id": 2047,
    "name": "FL - FLORIDA STATE",
    "zipcode": 32927,
    "tax": 0.06
  }, {
    "id": 2048,
    "name": "FL - FLORIDA STATE",
    "zipcode": 32931,
    "tax": 0.06
  }, {
    "id": 2049,
    "name": "FL - FLORIDA STATE",
    "zipcode": 32932,
    "tax": 0.06
  }, {
    "id": 2050,
    "name": "FL - FLORIDA STATE",
    "zipcode": 32934,
    "tax": 0.06
  }, {
    "id": 2051,
    "name": "FL - FLORIDA STATE",
    "zipcode": 32935,
    "tax": 0.06
  }, {
    "id": 2052,
    "name": "FL - FLORIDA STATE",
    "zipcode": 32936,
    "tax": 0.06
  }, {
    "id": 2053,
    "name": "FL - FLORIDA STATE",
    "zipcode": 32937,
    "tax": 0.06
  }, {
    "id": 2054,
    "name": "FL - FLORIDA STATE",
    "zipcode": 32940,
    "tax": 0.06
  }, {
    "id": 2055,
    "name": "FL - FLORIDA STATE",
    "zipcode": 32941,
    "tax": 0.06
  }, {
    "id": 2056,
    "name": "FL - INDIAN RIVER COUNTY",
    "zipcode": 32948,
    "tax": 0.07
  }, {
    "id": 2057,
    "name": "FL - FLORIDA STATE",
    "zipcode": 32949,
    "tax": 0.06
  }, {
    "id": 2058,
    "name": "FL - FLORIDA STATE",
    "zipcode": 32950,
    "tax": 0.06
  }, {
    "id": 2059,
    "name": "FL - FLORIDA STATE",
    "zipcode": 32951,
    "tax": 0.06
  }, {
    "id": 2060,
    "name": "FL - FLORIDA STATE",
    "zipcode": 32952,
    "tax": 0.06
  }, {
    "id": 2061,
    "name": "FL - FLORIDA STATE",
    "zipcode": 32953,
    "tax": 0.06
  }, {
    "id": 2062,
    "name": "FL - FLORIDA STATE",
    "zipcode": 32954,
    "tax": 0.06
  }, {
    "id": 2063,
    "name": "FL - FLORIDA STATE",
    "zipcode": 32955,
    "tax": 0.06
  }, {
    "id": 2064,
    "name": "FL - FLORIDA STATE",
    "zipcode": 32956,
    "tax": 0.06
  }, {
    "id": 2065,
    "name": "FL - INDIAN RIVER COUNTY",
    "zipcode": 32958,
    "tax": 0.07
  }, {
    "id": 2066,
    "name": "FL - FLORIDA STATE",
    "zipcode": 32959,
    "tax": 0.06
  }, {
    "id": 2067,
    "name": "FL - INDIAN RIVER COUNTY",
    "zipcode": 32960,
    "tax": 0.07
  }, {
    "id": 2068,
    "name": "FL - INDIAN RIVER COUNTY",
    "zipcode": 32961,
    "tax": 0.07
  }, {
    "id": 2069,
    "name": "FL - INDIAN RIVER COUNTY",
    "zipcode": 32962,
    "tax": 0.07
  }, {
    "id": 2070,
    "name": "FL - INDIAN RIVER COUNTY",
    "zipcode": 32963,
    "tax": 0.07
  }, {
    "id": 2071,
    "name": "FL - INDIAN RIVER COUNTY",
    "zipcode": 32964,
    "tax": 0.07
  }, {
    "id": 2072,
    "name": "FL - INDIAN RIVER COUNTY",
    "zipcode": 32965,
    "tax": 0.07
  }, {
    "id": 2073,
    "name": "FL - INDIAN RIVER COUNTY",
    "zipcode": 32966,
    "tax": 0.07
  }, {
    "id": 2074,
    "name": "FL - INDIAN RIVER COUNTY",
    "zipcode": 32967,
    "tax": 0.07
  }, {
    "id": 2075,
    "name": "FL - INDIAN RIVER COUNTY",
    "zipcode": 32968,
    "tax": 0.07
  }, {
    "id": 2076,
    "name": "FL - INDIAN RIVER COUNTY",
    "zipcode": 32969,
    "tax": 0.07
  }, {
    "id": 2077,
    "name": "FL - INDIAN RIVER COUNTY",
    "zipcode": 32971,
    "tax": 0.07
  }, {
    "id": 2078,
    "name": "FL - FLORIDA STATE",
    "zipcode": 32976,
    "tax": 0.06
  }, {
    "id": 2079,
    "name": "FL - INDIAN RIVER COUNTY",
    "zipcode": 32978,
    "tax": 0.07
  }, {
    "id": 2080,
    "name": "FL - MONROE COUNTY",
    "zipcode": 33001,
    "tax": 0.075
  }, {
    "id": 2081,
    "name": "FL - MIAMI-DADE COUNTY",
    "zipcode": 33002,
    "tax": 0.07
  }, {
    "id": 2082,
    "name": "FL - FLORIDA STATE",
    "zipcode": 33004,
    "tax": 0.06
  }, {
    "id": 2083,
    "name": "FL - FLORIDA STATE",
    "zipcode": 33008,
    "tax": 0.06
  }, {
    "id": 2084,
    "name": "FL - FLORIDA STATE",
    "zipcode": 33009,
    "tax": 0.06
  }, {
    "id": 2085,
    "name": "FL - MIAMI-DADE COUNTY",
    "zipcode": 33010,
    "tax": 0.07
  }, {
    "id": 2086,
    "name": "FL - MIAMI-DADE COUNTY",
    "zipcode": 33011,
    "tax": 0.07
  }, {
    "id": 2087,
    "name": "FL - MIAMI-DADE COUNTY",
    "zipcode": 33012,
    "tax": 0.07
  }, {
    "id": 2088,
    "name": "FL - MIAMI-DADE COUNTY",
    "zipcode": 33013,
    "tax": 0.07
  }, {
    "id": 2089,
    "name": "FL - MIAMI-DADE COUNTY",
    "zipcode": 33014,
    "tax": 0.07
  }, {
    "id": 2090,
    "name": "FL - MIAMI-DADE COUNTY",
    "zipcode": 33015,
    "tax": 0.07
  }, {
    "id": 2091,
    "name": "FL - MIAMI-DADE COUNTY",
    "zipcode": 33016,
    "tax": 0.07
  }, {
    "id": 2092,
    "name": "FL - MIAMI-DADE COUNTY",
    "zipcode": 33017,
    "tax": 0.07
  }, {
    "id": 2093,
    "name": "FL - MIAMI-DADE COUNTY",
    "zipcode": 33018,
    "tax": 0.07
  }, {
    "id": 2094,
    "name": "FL - FLORIDA STATE",
    "zipcode": 33019,
    "tax": 0.06
  }, {
    "id": 2095,
    "name": "FL - FLORIDA STATE",
    "zipcode": 33020,
    "tax": 0.06
  }, {
    "id": 2096,
    "name": "FL - FLORIDA STATE",
    "zipcode": 33021,
    "tax": 0.06
  }, {
    "id": 2097,
    "name": "FL - FLORIDA STATE",
    "zipcode": 33022,
    "tax": 0.06
  }, {
    "id": 2098,
    "name": "FL - FLORIDA STATE",
    "zipcode": 33023,
    "tax": 0.06
  }, {
    "id": 2099,
    "name": "FL - FLORIDA STATE",
    "zipcode": 33024,
    "tax": 0.06
  }, {
    "id": 2100,
    "name": "FL - FLORIDA STATE",
    "zipcode": 33025,
    "tax": 0.06
  }, {
    "id": 2101,
    "name": "FL - FLORIDA STATE",
    "zipcode": 33026,
    "tax": 0.06
  }, {
    "id": 2102,
    "name": "FL - FLORIDA STATE",
    "zipcode": 33027,
    "tax": 0.06
  }, {
    "id": 2103,
    "name": "FL - FLORIDA STATE",
    "zipcode": 33028,
    "tax": 0.06
  }, {
    "id": 2104,
    "name": "FL - FLORIDA STATE",
    "zipcode": 33029,
    "tax": 0.06
  }, {
    "id": 2105,
    "name": "FL - MIAMI-DADE COUNTY",
    "zipcode": 33030,
    "tax": 0.07
  }, {
    "id": 2106,
    "name": "FL - MIAMI-DADE COUNTY",
    "zipcode": 33031,
    "tax": 0.07
  }, {
    "id": 2107,
    "name": "FL - MIAMI-DADE COUNTY",
    "zipcode": 33032,
    "tax": 0.07
  }, {
    "id": 2108,
    "name": "FL - MIAMI-DADE COUNTY",
    "zipcode": 33033,
    "tax": 0.07
  }, {
    "id": 2109,
    "name": "FL - MIAMI-DADE COUNTY",
    "zipcode": 33034,
    "tax": 0.07
  }, {
    "id": 2110,
    "name": "FL - MIAMI-DADE COUNTY",
    "zipcode": 33035,
    "tax": 0.07
  }, {
    "id": 2111,
    "name": "FL - MONROE COUNTY",
    "zipcode": 33036,
    "tax": 0.075
  }, {
    "id": 2112,
    "name": "FL - MONROE COUNTY",
    "zipcode": 33037,
    "tax": 0.075
  }, {
    "id": 2113,
    "name": "FL - MIAMI-DADE COUNTY",
    "zipcode": 33039,
    "tax": 0.07
  }, {
    "id": 2114,
    "name": "FL - MONROE COUNTY",
    "zipcode": 33040,
    "tax": 0.075
  }, {
    "id": 2115,
    "name": "FL - MONROE COUNTY",
    "zipcode": 33041,
    "tax": 0.075
  }, {
    "id": 2116,
    "name": "FL - MONROE COUNTY",
    "zipcode": 33042,
    "tax": 0.075
  }, {
    "id": 2117,
    "name": "FL - MONROE COUNTY",
    "zipcode": 33043,
    "tax": 0.075
  }, {
    "id": 2118,
    "name": "FL - MONROE COUNTY",
    "zipcode": 33045,
    "tax": 0.075
  }, {
    "id": 2119,
    "name": "FL - MONROE COUNTY",
    "zipcode": 33050,
    "tax": 0.075
  }, {
    "id": 2120,
    "name": "FL - MONROE COUNTY",
    "zipcode": 33051,
    "tax": 0.075
  }, {
    "id": 2121,
    "name": "FL - MONROE COUNTY",
    "zipcode": 33052,
    "tax": 0.075
  }, {
    "id": 2122,
    "name": "FL - MIAMI-DADE COUNTY",
    "zipcode": 33054,
    "tax": 0.07
  }, {
    "id": 2123,
    "name": "FL - MIAMI-DADE COUNTY",
    "zipcode": 33055,
    "tax": 0.07
  }, {
    "id": 2124,
    "name": "FL - MIAMI-DADE COUNTY",
    "zipcode": 33056,
    "tax": 0.07
  }, {
    "id": 2125,
    "name": "FL - FLORIDA STATE",
    "zipcode": 33060,
    "tax": 0.06
  }, {
    "id": 2126,
    "name": "FL - FLORIDA STATE",
    "zipcode": 33061,
    "tax": 0.06
  }, {
    "id": 2127,
    "name": "FL - FLORIDA STATE",
    "zipcode": 33062,
    "tax": 0.06
  }, {
    "id": 2128,
    "name": "FL - FLORIDA STATE",
    "zipcode": 33063,
    "tax": 0.06
  }, {
    "id": 2129,
    "name": "FL - FLORIDA STATE",
    "zipcode": 33064,
    "tax": 0.06
  }, {
    "id": 2130,
    "name": "FL - FLORIDA STATE",
    "zipcode": 33065,
    "tax": 0.06
  }, {
    "id": 2131,
    "name": "FL - FLORIDA STATE",
    "zipcode": 33066,
    "tax": 0.06
  }, {
    "id": 2132,
    "name": "FL - FLORIDA STATE",
    "zipcode": 33067,
    "tax": 0.06
  }, {
    "id": 2133,
    "name": "FL - FLORIDA STATE",
    "zipcode": 33068,
    "tax": 0.06
  }, {
    "id": 2134,
    "name": "FL - FLORIDA STATE",
    "zipcode": 33069,
    "tax": 0.06
  }, {
    "id": 2135,
    "name": "FL - MONROE COUNTY",
    "zipcode": 33070,
    "tax": 0.075
  }, {
    "id": 2136,
    "name": "FL - FLORIDA STATE",
    "zipcode": 33071,
    "tax": 0.06
  }, {
    "id": 2137,
    "name": "FL - FLORIDA STATE",
    "zipcode": 33072,
    "tax": 0.06
  }, {
    "id": 2138,
    "name": "FL - FLORIDA STATE",
    "zipcode": 33073,
    "tax": 0.06
  }, {
    "id": 2139,
    "name": "FL - FLORIDA STATE",
    "zipcode": 33074,
    "tax": 0.06
  }, {
    "id": 2140,
    "name": "FL - FLORIDA STATE",
    "zipcode": 33075,
    "tax": 0.06
  }, {
    "id": 2141,
    "name": "FL - FLORIDA STATE",
    "zipcode": 33076,
    "tax": 0.06
  }, {
    "id": 2142,
    "name": "FL - FLORIDA STATE",
    "zipcode": 33077,
    "tax": 0.06
  }, {
    "id": 2143,
    "name": "FL - FLORIDA STATE",
    "zipcode": 33081,
    "tax": 0.06
  }, {
    "id": 2144,
    "name": "FL - FLORIDA STATE",
    "zipcode": 33083,
    "tax": 0.06
  }, {
    "id": 2145,
    "name": "FL - FLORIDA STATE",
    "zipcode": 33084,
    "tax": 0.06
  }, {
    "id": 2146,
    "name": "FL - MIAMI-DADE COUNTY",
    "zipcode": 33090,
    "tax": 0.07
  }, {
    "id": 2147,
    "name": "FL - MIAMI-DADE COUNTY",
    "zipcode": 33092,
    "tax": 0.07
  }, {
    "id": 2148,
    "name": "FL - FLORIDA STATE",
    "zipcode": 33093,
    "tax": 0.06
  }, {
    "id": 2149,
    "name": "FL - FLORIDA STATE",
    "zipcode": 33097,
    "tax": 0.06
  }, {
    "id": 2150,
    "name": "FL - MIAMI-DADE COUNTY",
    "zipcode": 33101,
    "tax": 0.07
  }, {
    "id": 2151,
    "name": "FL - MIAMI-DADE COUNTY",
    "zipcode": 33102,
    "tax": 0.07
  }, {
    "id": 2152,
    "name": "FL - MIAMI-DADE COUNTY",
    "zipcode": 33109,
    "tax": 0.07
  }, {
    "id": 2153,
    "name": "FL - MIAMI-DADE COUNTY",
    "zipcode": 33111,
    "tax": 0.07
  }, {
    "id": 2154,
    "name": "FL - MIAMI-DADE COUNTY",
    "zipcode": 33112,
    "tax": 0.07
  }, {
    "id": 2155,
    "name": "FL - MIAMI-DADE COUNTY",
    "zipcode": 33114,
    "tax": 0.07
  }, {
    "id": 2156,
    "name": "FL - MIAMI-DADE COUNTY",
    "zipcode": 33116,
    "tax": 0.07
  }, {
    "id": 2157,
    "name": "FL - MIAMI-DADE COUNTY",
    "zipcode": 33119,
    "tax": 0.07
  }, {
    "id": 2158,
    "name": "FL - MIAMI-DADE COUNTY",
    "zipcode": 33122,
    "tax": 0.07
  }, {
    "id": 2159,
    "name": "FL - MIAMI-DADE COUNTY",
    "zipcode": 33125,
    "tax": 0.07
  }, {
    "id": 2160,
    "name": "FL - MIAMI-DADE COUNTY",
    "zipcode": 33126,
    "tax": 0.07
  }, {
    "id": 2161,
    "name": "FL - MIAMI-DADE COUNTY",
    "zipcode": 33127,
    "tax": 0.07
  }, {
    "id": 2162,
    "name": "FL - MIAMI-DADE COUNTY",
    "zipcode": 33128,
    "tax": 0.07
  }, {
    "id": 2163,
    "name": "FL - MIAMI-DADE COUNTY",
    "zipcode": 33129,
    "tax": 0.07
  }, {
    "id": 2164,
    "name": "FL - MIAMI-DADE COUNTY",
    "zipcode": 33130,
    "tax": 0.07
  }, {
    "id": 2165,
    "name": "FL - MIAMI-DADE COUNTY",
    "zipcode": 33131,
    "tax": 0.07
  }, {
    "id": 2166,
    "name": "FL - MIAMI-DADE COUNTY",
    "zipcode": 33132,
    "tax": 0.07
  }, {
    "id": 2167,
    "name": "FL - MIAMI-DADE COUNTY",
    "zipcode": 33133,
    "tax": 0.07
  }, {
    "id": 2168,
    "name": "FL - MIAMI-DADE COUNTY",
    "zipcode": 33134,
    "tax": 0.07
  }, {
    "id": 2169,
    "name": "FL - MIAMI-DADE COUNTY",
    "zipcode": 33135,
    "tax": 0.07
  }, {
    "id": 2170,
    "name": "FL - MIAMI-DADE COUNTY",
    "zipcode": 33136,
    "tax": 0.07
  }, {
    "id": 2171,
    "name": "FL - MIAMI-DADE COUNTY",
    "zipcode": 33137,
    "tax": 0.07
  }, {
    "id": 2172,
    "name": "FL - MIAMI-DADE COUNTY",
    "zipcode": 33138,
    "tax": 0.07
  }, {
    "id": 2173,
    "name": "FL - MIAMI-DADE COUNTY",
    "zipcode": 33139,
    "tax": 0.07
  }, {
    "id": 2174,
    "name": "FL - MIAMI-DADE COUNTY",
    "zipcode": 33140,
    "tax": 0.07
  }, {
    "id": 2175,
    "name": "FL - MIAMI-DADE COUNTY",
    "zipcode": 33141,
    "tax": 0.07
  }, {
    "id": 2176,
    "name": "FL - MIAMI-DADE COUNTY",
    "zipcode": 33142,
    "tax": 0.07
  }, {
    "id": 2177,
    "name": "FL - MIAMI-DADE COUNTY",
    "zipcode": 33143,
    "tax": 0.07
  }, {
    "id": 2178,
    "name": "FL - MIAMI-DADE COUNTY",
    "zipcode": 33144,
    "tax": 0.07
  }, {
    "id": 2179,
    "name": "FL - MIAMI-DADE COUNTY",
    "zipcode": 33145,
    "tax": 0.07
  }, {
    "id": 2180,
    "name": "FL - MIAMI-DADE COUNTY",
    "zipcode": 33146,
    "tax": 0.07
  }, {
    "id": 2181,
    "name": "FL - MIAMI-DADE COUNTY",
    "zipcode": 33147,
    "tax": 0.07
  }, {
    "id": 2182,
    "name": "FL - MIAMI-DADE COUNTY",
    "zipcode": 33149,
    "tax": 0.07
  }, {
    "id": 2183,
    "name": "FL - MIAMI-DADE COUNTY",
    "zipcode": 33150,
    "tax": 0.07
  }, {
    "id": 2184,
    "name": "FL - MIAMI-DADE COUNTY",
    "zipcode": 33151,
    "tax": 0.07
  }, {
    "id": 2185,
    "name": "FL - MIAMI-DADE COUNTY",
    "zipcode": 33152,
    "tax": 0.07
  }, {
    "id": 2186,
    "name": "FL - MIAMI-DADE COUNTY",
    "zipcode": 33153,
    "tax": 0.07
  }, {
    "id": 2187,
    "name": "FL - MIAMI-DADE COUNTY",
    "zipcode": 33154,
    "tax": 0.07
  }, {
    "id": 2188,
    "name": "FL - MIAMI-DADE COUNTY",
    "zipcode": 33155,
    "tax": 0.07
  }, {
    "id": 2189,
    "name": "FL - MIAMI-DADE COUNTY",
    "zipcode": 33156,
    "tax": 0.07
  }, {
    "id": 2190,
    "name": "FL - MIAMI-DADE COUNTY",
    "zipcode": 33157,
    "tax": 0.07
  }, {
    "id": 2191,
    "name": "FL - MIAMI-DADE COUNTY",
    "zipcode": 33158,
    "tax": 0.07
  }, {
    "id": 2192,
    "name": "FL - MIAMI-DADE COUNTY",
    "zipcode": 33159,
    "tax": 0.07
  }, {
    "id": 2193,
    "name": "FL - MIAMI-DADE COUNTY",
    "zipcode": 33160,
    "tax": 0.07
  }, {
    "id": 2194,
    "name": "FL - MIAMI-DADE COUNTY",
    "zipcode": 33161,
    "tax": 0.07
  }, {
    "id": 2195,
    "name": "FL - MIAMI-DADE COUNTY",
    "zipcode": 33162,
    "tax": 0.07
  }, {
    "id": 2196,
    "name": "FL - MIAMI-DADE COUNTY",
    "zipcode": 33163,
    "tax": 0.07
  }, {
    "id": 2197,
    "name": "FL - MIAMI-DADE COUNTY",
    "zipcode": 33164,
    "tax": 0.07
  }, {
    "id": 2198,
    "name": "FL - MIAMI-DADE COUNTY",
    "zipcode": 33165,
    "tax": 0.07
  }, {
    "id": 2199,
    "name": "FL - MIAMI-DADE COUNTY",
    "zipcode": 33166,
    "tax": 0.07
  }, {
    "id": 2200,
    "name": "FL - MIAMI-DADE COUNTY",
    "zipcode": 33167,
    "tax": 0.07
  }, {
    "id": 2201,
    "name": "FL - MIAMI-DADE COUNTY",
    "zipcode": 33168,
    "tax": 0.07
  }, {
    "id": 2202,
    "name": "FL - MIAMI-DADE COUNTY",
    "zipcode": 33169,
    "tax": 0.07
  }, {
    "id": 2203,
    "name": "FL - MIAMI-DADE COUNTY",
    "zipcode": 33170,
    "tax": 0.07
  }, {
    "id": 2204,
    "name": "FL - MIAMI-DADE COUNTY",
    "zipcode": 33172,
    "tax": 0.07
  }, {
    "id": 2205,
    "name": "FL - MIAMI-DADE COUNTY",
    "zipcode": 33173,
    "tax": 0.07
  }, {
    "id": 2206,
    "name": "FL - MIAMI-DADE COUNTY",
    "zipcode": 33174,
    "tax": 0.07
  }, {
    "id": 2207,
    "name": "FL - MIAMI-DADE COUNTY",
    "zipcode": 33175,
    "tax": 0.07
  }, {
    "id": 2208,
    "name": "FL - MIAMI-DADE COUNTY",
    "zipcode": 33176,
    "tax": 0.07
  }, {
    "id": 2209,
    "name": "FL - MIAMI-DADE COUNTY",
    "zipcode": 33177,
    "tax": 0.07
  }, {
    "id": 2210,
    "name": "FL - MIAMI-DADE COUNTY",
    "zipcode": 33178,
    "tax": 0.07
  }, {
    "id": 2211,
    "name": "FL - MIAMI-DADE COUNTY",
    "zipcode": 33179,
    "tax": 0.07
  }, {
    "id": 2212,
    "name": "FL - MIAMI-DADE COUNTY",
    "zipcode": 33180,
    "tax": 0.07
  }, {
    "id": 2213,
    "name": "FL - MIAMI-DADE COUNTY",
    "zipcode": 33181,
    "tax": 0.07
  }, {
    "id": 2214,
    "name": "FL - MIAMI-DADE COUNTY",
    "zipcode": 33182,
    "tax": 0.07
  }, {
    "id": 2215,
    "name": "FL - MIAMI-DADE COUNTY",
    "zipcode": 33183,
    "tax": 0.07
  }, {
    "id": 2216,
    "name": "FL - MIAMI-DADE COUNTY",
    "zipcode": 33184,
    "tax": 0.07
  }, {
    "id": 2217,
    "name": "FL - MIAMI-DADE COUNTY",
    "zipcode": 33185,
    "tax": 0.07
  }, {
    "id": 2218,
    "name": "FL - MIAMI-DADE COUNTY",
    "zipcode": 33186,
    "tax": 0.07
  }, {
    "id": 2219,
    "name": "FL - MIAMI-DADE COUNTY",
    "zipcode": 33187,
    "tax": 0.07
  }, {
    "id": 2220,
    "name": "FL - MIAMI-DADE COUNTY",
    "zipcode": 33188,
    "tax": 0.07
  }, {
    "id": 2221,
    "name": "FL - MIAMI-DADE COUNTY",
    "zipcode": 33189,
    "tax": 0.07
  }, {
    "id": 2222,
    "name": "FL - MIAMI-DADE COUNTY",
    "zipcode": 33190,
    "tax": 0.07
  }, {
    "id": 2223,
    "name": "FL - MIAMI-DADE COUNTY",
    "zipcode": 33193,
    "tax": 0.07
  }, {
    "id": 2224,
    "name": "FL - MIAMI-DADE COUNTY",
    "zipcode": 33194,
    "tax": 0.07
  }, {
    "id": 2225,
    "name": "FL - MIAMI-DADE COUNTY",
    "zipcode": 33196,
    "tax": 0.07
  }, {
    "id": 2226,
    "name": "FL - MIAMI-DADE COUNTY",
    "zipcode": 33197,
    "tax": 0.07
  }, {
    "id": 2227,
    "name": "FL - MIAMI-DADE COUNTY",
    "zipcode": 33199,
    "tax": 0.07
  }, {
    "id": 2228,
    "name": "FL - MIAMI-DADE COUNTY",
    "zipcode": 33222,
    "tax": 0.07
  }, {
    "id": 2229,
    "name": "FL - MIAMI-DADE COUNTY",
    "zipcode": 33231,
    "tax": 0.07
  }, {
    "id": 2230,
    "name": "FL - MIAMI-DADE COUNTY",
    "zipcode": 33233,
    "tax": 0.07
  }, {
    "id": 2231,
    "name": "FL - MIAMI-DADE COUNTY",
    "zipcode": 33234,
    "tax": 0.07
  }, {
    "id": 2232,
    "name": "FL - MIAMI-DADE COUNTY",
    "zipcode": 33238,
    "tax": 0.07
  }, {
    "id": 2233,
    "name": "FL - MIAMI-DADE COUNTY",
    "zipcode": 33239,
    "tax": 0.07
  }, {
    "id": 2234,
    "name": "FL - MIAMI-DADE COUNTY",
    "zipcode": 33242,
    "tax": 0.07
  }, {
    "id": 2235,
    "name": "FL - MIAMI-DADE COUNTY",
    "zipcode": 33243,
    "tax": 0.07
  }, {
    "id": 2236,
    "name": "FL - MIAMI-DADE COUNTY",
    "zipcode": 33245,
    "tax": 0.07
  }, {
    "id": 2237,
    "name": "FL - MIAMI-DADE COUNTY",
    "zipcode": 33247,
    "tax": 0.07
  }, {
    "id": 2238,
    "name": "FL - MIAMI-DADE COUNTY",
    "zipcode": 33255,
    "tax": 0.07
  }, {
    "id": 2239,
    "name": "FL - MIAMI-DADE COUNTY",
    "zipcode": 33256,
    "tax": 0.07
  }, {
    "id": 2240,
    "name": "FL - MIAMI-DADE COUNTY",
    "zipcode": 33257,
    "tax": 0.07
  }, {
    "id": 2241,
    "name": "FL - MIAMI-DADE COUNTY",
    "zipcode": 33261,
    "tax": 0.07
  }, {
    "id": 2242,
    "name": "FL - MIAMI-DADE COUNTY",
    "zipcode": 33265,
    "tax": 0.07
  }, {
    "id": 2243,
    "name": "FL - MIAMI-DADE COUNTY",
    "zipcode": 33266,
    "tax": 0.07
  }, {
    "id": 2244,
    "name": "FL - MIAMI-DADE COUNTY",
    "zipcode": 33269,
    "tax": 0.07
  }, {
    "id": 2245,
    "name": "FL - MIAMI-DADE COUNTY",
    "zipcode": 33280,
    "tax": 0.07
  }, {
    "id": 2246,
    "name": "FL - MIAMI-DADE COUNTY",
    "zipcode": 33283,
    "tax": 0.07
  }, {
    "id": 2247,
    "name": "FL - MIAMI-DADE COUNTY",
    "zipcode": 33296,
    "tax": 0.07
  }, {
    "id": 2248,
    "name": "FL - MIAMI-DADE COUNTY",
    "zipcode": 33299,
    "tax": 0.07
  }, {
    "id": 2249,
    "name": "FL - FLORIDA STATE",
    "zipcode": 33301,
    "tax": 0.06
  }, {
    "id": 2250,
    "name": "FL - FLORIDA STATE",
    "zipcode": 33302,
    "tax": 0.06
  }, {
    "id": 2251,
    "name": "FL - FLORIDA STATE",
    "zipcode": 33303,
    "tax": 0.06
  }, {
    "id": 2252,
    "name": "FL - FLORIDA STATE",
    "zipcode": 33304,
    "tax": 0.06
  }, {
    "id": 2253,
    "name": "FL - FLORIDA STATE",
    "zipcode": 33305,
    "tax": 0.06
  }, {
    "id": 2254,
    "name": "FL - FLORIDA STATE",
    "zipcode": 33306,
    "tax": 0.06
  }, {
    "id": 2255,
    "name": "FL - FLORIDA STATE",
    "zipcode": 33307,
    "tax": 0.06
  }, {
    "id": 2256,
    "name": "FL - FLORIDA STATE",
    "zipcode": 33308,
    "tax": 0.06
  }, {
    "id": 2257,
    "name": "FL - FLORIDA STATE",
    "zipcode": 33309,
    "tax": 0.06
  }, {
    "id": 2258,
    "name": "FL - FLORIDA STATE",
    "zipcode": 33310,
    "tax": 0.06
  }, {
    "id": 2259,
    "name": "FL - FLORIDA STATE",
    "zipcode": 33311,
    "tax": 0.06
  }, {
    "id": 2260,
    "name": "FL - FLORIDA STATE",
    "zipcode": 33312,
    "tax": 0.06
  }, {
    "id": 2261,
    "name": "FL - FLORIDA STATE",
    "zipcode": 33313,
    "tax": 0.06
  }, {
    "id": 2262,
    "name": "FL - FLORIDA STATE",
    "zipcode": 33314,
    "tax": 0.06
  }, {
    "id": 2263,
    "name": "FL - FLORIDA STATE",
    "zipcode": 33315,
    "tax": 0.06
  }, {
    "id": 2264,
    "name": "FL - FLORIDA STATE",
    "zipcode": 33316,
    "tax": 0.06
  }, {
    "id": 2265,
    "name": "FL - FLORIDA STATE",
    "zipcode": 33317,
    "tax": 0.06
  }, {
    "id": 2266,
    "name": "FL - FLORIDA STATE",
    "zipcode": 33318,
    "tax": 0.06
  }, {
    "id": 2267,
    "name": "FL - FLORIDA STATE",
    "zipcode": 33319,
    "tax": 0.06
  }, {
    "id": 2268,
    "name": "FL - FLORIDA STATE",
    "zipcode": 33320,
    "tax": 0.06
  }, {
    "id": 2269,
    "name": "FL - FLORIDA STATE",
    "zipcode": 33321,
    "tax": 0.06
  }, {
    "id": 2270,
    "name": "FL - FLORIDA STATE",
    "zipcode": 33322,
    "tax": 0.06
  }, {
    "id": 2271,
    "name": "FL - FLORIDA STATE",
    "zipcode": 33323,
    "tax": 0.06
  }, {
    "id": 2272,
    "name": "FL - FLORIDA STATE",
    "zipcode": 33324,
    "tax": 0.06
  }, {
    "id": 2273,
    "name": "FL - FLORIDA STATE",
    "zipcode": 33325,
    "tax": 0.06
  }, {
    "id": 2274,
    "name": "FL - FLORIDA STATE",
    "zipcode": 33326,
    "tax": 0.06
  }, {
    "id": 2275,
    "name": "FL - FLORIDA STATE",
    "zipcode": 33327,
    "tax": 0.06
  }, {
    "id": 2276,
    "name": "FL - FLORIDA STATE",
    "zipcode": 33328,
    "tax": 0.06
  }, {
    "id": 2277,
    "name": "FL - FLORIDA STATE",
    "zipcode": 33329,
    "tax": 0.06
  }, {
    "id": 2278,
    "name": "FL - FLORIDA STATE",
    "zipcode": 33330,
    "tax": 0.06
  }, {
    "id": 2279,
    "name": "FL - FLORIDA STATE",
    "zipcode": 33331,
    "tax": 0.06
  }, {
    "id": 2280,
    "name": "FL - FLORIDA STATE",
    "zipcode": 33332,
    "tax": 0.06
  }, {
    "id": 2281,
    "name": "FL - FLORIDA STATE",
    "zipcode": 33334,
    "tax": 0.06
  }, {
    "id": 2282,
    "name": "FL - FLORIDA STATE",
    "zipcode": 33335,
    "tax": 0.06
  }, {
    "id": 2283,
    "name": "FL - FLORIDA STATE",
    "zipcode": 33336,
    "tax": 0.06
  }, {
    "id": 2284,
    "name": "FL - FLORIDA STATE",
    "zipcode": 33337,
    "tax": 0.06
  }, {
    "id": 2285,
    "name": "FL - FLORIDA STATE",
    "zipcode": 33338,
    "tax": 0.06
  }, {
    "id": 2286,
    "name": "FL - FLORIDA STATE",
    "zipcode": 33339,
    "tax": 0.06
  }, {
    "id": 2287,
    "name": "FL - FLORIDA STATE",
    "zipcode": 33340,
    "tax": 0.06
  }, {
    "id": 2288,
    "name": "FL - FLORIDA STATE",
    "zipcode": 33345,
    "tax": 0.06
  }, {
    "id": 2289,
    "name": "FL - FLORIDA STATE",
    "zipcode": 33346,
    "tax": 0.06
  }, {
    "id": 2290,
    "name": "FL - FLORIDA STATE",
    "zipcode": 33348,
    "tax": 0.06
  }, {
    "id": 2291,
    "name": "FL - FLORIDA STATE",
    "zipcode": 33349,
    "tax": 0.06
  }, {
    "id": 2292,
    "name": "FL - FLORIDA STATE",
    "zipcode": 33351,
    "tax": 0.06
  }, {
    "id": 2293,
    "name": "FL - FLORIDA STATE",
    "zipcode": 33355,
    "tax": 0.06
  }, {
    "id": 2294,
    "name": "FL - FLORIDA STATE",
    "zipcode": 33359,
    "tax": 0.06
  }, {
    "id": 2295,
    "name": "FL - FLORIDA STATE",
    "zipcode": 33388,
    "tax": 0.06
  }, {
    "id": 2296,
    "name": "FL - FLORIDA STATE",
    "zipcode": 33394,
    "tax": 0.06
  }, {
    "id": 2297,
    "name": "FL - FLORIDA STATE",
    "zipcode": 33401,
    "tax": 0.06
  }, {
    "id": 2298,
    "name": "FL - FLORIDA STATE",
    "zipcode": 33402,
    "tax": 0.06
  }, {
    "id": 2299,
    "name": "FL - FLORIDA STATE",
    "zipcode": 33403,
    "tax": 0.06
  }, {
    "id": 2300,
    "name": "FL - FLORIDA STATE",
    "zipcode": 33404,
    "tax": 0.06
  }, {
    "id": 2301,
    "name": "FL - FLORIDA STATE",
    "zipcode": 33405,
    "tax": 0.06
  }, {
    "id": 2302,
    "name": "FL - FLORIDA STATE",
    "zipcode": 33406,
    "tax": 0.06
  }, {
    "id": 2303,
    "name": "FL - FLORIDA STATE",
    "zipcode": 33407,
    "tax": 0.06
  }, {
    "id": 2304,
    "name": "FL - FLORIDA STATE",
    "zipcode": 33408,
    "tax": 0.06
  }, {
    "id": 2305,
    "name": "FL - FLORIDA STATE",
    "zipcode": 33409,
    "tax": 0.06
  }, {
    "id": 2306,
    "name": "FL - FLORIDA STATE",
    "zipcode": 33410,
    "tax": 0.06
  }, {
    "id": 2307,
    "name": "FL - FLORIDA STATE",
    "zipcode": 33411,
    "tax": 0.06
  }, {
    "id": 2308,
    "name": "FL - FLORIDA STATE",
    "zipcode": 33412,
    "tax": 0.06
  }, {
    "id": 2309,
    "name": "FL - FLORIDA STATE",
    "zipcode": 33413,
    "tax": 0.06
  }, {
    "id": 2310,
    "name": "FL - FLORIDA STATE",
    "zipcode": 33414,
    "tax": 0.06
  }, {
    "id": 2311,
    "name": "FL - FLORIDA STATE",
    "zipcode": 33415,
    "tax": 0.06
  }, {
    "id": 2312,
    "name": "FL - FLORIDA STATE",
    "zipcode": 33416,
    "tax": 0.06
  }, {
    "id": 2313,
    "name": "FL - FLORIDA STATE",
    "zipcode": 33417,
    "tax": 0.06
  }, {
    "id": 2314,
    "name": "FL - FLORIDA STATE",
    "zipcode": 33418,
    "tax": 0.06
  }, {
    "id": 2315,
    "name": "FL - FLORIDA STATE",
    "zipcode": 33419,
    "tax": 0.06
  }, {
    "id": 2316,
    "name": "FL - FLORIDA STATE",
    "zipcode": 33420,
    "tax": 0.06
  }, {
    "id": 2317,
    "name": "FL - FLORIDA STATE",
    "zipcode": 33421,
    "tax": 0.06
  }, {
    "id": 2318,
    "name": "FL - FLORIDA STATE",
    "zipcode": 33422,
    "tax": 0.06
  }, {
    "id": 2319,
    "name": "FL - FLORIDA STATE",
    "zipcode": 33424,
    "tax": 0.06
  }, {
    "id": 2320,
    "name": "FL - FLORIDA STATE",
    "zipcode": 33425,
    "tax": 0.06
  }, {
    "id": 2321,
    "name": "FL - FLORIDA STATE",
    "zipcode": 33426,
    "tax": 0.06
  }, {
    "id": 2322,
    "name": "FL - FLORIDA STATE",
    "zipcode": 33427,
    "tax": 0.06
  }, {
    "id": 2323,
    "name": "FL - FLORIDA STATE",
    "zipcode": 33428,
    "tax": 0.06
  }, {
    "id": 2324,
    "name": "FL - FLORIDA STATE",
    "zipcode": 33429,
    "tax": 0.06
  }, {
    "id": 2325,
    "name": "FL - FLORIDA STATE",
    "zipcode": 33430,
    "tax": 0.06
  }, {
    "id": 2326,
    "name": "FL - FLORIDA STATE",
    "zipcode": 33431,
    "tax": 0.06
  }, {
    "id": 2327,
    "name": "FL - FLORIDA STATE",
    "zipcode": 33432,
    "tax": 0.06
  }, {
    "id": 2328,
    "name": "FL - FLORIDA STATE",
    "zipcode": 33433,
    "tax": 0.06
  }, {
    "id": 2329,
    "name": "FL - FLORIDA STATE",
    "zipcode": 33434,
    "tax": 0.06
  }, {
    "id": 2330,
    "name": "FL - FLORIDA STATE",
    "zipcode": 33435,
    "tax": 0.06
  }, {
    "id": 2331,
    "name": "FL - FLORIDA STATE",
    "zipcode": 33436,
    "tax": 0.06
  }, {
    "id": 2332,
    "name": "FL - FLORIDA STATE",
    "zipcode": 33437,
    "tax": 0.06
  }, {
    "id": 2333,
    "name": "FL - FLORIDA STATE",
    "zipcode": 33438,
    "tax": 0.06
  }, {
    "id": 2334,
    "name": "FL - HENDRY COUNTY",
    "zipcode": 33440,
    "tax": 0.07
  }, {
    "id": 2335,
    "name": "FL - FLORIDA STATE",
    "zipcode": 33441,
    "tax": 0.06
  }, {
    "id": 2336,
    "name": "FL - FLORIDA STATE",
    "zipcode": 33442,
    "tax": 0.06
  }, {
    "id": 2337,
    "name": "FL - FLORIDA STATE",
    "zipcode": 33443,
    "tax": 0.06
  }, {
    "id": 2338,
    "name": "FL - FLORIDA STATE",
    "zipcode": 33444,
    "tax": 0.06
  }, {
    "id": 2339,
    "name": "FL - FLORIDA STATE",
    "zipcode": 33445,
    "tax": 0.06
  }, {
    "id": 2340,
    "name": "FL - FLORIDA STATE",
    "zipcode": 33446,
    "tax": 0.06
  }, {
    "id": 2341,
    "name": "FL - FLORIDA STATE",
    "zipcode": 33448,
    "tax": 0.06
  }, {
    "id": 2342,
    "name": "FL - FLORIDA STATE",
    "zipcode": 33449,
    "tax": 0.06
  }, {
    "id": 2343,
    "name": "FL - FLORIDA STATE",
    "zipcode": 33454,
    "tax": 0.06
  }, {
    "id": 2344,
    "name": "FL - FLORIDA STATE",
    "zipcode": 33455,
    "tax": 0.06
  }, {
    "id": 2345,
    "name": "FL - FLORIDA STATE",
    "zipcode": 33458,
    "tax": 0.06
  }, {
    "id": 2346,
    "name": "FL - FLORIDA STATE",
    "zipcode": 33460,
    "tax": 0.06
  }, {
    "id": 2347,
    "name": "FL - FLORIDA STATE",
    "zipcode": 33461,
    "tax": 0.06
  }, {
    "id": 2348,
    "name": "FL - FLORIDA STATE",
    "zipcode": 33462,
    "tax": 0.06
  }, {
    "id": 2349,
    "name": "FL - FLORIDA STATE",
    "zipcode": 33463,
    "tax": 0.06
  }, {
    "id": 2350,
    "name": "FL - FLORIDA STATE",
    "zipcode": 33464,
    "tax": 0.06
  }, {
    "id": 2351,
    "name": "FL - FLORIDA STATE",
    "zipcode": 33465,
    "tax": 0.06
  }, {
    "id": 2352,
    "name": "FL - FLORIDA STATE",
    "zipcode": 33466,
    "tax": 0.06
  }, {
    "id": 2353,
    "name": "FL - FLORIDA STATE",
    "zipcode": 33467,
    "tax": 0.06
  }, {
    "id": 2354,
    "name": "FL - FLORIDA STATE",
    "zipcode": 33468,
    "tax": 0.06
  }, {
    "id": 2355,
    "name": "FL - FLORIDA STATE",
    "zipcode": 33469,
    "tax": 0.06
  }, {
    "id": 2356,
    "name": "FL - FLORIDA STATE",
    "zipcode": 33470,
    "tax": 0.06
  }, {
    "id": 2357,
    "name": "FL - GLADES COUNTY",
    "zipcode": 33471,
    "tax": 0.07
  }, {
    "id": 2358,
    "name": "FL - FLORIDA STATE",
    "zipcode": 33472,
    "tax": 0.06
  }, {
    "id": 2359,
    "name": "FL - FLORIDA STATE",
    "zipcode": 33473,
    "tax": 0.06
  }, {
    "id": 2360,
    "name": "FL - FLORIDA STATE",
    "zipcode": 33474,
    "tax": 0.06
  }, {
    "id": 2361,
    "name": "FL - FLORIDA STATE",
    "zipcode": 33475,
    "tax": 0.06
  }, {
    "id": 2362,
    "name": "FL - FLORIDA STATE",
    "zipcode": 33476,
    "tax": 0.06
  }, {
    "id": 2363,
    "name": "FL - FLORIDA STATE",
    "zipcode": 33477,
    "tax": 0.06
  }, {
    "id": 2364,
    "name": "FL - FLORIDA STATE",
    "zipcode": 33478,
    "tax": 0.06
  }, {
    "id": 2365,
    "name": "FL - FLORIDA STATE",
    "zipcode": 33480,
    "tax": 0.06
  }, {
    "id": 2366,
    "name": "FL - FLORIDA STATE",
    "zipcode": 33481,
    "tax": 0.06
  }, {
    "id": 2367,
    "name": "FL - FLORIDA STATE",
    "zipcode": 33482,
    "tax": 0.06
  }, {
    "id": 2368,
    "name": "FL - FLORIDA STATE",
    "zipcode": 33483,
    "tax": 0.06
  }, {
    "id": 2369,
    "name": "FL - FLORIDA STATE",
    "zipcode": 33484,
    "tax": 0.06
  }, {
    "id": 2370,
    "name": "FL - FLORIDA STATE",
    "zipcode": 33486,
    "tax": 0.06
  }, {
    "id": 2371,
    "name": "FL - FLORIDA STATE",
    "zipcode": 33487,
    "tax": 0.06
  }, {
    "id": 2372,
    "name": "FL - FLORIDA STATE",
    "zipcode": 33488,
    "tax": 0.06
  }, {
    "id": 2373,
    "name": "FL - FLORIDA STATE",
    "zipcode": 33493,
    "tax": 0.06
  }, {
    "id": 2374,
    "name": "FL - FLORIDA STATE",
    "zipcode": 33496,
    "tax": 0.06
  }, {
    "id": 2375,
    "name": "FL - FLORIDA STATE",
    "zipcode": 33497,
    "tax": 0.06
  }, {
    "id": 2376,
    "name": "FL - FLORIDA STATE",
    "zipcode": 33498,
    "tax": 0.06
  }, {
    "id": 2377,
    "name": "FL - FLORIDA STATE",
    "zipcode": 33499,
    "tax": 0.06
  }, {
    "id": 2378,
    "name": "FL - HILLSBOROUGH COUNTY",
    "zipcode": 33508,
    "tax": 0.07
  }, {
    "id": 2379,
    "name": "FL - HILLSBOROUGH COUNTY",
    "zipcode": 33509,
    "tax": 0.07
  }, {
    "id": 2380,
    "name": "FL - HILLSBOROUGH COUNTY",
    "zipcode": 33510,
    "tax": 0.07
  }, {
    "id": 2381,
    "name": "FL - HILLSBOROUGH COUNTY",
    "zipcode": 33511,
    "tax": 0.07
  }, {
    "id": 2382,
    "name": "FL - SUMTER COUNTY",
    "zipcode": 33513,
    "tax": 0.07
  }, {
    "id": 2383,
    "name": "FL - SUMTER COUNTY",
    "zipcode": 33514,
    "tax": 0.07
  }, {
    "id": 2384,
    "name": "FL - SUMTER COUNTY",
    "zipcode": 33521,
    "tax": 0.07
  }, {
    "id": 2385,
    "name": "FL - PASCO COUNTY",
    "zipcode": 33523,
    "tax": 0.07
  }, {
    "id": 2386,
    "name": "FL - PASCO COUNTY",
    "zipcode": 33525,
    "tax": 0.07
  }, {
    "id": 2387,
    "name": "FL - PASCO COUNTY",
    "zipcode": 33526,
    "tax": 0.07
  }, {
    "id": 2388,
    "name": "FL - HILLSBOROUGH COUNTY",
    "zipcode": 33527,
    "tax": 0.07
  }, {
    "id": 2389,
    "name": "FL - HILLSBOROUGH COUNTY",
    "zipcode": 33534,
    "tax": 0.07
  }, {
    "id": 2390,
    "name": "FL - SUMTER COUNTY",
    "zipcode": 33538,
    "tax": 0.07
  }, {
    "id": 2391,
    "name": "FL - PASCO COUNTY",
    "zipcode": 33540,
    "tax": 0.07
  }, {
    "id": 2392,
    "name": "FL - PASCO COUNTY",
    "zipcode": 33541,
    "tax": 0.07
  }, {
    "id": 2393,
    "name": "FL - PASCO COUNTY",
    "zipcode": 33542,
    "tax": 0.07
  }, {
    "id": 2394,
    "name": "FL - PASCO COUNTY",
    "zipcode": 33543,
    "tax": 0.07
  }, {
    "id": 2395,
    "name": "FL - PASCO COUNTY",
    "zipcode": 33544,
    "tax": 0.07
  }, {
    "id": 2396,
    "name": "FL - PASCO COUNTY",
    "zipcode": 33545,
    "tax": 0.07
  }, {
    "id": 2397,
    "name": "FL - HILLSBOROUGH COUNTY",
    "zipcode": 33547,
    "tax": 0.07
  }, {
    "id": 2398,
    "name": "FL - HILLSBOROUGH COUNTY",
    "zipcode": 33548,
    "tax": 0.07
  }, {
    "id": 2399,
    "name": "FL - HILLSBOROUGH COUNTY",
    "zipcode": 33549,
    "tax": 0.07
  }, {
    "id": 2400,
    "name": "FL - HILLSBOROUGH COUNTY",
    "zipcode": 33550,
    "tax": 0.07
  }, {
    "id": 2401,
    "name": "FL - HILLSBOROUGH COUNTY",
    "zipcode": 33556,
    "tax": 0.07
  }, {
    "id": 2402,
    "name": "FL - HILLSBOROUGH COUNTY",
    "zipcode": 33558,
    "tax": 0.07
  }, {
    "id": 2403,
    "name": "FL - HILLSBOROUGH COUNTY",
    "zipcode": 33559,
    "tax": 0.07
  }, {
    "id": 2404,
    "name": "FL - HILLSBOROUGH COUNTY",
    "zipcode": 33563,
    "tax": 0.07
  }, {
    "id": 2405,
    "name": "FL - HILLSBOROUGH COUNTY",
    "zipcode": 33564,
    "tax": 0.07
  }, {
    "id": 2406,
    "name": "FL - HILLSBOROUGH COUNTY",
    "zipcode": 33565,
    "tax": 0.07
  }, {
    "id": 2407,
    "name": "FL - HILLSBOROUGH COUNTY",
    "zipcode": 33566,
    "tax": 0.07
  }, {
    "id": 2408,
    "name": "FL - HILLSBOROUGH COUNTY",
    "zipcode": 33567,
    "tax": 0.07
  }, {
    "id": 2409,
    "name": "FL - HILLSBOROUGH COUNTY",
    "zipcode": 33568,
    "tax": 0.07
  }, {
    "id": 2410,
    "name": "FL - HILLSBOROUGH COUNTY",
    "zipcode": 33569,
    "tax": 0.07
  }, {
    "id": 2411,
    "name": "FL - HILLSBOROUGH COUNTY",
    "zipcode": 33570,
    "tax": 0.07
  }, {
    "id": 2412,
    "name": "FL - HILLSBOROUGH COUNTY",
    "zipcode": 33571,
    "tax": 0.07
  }, {
    "id": 2413,
    "name": "FL - HILLSBOROUGH COUNTY",
    "zipcode": 33572,
    "tax": 0.07
  }, {
    "id": 2414,
    "name": "FL - HILLSBOROUGH COUNTY",
    "zipcode": 33573,
    "tax": 0.07
  }, {
    "id": 2415,
    "name": "FL - PASCO COUNTY",
    "zipcode": 33574,
    "tax": 0.07
  }, {
    "id": 2416,
    "name": "FL - HILLSBOROUGH COUNTY",
    "zipcode": 33575,
    "tax": 0.07
  }, {
    "id": 2417,
    "name": "FL - PASCO COUNTY",
    "zipcode": 33576,
    "tax": 0.07
  }, {
    "id": 2418,
    "name": "FL - HILLSBOROUGH COUNTY",
    "zipcode": 33578,
    "tax": 0.07
  }, {
    "id": 2419,
    "name": "FL - HILLSBOROUGH COUNTY",
    "zipcode": 33579,
    "tax": 0.07
  }, {
    "id": 2420,
    "name": "FL - HILLSBOROUGH COUNTY",
    "zipcode": 33583,
    "tax": 0.07
  }, {
    "id": 2421,
    "name": "FL - HILLSBOROUGH COUNTY",
    "zipcode": 33584,
    "tax": 0.07
  }, {
    "id": 2422,
    "name": "FL - SUMTER COUNTY",
    "zipcode": 33585,
    "tax": 0.07
  }, {
    "id": 2423,
    "name": "FL - HILLSBOROUGH COUNTY",
    "zipcode": 33586,
    "tax": 0.07
  }, {
    "id": 2424,
    "name": "FL - HILLSBOROUGH COUNTY",
    "zipcode": 33587,
    "tax": 0.07
  }, {
    "id": 2425,
    "name": "FL - HILLSBOROUGH COUNTY",
    "zipcode": 33592,
    "tax": 0.07
  }, {
    "id": 2426,
    "name": "FL - PASCO COUNTY",
    "zipcode": 33593,
    "tax": 0.07
  }, {
    "id": 2427,
    "name": "FL - HILLSBOROUGH COUNTY",
    "zipcode": 33594,
    "tax": 0.07
  }, {
    "id": 2428,
    "name": "FL - HILLSBOROUGH COUNTY",
    "zipcode": 33595,
    "tax": 0.07
  }, {
    "id": 2429,
    "name": "FL - HILLSBOROUGH COUNTY",
    "zipcode": 33596,
    "tax": 0.07
  }, {
    "id": 2430,
    "name": "FL - SUMTER COUNTY",
    "zipcode": 33597,
    "tax": 0.07
  }, {
    "id": 2431,
    "name": "FL - HILLSBOROUGH COUNTY",
    "zipcode": 33598,
    "tax": 0.07
  }, {
    "id": 2432,
    "name": "FL - HILLSBOROUGH COUNTY",
    "zipcode": 33601,
    "tax": 0.07
  }, {
    "id": 2433,
    "name": "FL - HILLSBOROUGH COUNTY",
    "zipcode": 33602,
    "tax": 0.07
  }, {
    "id": 2434,
    "name": "FL - HILLSBOROUGH COUNTY",
    "zipcode": 33603,
    "tax": 0.07
  }, {
    "id": 2435,
    "name": "FL - HILLSBOROUGH COUNTY",
    "zipcode": 33604,
    "tax": 0.07
  }, {
    "id": 2436,
    "name": "FL - HILLSBOROUGH COUNTY",
    "zipcode": 33605,
    "tax": 0.07
  }, {
    "id": 2437,
    "name": "FL - HILLSBOROUGH COUNTY",
    "zipcode": 33606,
    "tax": 0.07
  }, {
    "id": 2438,
    "name": "FL - HILLSBOROUGH COUNTY",
    "zipcode": 33607,
    "tax": 0.07
  }, {
    "id": 2439,
    "name": "FL - HILLSBOROUGH COUNTY",
    "zipcode": 33608,
    "tax": 0.07
  }, {
    "id": 2440,
    "name": "FL - HILLSBOROUGH COUNTY",
    "zipcode": 33609,
    "tax": 0.07
  }, {
    "id": 2441,
    "name": "FL - HILLSBOROUGH COUNTY",
    "zipcode": 33610,
    "tax": 0.07
  }, {
    "id": 2442,
    "name": "FL - HILLSBOROUGH COUNTY",
    "zipcode": 33611,
    "tax": 0.07
  }, {
    "id": 2443,
    "name": "FL - HILLSBOROUGH COUNTY",
    "zipcode": 33612,
    "tax": 0.07
  }, {
    "id": 2444,
    "name": "FL - HILLSBOROUGH COUNTY",
    "zipcode": 33613,
    "tax": 0.07
  }, {
    "id": 2445,
    "name": "FL - HILLSBOROUGH COUNTY",
    "zipcode": 33614,
    "tax": 0.07
  }, {
    "id": 2446,
    "name": "FL - HILLSBOROUGH COUNTY",
    "zipcode": 33615,
    "tax": 0.07
  }, {
    "id": 2447,
    "name": "FL - HILLSBOROUGH COUNTY",
    "zipcode": 33616,
    "tax": 0.07
  }, {
    "id": 2448,
    "name": "FL - HILLSBOROUGH COUNTY",
    "zipcode": 33617,
    "tax": 0.07
  }, {
    "id": 2449,
    "name": "FL - HILLSBOROUGH COUNTY",
    "zipcode": 33618,
    "tax": 0.07
  }, {
    "id": 2450,
    "name": "FL - HILLSBOROUGH COUNTY",
    "zipcode": 33619,
    "tax": 0.07
  }, {
    "id": 2451,
    "name": "FL - HILLSBOROUGH COUNTY",
    "zipcode": 33620,
    "tax": 0.07
  }, {
    "id": 2452,
    "name": "FL - HILLSBOROUGH COUNTY",
    "zipcode": 33621,
    "tax": 0.07
  }, {
    "id": 2453,
    "name": "FL - HILLSBOROUGH COUNTY",
    "zipcode": 33622,
    "tax": 0.07
  }, {
    "id": 2454,
    "name": "FL - HILLSBOROUGH COUNTY",
    "zipcode": 33623,
    "tax": 0.07
  }, {
    "id": 2455,
    "name": "FL - HILLSBOROUGH COUNTY",
    "zipcode": 33624,
    "tax": 0.07
  }, {
    "id": 2456,
    "name": "FL - HILLSBOROUGH COUNTY",
    "zipcode": 33625,
    "tax": 0.07
  }, {
    "id": 2457,
    "name": "FL - HILLSBOROUGH COUNTY",
    "zipcode": 33626,
    "tax": 0.07
  }, {
    "id": 2458,
    "name": "FL - HILLSBOROUGH COUNTY",
    "zipcode": 33629,
    "tax": 0.07
  }, {
    "id": 2459,
    "name": "FL - HILLSBOROUGH COUNTY",
    "zipcode": 33630,
    "tax": 0.07
  }, {
    "id": 2460,
    "name": "FL - HILLSBOROUGH COUNTY",
    "zipcode": 33631,
    "tax": 0.07
  }, {
    "id": 2461,
    "name": "FL - HILLSBOROUGH COUNTY",
    "zipcode": 33633,
    "tax": 0.07
  }, {
    "id": 2462,
    "name": "FL - HILLSBOROUGH COUNTY",
    "zipcode": 33634,
    "tax": 0.07
  }, {
    "id": 2463,
    "name": "FL - HILLSBOROUGH COUNTY",
    "zipcode": 33635,
    "tax": 0.07
  }, {
    "id": 2464,
    "name": "FL - HILLSBOROUGH COUNTY",
    "zipcode": 33637,
    "tax": 0.07
  }, {
    "id": 2465,
    "name": "FL - HILLSBOROUGH COUNTY",
    "zipcode": 33646,
    "tax": 0.07
  }, {
    "id": 2466,
    "name": "FL - HILLSBOROUGH COUNTY",
    "zipcode": 33647,
    "tax": 0.07
  }, {
    "id": 2467,
    "name": "FL - HILLSBOROUGH COUNTY",
    "zipcode": 33650,
    "tax": 0.07
  }, {
    "id": 2468,
    "name": "FL - HILLSBOROUGH COUNTY",
    "zipcode": 33655,
    "tax": 0.07
  }, {
    "id": 2469,
    "name": "FL - HILLSBOROUGH COUNTY",
    "zipcode": 33660,
    "tax": 0.07
  }, {
    "id": 2470,
    "name": "FL - HILLSBOROUGH COUNTY",
    "zipcode": 33661,
    "tax": 0.07
  }, {
    "id": 2471,
    "name": "FL - HILLSBOROUGH COUNTY",
    "zipcode": 33662,
    "tax": 0.07
  }, {
    "id": 2472,
    "name": "FL - HILLSBOROUGH COUNTY",
    "zipcode": 33663,
    "tax": 0.07
  }, {
    "id": 2473,
    "name": "FL - HILLSBOROUGH COUNTY",
    "zipcode": 33664,
    "tax": 0.07
  }, {
    "id": 2474,
    "name": "FL - HILLSBOROUGH COUNTY",
    "zipcode": 33672,
    "tax": 0.07
  }, {
    "id": 2475,
    "name": "FL - HILLSBOROUGH COUNTY",
    "zipcode": 33673,
    "tax": 0.07
  }, {
    "id": 2476,
    "name": "FL - HILLSBOROUGH COUNTY",
    "zipcode": 33674,
    "tax": 0.07
  }, {
    "id": 2477,
    "name": "FL - HILLSBOROUGH COUNTY",
    "zipcode": 33675,
    "tax": 0.07
  }, {
    "id": 2478,
    "name": "FL - HILLSBOROUGH COUNTY",
    "zipcode": 33677,
    "tax": 0.07
  }, {
    "id": 2479,
    "name": "FL - HILLSBOROUGH COUNTY",
    "zipcode": 33679,
    "tax": 0.07
  }, {
    "id": 2480,
    "name": "FL - HILLSBOROUGH COUNTY",
    "zipcode": 33680,
    "tax": 0.07
  }, {
    "id": 2481,
    "name": "FL - HILLSBOROUGH COUNTY",
    "zipcode": 33681,
    "tax": 0.07
  }, {
    "id": 2482,
    "name": "FL - HILLSBOROUGH COUNTY",
    "zipcode": 33682,
    "tax": 0.07
  }, {
    "id": 2483,
    "name": "FL - HILLSBOROUGH COUNTY",
    "zipcode": 33684,
    "tax": 0.07
  }, {
    "id": 2484,
    "name": "FL - HILLSBOROUGH COUNTY",
    "zipcode": 33685,
    "tax": 0.07
  }, {
    "id": 2485,
    "name": "FL - HILLSBOROUGH COUNTY",
    "zipcode": 33686,
    "tax": 0.07
  }, {
    "id": 2486,
    "name": "FL - HILLSBOROUGH COUNTY",
    "zipcode": 33687,
    "tax": 0.07
  }, {
    "id": 2487,
    "name": "FL - HILLSBOROUGH COUNTY",
    "zipcode": 33688,
    "tax": 0.07
  }, {
    "id": 2488,
    "name": "FL - HILLSBOROUGH COUNTY",
    "zipcode": 33689,
    "tax": 0.07
  }, {
    "id": 2489,
    "name": "FL - HILLSBOROUGH COUNTY",
    "zipcode": 33690,
    "tax": 0.07
  }, {
    "id": 2490,
    "name": "FL - HILLSBOROUGH COUNTY",
    "zipcode": 33694,
    "tax": 0.07
  }, {
    "id": 2491,
    "name": "FL - PINELLAS COUNTY",
    "zipcode": 33701,
    "tax": 0.07
  }, {
    "id": 2492,
    "name": "FL - PINELLAS COUNTY",
    "zipcode": 33702,
    "tax": 0.07
  }, {
    "id": 2493,
    "name": "FL - PINELLAS COUNTY",
    "zipcode": 33703,
    "tax": 0.07
  }, {
    "id": 2494,
    "name": "FL - PINELLAS COUNTY",
    "zipcode": 33704,
    "tax": 0.07
  }, {
    "id": 2495,
    "name": "FL - PINELLAS COUNTY",
    "zipcode": 33705,
    "tax": 0.07
  }, {
    "id": 2496,
    "name": "FL - PINELLAS COUNTY",
    "zipcode": 33706,
    "tax": 0.07
  }, {
    "id": 2497,
    "name": "FL - PINELLAS COUNTY",
    "zipcode": 33707,
    "tax": 0.07
  }, {
    "id": 2498,
    "name": "FL - PINELLAS COUNTY",
    "zipcode": 33708,
    "tax": 0.07
  }, {
    "id": 2499,
    "name": "FL - PINELLAS COUNTY",
    "zipcode": 33709,
    "tax": 0.07
  }, {
    "id": 2500,
    "name": "FL - PINELLAS COUNTY",
    "zipcode": 33710,
    "tax": 0.07
  }, {
    "id": 2501,
    "name": "FL - PINELLAS COUNTY",
    "zipcode": 33711,
    "tax": 0.07
  }, {
    "id": 2502,
    "name": "FL - PINELLAS COUNTY",
    "zipcode": 33712,
    "tax": 0.07
  }, {
    "id": 2503,
    "name": "FL - PINELLAS COUNTY",
    "zipcode": 33713,
    "tax": 0.07
  }, {
    "id": 2504,
    "name": "FL - PINELLAS COUNTY",
    "zipcode": 33714,
    "tax": 0.07
  }, {
    "id": 2505,
    "name": "FL - PINELLAS COUNTY",
    "zipcode": 33715,
    "tax": 0.07
  }, {
    "id": 2506,
    "name": "FL - PINELLAS COUNTY",
    "zipcode": 33716,
    "tax": 0.07
  }, {
    "id": 2507,
    "name": "FL - PINELLAS COUNTY",
    "zipcode": 33731,
    "tax": 0.07
  }, {
    "id": 2508,
    "name": "FL - PINELLAS COUNTY",
    "zipcode": 33732,
    "tax": 0.07
  }, {
    "id": 2509,
    "name": "FL - PINELLAS COUNTY",
    "zipcode": 33734,
    "tax": 0.07
  }, {
    "id": 2510,
    "name": "FL - PINELLAS COUNTY",
    "zipcode": 33736,
    "tax": 0.07
  }, {
    "id": 2511,
    "name": "FL - PINELLAS COUNTY",
    "zipcode": 33737,
    "tax": 0.07
  }, {
    "id": 2512,
    "name": "FL - PINELLAS COUNTY",
    "zipcode": 33738,
    "tax": 0.07
  }, {
    "id": 2513,
    "name": "FL - PINELLAS COUNTY",
    "zipcode": 33740,
    "tax": 0.07
  }, {
    "id": 2514,
    "name": "FL - PINELLAS COUNTY",
    "zipcode": 33741,
    "tax": 0.07
  }, {
    "id": 2515,
    "name": "FL - PINELLAS COUNTY",
    "zipcode": 33742,
    "tax": 0.07
  }, {
    "id": 2516,
    "name": "FL - PINELLAS COUNTY",
    "zipcode": 33743,
    "tax": 0.07
  }, {
    "id": 2517,
    "name": "FL - PINELLAS COUNTY",
    "zipcode": 33747,
    "tax": 0.07
  }, {
    "id": 2518,
    "name": "FL - PINELLAS COUNTY",
    "zipcode": 33755,
    "tax": 0.07
  }, {
    "id": 2519,
    "name": "FL - PINELLAS COUNTY",
    "zipcode": 33756,
    "tax": 0.07
  }, {
    "id": 2520,
    "name": "FL - PINELLAS COUNTY",
    "zipcode": 33757,
    "tax": 0.07
  }, {
    "id": 2521,
    "name": "FL - PINELLAS COUNTY",
    "zipcode": 33758,
    "tax": 0.07
  }, {
    "id": 2522,
    "name": "FL - PINELLAS COUNTY",
    "zipcode": 33759,
    "tax": 0.07
  }, {
    "id": 2523,
    "name": "FL - PINELLAS COUNTY",
    "zipcode": 33760,
    "tax": 0.07
  }, {
    "id": 2524,
    "name": "FL - PINELLAS COUNTY",
    "zipcode": 33761,
    "tax": 0.07
  }, {
    "id": 2525,
    "name": "FL - PINELLAS COUNTY",
    "zipcode": 33762,
    "tax": 0.07
  }, {
    "id": 2526,
    "name": "FL - PINELLAS COUNTY",
    "zipcode": 33763,
    "tax": 0.07
  }, {
    "id": 2527,
    "name": "FL - PINELLAS COUNTY",
    "zipcode": 33764,
    "tax": 0.07
  }, {
    "id": 2528,
    "name": "FL - PINELLAS COUNTY",
    "zipcode": 33765,
    "tax": 0.07
  }, {
    "id": 2529,
    "name": "FL - PINELLAS COUNTY",
    "zipcode": 33766,
    "tax": 0.07
  }, {
    "id": 2530,
    "name": "FL - PINELLAS COUNTY",
    "zipcode": 33767,
    "tax": 0.07
  }, {
    "id": 2531,
    "name": "FL - PINELLAS COUNTY",
    "zipcode": 33769,
    "tax": 0.07
  }, {
    "id": 2532,
    "name": "FL - PINELLAS COUNTY",
    "zipcode": 33770,
    "tax": 0.07
  }, {
    "id": 2533,
    "name": "FL - PINELLAS COUNTY",
    "zipcode": 33771,
    "tax": 0.07
  }, {
    "id": 2534,
    "name": "FL - PINELLAS COUNTY",
    "zipcode": 33772,
    "tax": 0.07
  }, {
    "id": 2535,
    "name": "FL - PINELLAS COUNTY",
    "zipcode": 33773,
    "tax": 0.07
  }, {
    "id": 2536,
    "name": "FL - PINELLAS COUNTY",
    "zipcode": 33774,
    "tax": 0.07
  }, {
    "id": 2537,
    "name": "FL - PINELLAS COUNTY",
    "zipcode": 33775,
    "tax": 0.07
  }, {
    "id": 2538,
    "name": "FL - PINELLAS COUNTY",
    "zipcode": 33776,
    "tax": 0.07
  }, {
    "id": 2539,
    "name": "FL - PINELLAS COUNTY",
    "zipcode": 33777,
    "tax": 0.07
  }, {
    "id": 2540,
    "name": "FL - PINELLAS COUNTY",
    "zipcode": 33778,
    "tax": 0.07
  }, {
    "id": 2541,
    "name": "FL - PINELLAS COUNTY",
    "zipcode": 33779,
    "tax": 0.07
  }, {
    "id": 2542,
    "name": "FL - PINELLAS COUNTY",
    "zipcode": 33780,
    "tax": 0.07
  }, {
    "id": 2543,
    "name": "FL - PINELLAS COUNTY",
    "zipcode": 33781,
    "tax": 0.07
  }, {
    "id": 2544,
    "name": "FL - PINELLAS COUNTY",
    "zipcode": 33782,
    "tax": 0.07
  }, {
    "id": 2545,
    "name": "FL - PINELLAS COUNTY",
    "zipcode": 33785,
    "tax": 0.07
  }, {
    "id": 2546,
    "name": "FL - PINELLAS COUNTY",
    "zipcode": 33786,
    "tax": 0.07
  }, {
    "id": 2547,
    "name": "FL - POLK COUNTY",
    "zipcode": 33801,
    "tax": 0.07
  }, {
    "id": 2548,
    "name": "FL - POLK COUNTY",
    "zipcode": 33802,
    "tax": 0.07
  }, {
    "id": 2549,
    "name": "FL - POLK COUNTY",
    "zipcode": 33803,
    "tax": 0.07
  }, {
    "id": 2550,
    "name": "FL - POLK COUNTY",
    "zipcode": 33804,
    "tax": 0.07
  }, {
    "id": 2551,
    "name": "FL - POLK COUNTY",
    "zipcode": 33805,
    "tax": 0.07
  }, {
    "id": 2552,
    "name": "FL - POLK COUNTY",
    "zipcode": 33806,
    "tax": 0.07
  }, {
    "id": 2553,
    "name": "FL - POLK COUNTY",
    "zipcode": 33807,
    "tax": 0.07
  }, {
    "id": 2554,
    "name": "FL - POLK COUNTY",
    "zipcode": 33809,
    "tax": 0.07
  }, {
    "id": 2555,
    "name": "FL - POLK COUNTY",
    "zipcode": 33810,
    "tax": 0.07
  }, {
    "id": 2556,
    "name": "FL - POLK COUNTY",
    "zipcode": 33811,
    "tax": 0.07
  }, {
    "id": 2557,
    "name": "FL - POLK COUNTY",
    "zipcode": 33812,
    "tax": 0.07
  }, {
    "id": 2558,
    "name": "FL - POLK COUNTY",
    "zipcode": 33813,
    "tax": 0.07
  }, {
    "id": 2559,
    "name": "FL - POLK COUNTY",
    "zipcode": 33815,
    "tax": 0.07
  }, {
    "id": 2560,
    "name": "FL - POLK COUNTY",
    "zipcode": 33823,
    "tax": 0.07
  }, {
    "id": 2561,
    "name": "FL - HIGHLANDS COUNTY",
    "zipcode": 33825,
    "tax": 0.07
  }, {
    "id": 2562,
    "name": "FL - HIGHLANDS COUNTY",
    "zipcode": 33826,
    "tax": 0.07
  }, {
    "id": 2563,
    "name": "FL - POLK COUNTY",
    "zipcode": 33827,
    "tax": 0.07
  }, {
    "id": 2564,
    "name": "FL - POLK COUNTY",
    "zipcode": 33830,
    "tax": 0.07
  }, {
    "id": 2565,
    "name": "FL - POLK COUNTY",
    "zipcode": 33831,
    "tax": 0.07
  }, {
    "id": 2566,
    "name": "FL - HARDEE COUNTY",
    "zipcode": 33834,
    "tax": 0.07
  }, {
    "id": 2567,
    "name": "FL - POLK COUNTY",
    "zipcode": 33836,
    "tax": 0.07
  }, {
    "id": 2568,
    "name": "FL - POLK COUNTY",
    "zipcode": 33837,
    "tax": 0.07
  }, {
    "id": 2569,
    "name": "FL - POLK COUNTY",
    "zipcode": 33838,
    "tax": 0.07
  }, {
    "id": 2570,
    "name": "FL - POLK COUNTY",
    "zipcode": 33839,
    "tax": 0.07
  }, {
    "id": 2571,
    "name": "FL - POLK COUNTY",
    "zipcode": 33841,
    "tax": 0.07
  }, {
    "id": 2572,
    "name": "FL - POLK COUNTY",
    "zipcode": 33843,
    "tax": 0.07
  }, {
    "id": 2573,
    "name": "FL - POLK COUNTY",
    "zipcode": 33844,
    "tax": 0.07
  }, {
    "id": 2574,
    "name": "FL - POLK COUNTY",
    "zipcode": 33845,
    "tax": 0.07
  }, {
    "id": 2575,
    "name": "FL - POLK COUNTY",
    "zipcode": 33846,
    "tax": 0.07
  }, {
    "id": 2576,
    "name": "FL - OSCEOLA COUNTY",
    "zipcode": 33848,
    "tax": 0.07
  }, {
    "id": 2577,
    "name": "FL - POLK COUNTY",
    "zipcode": 33849,
    "tax": 0.07
  }, {
    "id": 2578,
    "name": "FL - POLK COUNTY",
    "zipcode": 33850,
    "tax": 0.07
  }, {
    "id": 2579,
    "name": "FL - HIGHLANDS COUNTY",
    "zipcode": 33852,
    "tax": 0.07
  }, {
    "id": 2580,
    "name": "FL - POLK COUNTY",
    "zipcode": 33853,
    "tax": 0.07
  }, {
    "id": 2581,
    "name": "FL - POLK COUNTY",
    "zipcode": 33854,
    "tax": 0.07
  }, {
    "id": 2582,
    "name": "FL - POLK COUNTY",
    "zipcode": 33855,
    "tax": 0.07
  }, {
    "id": 2583,
    "name": "FL - POLK COUNTY",
    "zipcode": 33856,
    "tax": 0.07
  }, {
    "id": 2584,
    "name": "FL - HIGHLANDS COUNTY",
    "zipcode": 33857,
    "tax": 0.07
  }, {
    "id": 2585,
    "name": "FL - POLK COUNTY",
    "zipcode": 33858,
    "tax": 0.07
  }, {
    "id": 2586,
    "name": "FL - POLK COUNTY",
    "zipcode": 33859,
    "tax": 0.07
  }, {
    "id": 2587,
    "name": "FL - POLK COUNTY",
    "zipcode": 33860,
    "tax": 0.07
  }, {
    "id": 2588,
    "name": "FL - HIGHLANDS COUNTY",
    "zipcode": 33862,
    "tax": 0.07
  }, {
    "id": 2589,
    "name": "FL - POLK COUNTY",
    "zipcode": 33863,
    "tax": 0.07
  }, {
    "id": 2590,
    "name": "FL - HARDEE COUNTY",
    "zipcode": 33865,
    "tax": 0.07
  }, {
    "id": 2591,
    "name": "FL - POLK COUNTY",
    "zipcode": 33867,
    "tax": 0.07
  }, {
    "id": 2592,
    "name": "FL - POLK COUNTY",
    "zipcode": 33868,
    "tax": 0.07
  }, {
    "id": 2593,
    "name": "FL - HIGHLANDS COUNTY",
    "zipcode": 33870,
    "tax": 0.07
  }, {
    "id": 2594,
    "name": "FL - HIGHLANDS COUNTY",
    "zipcode": 33871,
    "tax": 0.07
  }, {
    "id": 2595,
    "name": "FL - HIGHLANDS COUNTY",
    "zipcode": 33872,
    "tax": 0.07
  }, {
    "id": 2596,
    "name": "FL - HARDEE COUNTY",
    "zipcode": 33873,
    "tax": 0.07
  }, {
    "id": 2597,
    "name": "FL - HIGHLANDS COUNTY",
    "zipcode": 33875,
    "tax": 0.07
  }, {
    "id": 2598,
    "name": "FL - HIGHLANDS COUNTY",
    "zipcode": 33876,
    "tax": 0.07
  }, {
    "id": 2599,
    "name": "FL - POLK COUNTY",
    "zipcode": 33880,
    "tax": 0.07
  }, {
    "id": 2600,
    "name": "FL - POLK COUNTY",
    "zipcode": 33881,
    "tax": 0.07
  }, {
    "id": 2601,
    "name": "FL - POLK COUNTY",
    "zipcode": 33882,
    "tax": 0.07
  }, {
    "id": 2602,
    "name": "FL - POLK COUNTY",
    "zipcode": 33883,
    "tax": 0.07
  }, {
    "id": 2603,
    "name": "FL - POLK COUNTY",
    "zipcode": 33884,
    "tax": 0.07
  }, {
    "id": 2604,
    "name": "FL - POLK COUNTY",
    "zipcode": 33885,
    "tax": 0.07
  }, {
    "id": 2605,
    "name": "FL - HARDEE COUNTY",
    "zipcode": 33890,
    "tax": 0.07
  }, {
    "id": 2606,
    "name": "FL - POLK COUNTY",
    "zipcode": 33896,
    "tax": 0.07
  }, {
    "id": 2607,
    "name": "FL - POLK COUNTY",
    "zipcode": 33897,
    "tax": 0.07
  }, {
    "id": 2608,
    "name": "FL - POLK COUNTY",
    "zipcode": 33898,
    "tax": 0.07
  }, {
    "id": 2609,
    "name": "FL - FLORIDA STATE",
    "zipcode": 33901,
    "tax": 0.06
  }, {
    "id": 2610,
    "name": "FL - FLORIDA STATE",
    "zipcode": 33902,
    "tax": 0.06
  }, {
    "id": 2611,
    "name": "FL - FLORIDA STATE",
    "zipcode": 33903,
    "tax": 0.06
  }, {
    "id": 2612,
    "name": "FL - FLORIDA STATE",
    "zipcode": 33904,
    "tax": 0.06
  }, {
    "id": 2613,
    "name": "FL - FLORIDA STATE",
    "zipcode": 33905,
    "tax": 0.06
  }, {
    "id": 2614,
    "name": "FL - FLORIDA STATE",
    "zipcode": 33906,
    "tax": 0.06
  }, {
    "id": 2615,
    "name": "FL - FLORIDA STATE",
    "zipcode": 33907,
    "tax": 0.06
  }, {
    "id": 2616,
    "name": "FL - FLORIDA STATE",
    "zipcode": 33908,
    "tax": 0.06
  }, {
    "id": 2617,
    "name": "FL - FLORIDA STATE",
    "zipcode": 33909,
    "tax": 0.06
  }, {
    "id": 2618,
    "name": "FL - FLORIDA STATE",
    "zipcode": 33910,
    "tax": 0.06
  }, {
    "id": 2619,
    "name": "FL - FLORIDA STATE",
    "zipcode": 33911,
    "tax": 0.06
  }, {
    "id": 2620,
    "name": "FL - FLORIDA STATE",
    "zipcode": 33912,
    "tax": 0.06
  }, {
    "id": 2621,
    "name": "FL - FLORIDA STATE",
    "zipcode": 33913,
    "tax": 0.06
  }, {
    "id": 2622,
    "name": "FL - FLORIDA STATE",
    "zipcode": 33914,
    "tax": 0.06
  }, {
    "id": 2623,
    "name": "FL - FLORIDA STATE",
    "zipcode": 33915,
    "tax": 0.06
  }, {
    "id": 2624,
    "name": "FL - FLORIDA STATE",
    "zipcode": 33916,
    "tax": 0.06
  }, {
    "id": 2625,
    "name": "FL - FLORIDA STATE",
    "zipcode": 33917,
    "tax": 0.06
  }, {
    "id": 2626,
    "name": "FL - FLORIDA STATE",
    "zipcode": 33918,
    "tax": 0.06
  }, {
    "id": 2627,
    "name": "FL - FLORIDA STATE",
    "zipcode": 33919,
    "tax": 0.06
  }, {
    "id": 2628,
    "name": "FL - FLORIDA STATE",
    "zipcode": 33920,
    "tax": 0.06
  }, {
    "id": 2629,
    "name": "FL - FLORIDA STATE",
    "zipcode": 33921,
    "tax": 0.06
  }, {
    "id": 2630,
    "name": "FL - FLORIDA STATE",
    "zipcode": 33922,
    "tax": 0.06
  }, {
    "id": 2631,
    "name": "FL - FLORIDA STATE",
    "zipcode": 33924,
    "tax": 0.06
  }, {
    "id": 2632,
    "name": "FL - CHARLOTTE COUNTY",
    "zipcode": 33927,
    "tax": 0.07
  }, {
    "id": 2633,
    "name": "FL - FLORIDA STATE",
    "zipcode": 33928,
    "tax": 0.06
  }, {
    "id": 2634,
    "name": "FL - FLORIDA STATE",
    "zipcode": 33929,
    "tax": 0.06
  }, {
    "id": 2635,
    "name": "FL - HENDRY COUNTY",
    "zipcode": 33930,
    "tax": 0.07
  }, {
    "id": 2636,
    "name": "FL - FLORIDA STATE",
    "zipcode": 33931,
    "tax": 0.06
  }, {
    "id": 2637,
    "name": "FL - FLORIDA STATE",
    "zipcode": 33932,
    "tax": 0.06
  }, {
    "id": 2638,
    "name": "FL - HENDRY COUNTY",
    "zipcode": 33935,
    "tax": 0.07
  }, {
    "id": 2639,
    "name": "FL - FLORIDA STATE",
    "zipcode": 33936,
    "tax": 0.06
  }, {
    "id": 2640,
    "name": "FL - CHARLOTTE COUNTY",
    "zipcode": 33938,
    "tax": 0.07
  }, {
    "id": 2641,
    "name": "FL - GLADES COUNTY",
    "zipcode": 33944,
    "tax": 0.07
  }, {
    "id": 2642,
    "name": "FL - FLORIDA STATE",
    "zipcode": 33945,
    "tax": 0.06
  }, {
    "id": 2643,
    "name": "FL - CHARLOTTE COUNTY",
    "zipcode": 33946,
    "tax": 0.07
  }, {
    "id": 2644,
    "name": "FL - CHARLOTTE COUNTY",
    "zipcode": 33947,
    "tax": 0.07
  }, {
    "id": 2645,
    "name": "FL - CHARLOTTE COUNTY",
    "zipcode": 33948,
    "tax": 0.07
  }, {
    "id": 2646,
    "name": "FL - CHARLOTTE COUNTY",
    "zipcode": 33949,
    "tax": 0.07
  }, {
    "id": 2647,
    "name": "FL - CHARLOTTE COUNTY",
    "zipcode": 33950,
    "tax": 0.07
  }, {
    "id": 2648,
    "name": "FL - CHARLOTTE COUNTY",
    "zipcode": 33951,
    "tax": 0.07
  }, {
    "id": 2649,
    "name": "FL - CHARLOTTE COUNTY",
    "zipcode": 33952,
    "tax": 0.07
  }, {
    "id": 2650,
    "name": "FL - CHARLOTTE COUNTY",
    "zipcode": 33953,
    "tax": 0.07
  }, {
    "id": 2651,
    "name": "FL - CHARLOTTE COUNTY",
    "zipcode": 33954,
    "tax": 0.07
  }, {
    "id": 2652,
    "name": "FL - CHARLOTTE COUNTY",
    "zipcode": 33955,
    "tax": 0.07
  }, {
    "id": 2653,
    "name": "FL - FLORIDA STATE",
    "zipcode": 33956,
    "tax": 0.06
  }, {
    "id": 2654,
    "name": "FL - FLORIDA STATE",
    "zipcode": 33957,
    "tax": 0.06
  }, {
    "id": 2655,
    "name": "FL - HIGHLANDS COUNTY",
    "zipcode": 33960,
    "tax": 0.07
  }, {
    "id": 2656,
    "name": "FL - FLORIDA STATE",
    "zipcode": 33965,
    "tax": 0.06
  }, {
    "id": 2657,
    "name": "FL - FLORIDA STATE",
    "zipcode": 33966,
    "tax": 0.06
  }, {
    "id": 2658,
    "name": "FL - FLORIDA STATE",
    "zipcode": 33967,
    "tax": 0.06
  }, {
    "id": 2659,
    "name": "FL - FLORIDA STATE",
    "zipcode": 33970,
    "tax": 0.06
  }, {
    "id": 2660,
    "name": "FL - FLORIDA STATE",
    "zipcode": 33971,
    "tax": 0.06
  }, {
    "id": 2661,
    "name": "FL - FLORIDA STATE",
    "zipcode": 33972,
    "tax": 0.06
  }, {
    "id": 2662,
    "name": "FL - FLORIDA STATE",
    "zipcode": 33973,
    "tax": 0.06
  }, {
    "id": 2663,
    "name": "FL - FLORIDA STATE",
    "zipcode": 33974,
    "tax": 0.06
  }, {
    "id": 2664,
    "name": "FL - FLORIDA STATE",
    "zipcode": 33976,
    "tax": 0.06
  }, {
    "id": 2665,
    "name": "FL - CHARLOTTE COUNTY",
    "zipcode": 33980,
    "tax": 0.07
  }, {
    "id": 2666,
    "name": "FL - CHARLOTTE COUNTY",
    "zipcode": 33981,
    "tax": 0.07
  }, {
    "id": 2667,
    "name": "FL - CHARLOTTE COUNTY",
    "zipcode": 33982,
    "tax": 0.07
  }, {
    "id": 2668,
    "name": "FL - CHARLOTTE COUNTY",
    "zipcode": 33983,
    "tax": 0.07
  }, {
    "id": 2669,
    "name": "FL - FLORIDA STATE",
    "zipcode": 33990,
    "tax": 0.06
  }, {
    "id": 2670,
    "name": "FL - FLORIDA STATE",
    "zipcode": 33991,
    "tax": 0.06
  }, {
    "id": 2671,
    "name": "FL - FLORIDA STATE",
    "zipcode": 33993,
    "tax": 0.06
  }, {
    "id": 2672,
    "name": "FL - FLORIDA STATE",
    "zipcode": 33994,
    "tax": 0.06
  }, {
    "id": 2673,
    "name": "FL - FLORIDA STATE",
    "zipcode": 34101,
    "tax": 0.06
  }, {
    "id": 2674,
    "name": "FL - FLORIDA STATE",
    "zipcode": 34102,
    "tax": 0.06
  }, {
    "id": 2675,
    "name": "FL - FLORIDA STATE",
    "zipcode": 34103,
    "tax": 0.06
  }, {
    "id": 2676,
    "name": "FL - FLORIDA STATE",
    "zipcode": 34104,
    "tax": 0.06
  }, {
    "id": 2677,
    "name": "FL - FLORIDA STATE",
    "zipcode": 34105,
    "tax": 0.06
  }, {
    "id": 2678,
    "name": "FL - FLORIDA STATE",
    "zipcode": 34106,
    "tax": 0.06
  }, {
    "id": 2679,
    "name": "FL - FLORIDA STATE",
    "zipcode": 34107,
    "tax": 0.06
  }, {
    "id": 2680,
    "name": "FL - FLORIDA STATE",
    "zipcode": 34108,
    "tax": 0.06
  }, {
    "id": 2681,
    "name": "FL - FLORIDA STATE",
    "zipcode": 34109,
    "tax": 0.06
  }, {
    "id": 2682,
    "name": "FL - FLORIDA STATE",
    "zipcode": 34110,
    "tax": 0.06
  }, {
    "id": 2683,
    "name": "FL - FLORIDA STATE",
    "zipcode": 34112,
    "tax": 0.06
  }, {
    "id": 2684,
    "name": "FL - FLORIDA STATE",
    "zipcode": 34113,
    "tax": 0.06
  }, {
    "id": 2685,
    "name": "FL - FLORIDA STATE",
    "zipcode": 34114,
    "tax": 0.06
  }, {
    "id": 2686,
    "name": "FL - FLORIDA STATE",
    "zipcode": 34116,
    "tax": 0.06
  }, {
    "id": 2687,
    "name": "FL - FLORIDA STATE",
    "zipcode": 34117,
    "tax": 0.06
  }, {
    "id": 2688,
    "name": "FL - FLORIDA STATE",
    "zipcode": 34119,
    "tax": 0.06
  }, {
    "id": 2689,
    "name": "FL - FLORIDA STATE",
    "zipcode": 34120,
    "tax": 0.06
  }, {
    "id": 2690,
    "name": "FL - FLORIDA STATE",
    "zipcode": 34133,
    "tax": 0.06
  }, {
    "id": 2691,
    "name": "FL - FLORIDA STATE",
    "zipcode": 34134,
    "tax": 0.06
  }, {
    "id": 2692,
    "name": "FL - FLORIDA STATE",
    "zipcode": 34135,
    "tax": 0.06
  }, {
    "id": 2693,
    "name": "FL - FLORIDA STATE",
    "zipcode": 34136,
    "tax": 0.06
  }, {
    "id": 2694,
    "name": "FL - FLORIDA STATE",
    "zipcode": 34137,
    "tax": 0.06
  }, {
    "id": 2695,
    "name": "FL - FLORIDA STATE",
    "zipcode": 34138,
    "tax": 0.06
  }, {
    "id": 2696,
    "name": "FL - FLORIDA STATE",
    "zipcode": 34139,
    "tax": 0.06
  }, {
    "id": 2697,
    "name": "FL - FLORIDA STATE",
    "zipcode": 34140,
    "tax": 0.06
  }, {
    "id": 2698,
    "name": "FL - FLORIDA STATE",
    "zipcode": 34141,
    "tax": 0.06
  }, {
    "id": 2699,
    "name": "FL - FLORIDA STATE",
    "zipcode": 34142,
    "tax": 0.06
  }, {
    "id": 2700,
    "name": "FL - FLORIDA STATE",
    "zipcode": 34143,
    "tax": 0.06
  }, {
    "id": 2701,
    "name": "FL - FLORIDA STATE",
    "zipcode": 34145,
    "tax": 0.06
  }, {
    "id": 2702,
    "name": "FL - FLORIDA STATE",
    "zipcode": 34146,
    "tax": 0.06
  }, {
    "id": 2703,
    "name": "FL - MANATEE COUNTY",
    "zipcode": 34201,
    "tax": 0.065
  }, {
    "id": 2704,
    "name": "FL - MANATEE COUNTY",
    "zipcode": 34202,
    "tax": 0.065
  }, {
    "id": 2705,
    "name": "FL - MANATEE COUNTY",
    "zipcode": 34203,
    "tax": 0.065
  }, {
    "id": 2706,
    "name": "FL - MANATEE COUNTY",
    "zipcode": 34204,
    "tax": 0.065
  }, {
    "id": 2707,
    "name": "FL - MANATEE COUNTY",
    "zipcode": 34205,
    "tax": 0.065
  }, {
    "id": 2708,
    "name": "FL - MANATEE COUNTY",
    "zipcode": 34206,
    "tax": 0.065
  }, {
    "id": 2709,
    "name": "FL - MANATEE COUNTY",
    "zipcode": 34207,
    "tax": 0.065
  }, {
    "id": 2710,
    "name": "FL - MANATEE COUNTY",
    "zipcode": 34208,
    "tax": 0.065
  }, {
    "id": 2711,
    "name": "FL - MANATEE COUNTY",
    "zipcode": 34209,
    "tax": 0.065
  }, {
    "id": 2712,
    "name": "FL - MANATEE COUNTY",
    "zipcode": 34210,
    "tax": 0.065
  }, {
    "id": 2713,
    "name": "FL - MANATEE COUNTY",
    "zipcode": 34211,
    "tax": 0.065
  }, {
    "id": 2714,
    "name": "FL - MANATEE COUNTY",
    "zipcode": 34212,
    "tax": 0.065
  }, {
    "id": 2715,
    "name": "FL - MANATEE COUNTY",
    "zipcode": 34215,
    "tax": 0.065
  }, {
    "id": 2716,
    "name": "FL - MANATEE COUNTY",
    "zipcode": 34216,
    "tax": 0.065
  }, {
    "id": 2717,
    "name": "FL - MANATEE COUNTY",
    "zipcode": 34217,
    "tax": 0.065
  }, {
    "id": 2718,
    "name": "FL - MANATEE COUNTY",
    "zipcode": 34218,
    "tax": 0.065
  }, {
    "id": 2719,
    "name": "FL - MANATEE COUNTY",
    "zipcode": 34219,
    "tax": 0.065
  }, {
    "id": 2720,
    "name": "FL - MANATEE COUNTY",
    "zipcode": 34220,
    "tax": 0.065
  }, {
    "id": 2721,
    "name": "FL - MANATEE COUNTY",
    "zipcode": 34221,
    "tax": 0.065
  }, {
    "id": 2722,
    "name": "FL - MANATEE COUNTY",
    "zipcode": 34222,
    "tax": 0.065
  }, {
    "id": 2723,
    "name": "FL - SARASOTA COUNTY",
    "zipcode": 34223,
    "tax": 0.07
  }, {
    "id": 2724,
    "name": "FL - CHARLOTTE COUNTY",
    "zipcode": 34224,
    "tax": 0.07
  }, {
    "id": 2725,
    "name": "FL - SARASOTA COUNTY",
    "zipcode": 34228,
    "tax": 0.07
  }, {
    "id": 2726,
    "name": "FL - SARASOTA COUNTY",
    "zipcode": 34229,
    "tax": 0.07
  }, {
    "id": 2727,
    "name": "FL - SARASOTA COUNTY",
    "zipcode": 34230,
    "tax": 0.07
  }, {
    "id": 2728,
    "name": "FL - SARASOTA COUNTY",
    "zipcode": 34231,
    "tax": 0.07
  }, {
    "id": 2729,
    "name": "FL - SARASOTA COUNTY",
    "zipcode": 34232,
    "tax": 0.07
  }, {
    "id": 2730,
    "name": "FL - SARASOTA COUNTY",
    "zipcode": 34233,
    "tax": 0.07
  }, {
    "id": 2731,
    "name": "FL - SARASOTA COUNTY",
    "zipcode": 34234,
    "tax": 0.07
  }, {
    "id": 2732,
    "name": "FL - SARASOTA COUNTY",
    "zipcode": 34235,
    "tax": 0.07
  }, {
    "id": 2733,
    "name": "FL - SARASOTA COUNTY",
    "zipcode": 34236,
    "tax": 0.07
  }, {
    "id": 2734,
    "name": "FL - SARASOTA COUNTY",
    "zipcode": 34237,
    "tax": 0.07
  }, {
    "id": 2735,
    "name": "FL - SARASOTA COUNTY",
    "zipcode": 34238,
    "tax": 0.07
  }, {
    "id": 2736,
    "name": "FL - SARASOTA COUNTY",
    "zipcode": 34239,
    "tax": 0.07
  }, {
    "id": 2737,
    "name": "FL - SARASOTA COUNTY",
    "zipcode": 34240,
    "tax": 0.07
  }, {
    "id": 2738,
    "name": "FL - SARASOTA COUNTY",
    "zipcode": 34241,
    "tax": 0.07
  }, {
    "id": 2739,
    "name": "FL - SARASOTA COUNTY",
    "zipcode": 34242,
    "tax": 0.07
  }, {
    "id": 2740,
    "name": "FL - MANATEE COUNTY",
    "zipcode": 34243,
    "tax": 0.065
  }, {
    "id": 2741,
    "name": "FL - MANATEE COUNTY",
    "zipcode": 34250,
    "tax": 0.065
  }, {
    "id": 2742,
    "name": "FL - MANATEE COUNTY",
    "zipcode": 34251,
    "tax": 0.065
  }, {
    "id": 2743,
    "name": "FL - MANATEE COUNTY",
    "zipcode": 34260,
    "tax": 0.065
  }, {
    "id": 2744,
    "name": "FL - MANATEE COUNTY",
    "zipcode": 34264,
    "tax": 0.065
  }, {
    "id": 2745,
    "name": "FL - DE SOTO COUNTY",
    "zipcode": 34265,
    "tax": 0.07
  }, {
    "id": 2746,
    "name": "FL - DE SOTO COUNTY",
    "zipcode": 34266,
    "tax": 0.07
  }, {
    "id": 2747,
    "name": "FL - DE SOTO COUNTY",
    "zipcode": 34269,
    "tax": 0.07
  }, {
    "id": 2748,
    "name": "FL - SARASOTA COUNTY",
    "zipcode": 34275,
    "tax": 0.07
  }, {
    "id": 2749,
    "name": "FL - SARASOTA COUNTY",
    "zipcode": 34276,
    "tax": 0.07
  }, {
    "id": 2750,
    "name": "FL - SARASOTA COUNTY",
    "zipcode": 34277,
    "tax": 0.07
  }, {
    "id": 2751,
    "name": "FL - SARASOTA COUNTY",
    "zipcode": 34278,
    "tax": 0.07
  }, {
    "id": 2752,
    "name": "FL - MANATEE COUNTY",
    "zipcode": 34280,
    "tax": 0.065
  }, {
    "id": 2753,
    "name": "FL - MANATEE COUNTY",
    "zipcode": 34281,
    "tax": 0.065
  }, {
    "id": 2754,
    "name": "FL - MANATEE COUNTY",
    "zipcode": 34282,
    "tax": 0.065
  }, {
    "id": 2755,
    "name": "FL - SARASOTA COUNTY",
    "zipcode": 34284,
    "tax": 0.07
  }, {
    "id": 2756,
    "name": "FL - SARASOTA COUNTY",
    "zipcode": 34285,
    "tax": 0.07
  }, {
    "id": 2757,
    "name": "FL - SARASOTA COUNTY",
    "zipcode": 34286,
    "tax": 0.07
  }, {
    "id": 2758,
    "name": "FL - SARASOTA COUNTY",
    "zipcode": 34287,
    "tax": 0.07
  }, {
    "id": 2759,
    "name": "FL - SARASOTA COUNTY",
    "zipcode": 34288,
    "tax": 0.07
  }, {
    "id": 2760,
    "name": "FL - SARASOTA COUNTY",
    "zipcode": 34289,
    "tax": 0.07
  }, {
    "id": 2761,
    "name": "FL - SARASOTA COUNTY",
    "zipcode": 34290,
    "tax": 0.07
  }, {
    "id": 2762,
    "name": "FL - SARASOTA COUNTY",
    "zipcode": 34291,
    "tax": 0.07
  }, {
    "id": 2763,
    "name": "FL - SARASOTA COUNTY",
    "zipcode": 34292,
    "tax": 0.07
  }, {
    "id": 2764,
    "name": "FL - SARASOTA COUNTY",
    "zipcode": 34293,
    "tax": 0.07
  }, {
    "id": 2765,
    "name": "FL - SARASOTA COUNTY",
    "zipcode": 34295,
    "tax": 0.07
  }, {
    "id": 2766,
    "name": "FL - FLORIDA STATE",
    "zipcode": 34420,
    "tax": 0.06
  }, {
    "id": 2767,
    "name": "FL - FLORIDA STATE",
    "zipcode": 34421,
    "tax": 0.06
  }, {
    "id": 2768,
    "name": "FL - FLORIDA STATE",
    "zipcode": 34423,
    "tax": 0.06
  }, {
    "id": 2769,
    "name": "FL - FLORIDA STATE",
    "zipcode": 34428,
    "tax": 0.06
  }, {
    "id": 2770,
    "name": "FL - FLORIDA STATE",
    "zipcode": 34429,
    "tax": 0.06
  }, {
    "id": 2771,
    "name": "FL - FLORIDA STATE",
    "zipcode": 34430,
    "tax": 0.06
  }, {
    "id": 2772,
    "name": "FL - FLORIDA STATE",
    "zipcode": 34431,
    "tax": 0.06
  }, {
    "id": 2773,
    "name": "FL - FLORIDA STATE",
    "zipcode": 34432,
    "tax": 0.06
  }, {
    "id": 2774,
    "name": "FL - FLORIDA STATE",
    "zipcode": 34433,
    "tax": 0.06
  }, {
    "id": 2775,
    "name": "FL - FLORIDA STATE",
    "zipcode": 34434,
    "tax": 0.06
  }, {
    "id": 2776,
    "name": "FL - FLORIDA STATE",
    "zipcode": 34436,
    "tax": 0.06
  }, {
    "id": 2777,
    "name": "FL - FLORIDA STATE",
    "zipcode": 34441,
    "tax": 0.06
  }, {
    "id": 2778,
    "name": "FL - FLORIDA STATE",
    "zipcode": 34442,
    "tax": 0.06
  }, {
    "id": 2779,
    "name": "FL - FLORIDA STATE",
    "zipcode": 34446,
    "tax": 0.06
  }, {
    "id": 2780,
    "name": "FL - FLORIDA STATE",
    "zipcode": 34447,
    "tax": 0.06
  }, {
    "id": 2781,
    "name": "FL - FLORIDA STATE",
    "zipcode": 34448,
    "tax": 0.06
  }, {
    "id": 2782,
    "name": "FL - LEVY COUNTY",
    "zipcode": 34449,
    "tax": 0.07
  }, {
    "id": 2783,
    "name": "FL - FLORIDA STATE",
    "zipcode": 34450,
    "tax": 0.06
  }, {
    "id": 2784,
    "name": "FL - FLORIDA STATE",
    "zipcode": 34451,
    "tax": 0.06
  }, {
    "id": 2785,
    "name": "FL - FLORIDA STATE",
    "zipcode": 34452,
    "tax": 0.06
  }, {
    "id": 2786,
    "name": "FL - FLORIDA STATE",
    "zipcode": 34453,
    "tax": 0.06
  }, {
    "id": 2787,
    "name": "FL - FLORIDA STATE",
    "zipcode": 34460,
    "tax": 0.06
  }, {
    "id": 2788,
    "name": "FL - FLORIDA STATE",
    "zipcode": 34461,
    "tax": 0.06
  }, {
    "id": 2789,
    "name": "FL - FLORIDA STATE",
    "zipcode": 34464,
    "tax": 0.06
  }, {
    "id": 2790,
    "name": "FL - FLORIDA STATE",
    "zipcode": 34465,
    "tax": 0.06
  }, {
    "id": 2791,
    "name": "FL - FLORIDA STATE",
    "zipcode": 34470,
    "tax": 0.06
  }, {
    "id": 2792,
    "name": "FL - FLORIDA STATE",
    "zipcode": 34471,
    "tax": 0.06
  }, {
    "id": 2793,
    "name": "FL - FLORIDA STATE",
    "zipcode": 34472,
    "tax": 0.06
  }, {
    "id": 2794,
    "name": "FL - FLORIDA STATE",
    "zipcode": 34473,
    "tax": 0.06
  }, {
    "id": 2795,
    "name": "FL - FLORIDA STATE",
    "zipcode": 34474,
    "tax": 0.06
  }, {
    "id": 2796,
    "name": "FL - FLORIDA STATE",
    "zipcode": 34475,
    "tax": 0.06
  }, {
    "id": 2797,
    "name": "FL - FLORIDA STATE",
    "zipcode": 34476,
    "tax": 0.06
  }, {
    "id": 2798,
    "name": "FL - FLORIDA STATE",
    "zipcode": 34477,
    "tax": 0.06
  }, {
    "id": 2799,
    "name": "FL - FLORIDA STATE",
    "zipcode": 34479,
    "tax": 0.06
  }, {
    "id": 2800,
    "name": "FL - FLORIDA STATE",
    "zipcode": 34480,
    "tax": 0.06
  }, {
    "id": 2801,
    "name": "FL - FLORIDA STATE",
    "zipcode": 34481,
    "tax": 0.06
  }, {
    "id": 2802,
    "name": "FL - FLORIDA STATE",
    "zipcode": 34482,
    "tax": 0.06
  }, {
    "id": 2803,
    "name": "FL - FLORIDA STATE",
    "zipcode": 34483,
    "tax": 0.06
  }, {
    "id": 2804,
    "name": "FL - SUMTER COUNTY",
    "zipcode": 34484,
    "tax": 0.07
  }, {
    "id": 2805,
    "name": "FL - FLORIDA STATE",
    "zipcode": 34488,
    "tax": 0.06
  }, {
    "id": 2806,
    "name": "FL - FLORIDA STATE",
    "zipcode": 34489,
    "tax": 0.06
  }, {
    "id": 2807,
    "name": "FL - FLORIDA STATE",
    "zipcode": 34491,
    "tax": 0.06
  }, {
    "id": 2808,
    "name": "FL - FLORIDA STATE",
    "zipcode": 34492,
    "tax": 0.06
  }, {
    "id": 2809,
    "name": "FL - LEVY COUNTY",
    "zipcode": 34498,
    "tax": 0.07
  }, {
    "id": 2810,
    "name": "FL - HERNANDO COUNTY",
    "zipcode": 34601,
    "tax": 0.065
  }, {
    "id": 2811,
    "name": "FL - HERNANDO COUNTY",
    "zipcode": 34602,
    "tax": 0.065
  }, {
    "id": 2812,
    "name": "FL - HERNANDO COUNTY",
    "zipcode": 34603,
    "tax": 0.065
  }, {
    "id": 2813,
    "name": "FL - HERNANDO COUNTY",
    "zipcode": 34604,
    "tax": 0.065
  }, {
    "id": 2814,
    "name": "FL - HERNANDO COUNTY",
    "zipcode": 34605,
    "tax": 0.065
  }, {
    "id": 2815,
    "name": "FL - HERNANDO COUNTY",
    "zipcode": 34606,
    "tax": 0.065
  }, {
    "id": 2816,
    "name": "FL - HERNANDO COUNTY",
    "zipcode": 34607,
    "tax": 0.065
  }, {
    "id": 2817,
    "name": "FL - HERNANDO COUNTY",
    "zipcode": 34608,
    "tax": 0.065
  }, {
    "id": 2818,
    "name": "FL - HERNANDO COUNTY",
    "zipcode": 34609,
    "tax": 0.065
  }, {
    "id": 2819,
    "name": "FL - PASCO COUNTY",
    "zipcode": 34610,
    "tax": 0.07
  }, {
    "id": 2820,
    "name": "FL - HERNANDO COUNTY",
    "zipcode": 34611,
    "tax": 0.065
  }, {
    "id": 2821,
    "name": "FL - HERNANDO COUNTY",
    "zipcode": 34613,
    "tax": 0.065
  }, {
    "id": 2822,
    "name": "FL - HERNANDO COUNTY",
    "zipcode": 34614,
    "tax": 0.065
  }, {
    "id": 2823,
    "name": "FL - PASCO COUNTY",
    "zipcode": 34637,
    "tax": 0.07
  }, {
    "id": 2824,
    "name": "FL - PASCO COUNTY",
    "zipcode": 34638,
    "tax": 0.07
  }, {
    "id": 2825,
    "name": "FL - PASCO COUNTY",
    "zipcode": 34639,
    "tax": 0.07
  }, {
    "id": 2826,
    "name": "FL - PASCO COUNTY",
    "zipcode": 34652,
    "tax": 0.07
  }, {
    "id": 2827,
    "name": "FL - PASCO COUNTY",
    "zipcode": 34653,
    "tax": 0.07
  }, {
    "id": 2828,
    "name": "FL - PASCO COUNTY",
    "zipcode": 34654,
    "tax": 0.07
  }, {
    "id": 2829,
    "name": "FL - PASCO COUNTY",
    "zipcode": 34655,
    "tax": 0.07
  }, {
    "id": 2830,
    "name": "FL - PASCO COUNTY",
    "zipcode": 34656,
    "tax": 0.07
  }, {
    "id": 2831,
    "name": "FL - HERNANDO COUNTY",
    "zipcode": 34661,
    "tax": 0.065
  }, {
    "id": 2832,
    "name": "FL - PASCO COUNTY",
    "zipcode": 34667,
    "tax": 0.07
  }, {
    "id": 2833,
    "name": "FL - PASCO COUNTY",
    "zipcode": 34668,
    "tax": 0.07
  }, {
    "id": 2834,
    "name": "FL - PASCO COUNTY",
    "zipcode": 34669,
    "tax": 0.07
  }, {
    "id": 2835,
    "name": "FL - PASCO COUNTY",
    "zipcode": 34673,
    "tax": 0.07
  }, {
    "id": 2836,
    "name": "FL - PASCO COUNTY",
    "zipcode": 34674,
    "tax": 0.07
  }, {
    "id": 2837,
    "name": "FL - PINELLAS COUNTY",
    "zipcode": 34677,
    "tax": 0.07
  }, {
    "id": 2838,
    "name": "FL - PASCO COUNTY",
    "zipcode": 34679,
    "tax": 0.07
  }, {
    "id": 2839,
    "name": "FL - PINELLAS COUNTY",
    "zipcode": 34681,
    "tax": 0.07
  }, {
    "id": 2840,
    "name": "FL - PINELLAS COUNTY",
    "zipcode": 34682,
    "tax": 0.07
  }, {
    "id": 2841,
    "name": "FL - PINELLAS COUNTY",
    "zipcode": 34683,
    "tax": 0.07
  }, {
    "id": 2842,
    "name": "FL - PINELLAS COUNTY",
    "zipcode": 34684,
    "tax": 0.07
  }, {
    "id": 2843,
    "name": "FL - PINELLAS COUNTY",
    "zipcode": 34685,
    "tax": 0.07
  }, {
    "id": 2844,
    "name": "FL - PINELLAS COUNTY",
    "zipcode": 34688,
    "tax": 0.07
  }, {
    "id": 2845,
    "name": "FL - PINELLAS COUNTY",
    "zipcode": 34689,
    "tax": 0.07
  }, {
    "id": 2846,
    "name": "FL - PASCO COUNTY",
    "zipcode": 34690,
    "tax": 0.07
  }, {
    "id": 2847,
    "name": "FL - PASCO COUNTY",
    "zipcode": 34691,
    "tax": 0.07
  }, {
    "id": 2848,
    "name": "FL - PASCO COUNTY",
    "zipcode": 34692,
    "tax": 0.07
  }, {
    "id": 2849,
    "name": "FL - PINELLAS COUNTY",
    "zipcode": 34695,
    "tax": 0.07
  }, {
    "id": 2850,
    "name": "FL - PINELLAS COUNTY",
    "zipcode": 34697,
    "tax": 0.07
  }, {
    "id": 2851,
    "name": "FL - PINELLAS COUNTY",
    "zipcode": 34698,
    "tax": 0.07
  }, {
    "id": 2852,
    "name": "FL - LAKE COUNTY",
    "zipcode": 34705,
    "tax": 0.07
  }, {
    "id": 2853,
    "name": "FL - LAKE COUNTY",
    "zipcode": 34711,
    "tax": 0.07
  }, {
    "id": 2854,
    "name": "FL - LAKE COUNTY",
    "zipcode": 34712,
    "tax": 0.07
  }, {
    "id": 2855,
    "name": "FL - LAKE COUNTY",
    "zipcode": 34713,
    "tax": 0.07
  }, {
    "id": 2856,
    "name": "FL - LAKE COUNTY",
    "zipcode": 34714,
    "tax": 0.07
  }, {
    "id": 2857,
    "name": "FL - LAKE COUNTY",
    "zipcode": 34715,
    "tax": 0.07
  }, {
    "id": 2858,
    "name": "FL - LAKE COUNTY",
    "zipcode": 34729,
    "tax": 0.07
  }, {
    "id": 2859,
    "name": "FL - LAKE COUNTY",
    "zipcode": 34731,
    "tax": 0.07
  }, {
    "id": 2860,
    "name": "FL - ORANGE COUNTY",
    "zipcode": 34734,
    "tax": 0.065
  }, {
    "id": 2861,
    "name": "FL - LAKE COUNTY",
    "zipcode": 34736,
    "tax": 0.07
  }, {
    "id": 2862,
    "name": "FL - LAKE COUNTY",
    "zipcode": 34737,
    "tax": 0.07
  }, {
    "id": 2863,
    "name": "FL - OSCEOLA COUNTY",
    "zipcode": 34739,
    "tax": 0.07
  }, {
    "id": 2864,
    "name": "FL - ORANGE COUNTY",
    "zipcode": 34740,
    "tax": 0.065
  }, {
    "id": 2865,
    "name": "FL - OSCEOLA COUNTY",
    "zipcode": 34741,
    "tax": 0.07
  }, {
    "id": 2866,
    "name": "FL - OSCEOLA COUNTY",
    "zipcode": 34742,
    "tax": 0.07
  }, {
    "id": 2867,
    "name": "FL - OSCEOLA COUNTY",
    "zipcode": 34743,
    "tax": 0.07
  }, {
    "id": 2868,
    "name": "FL - OSCEOLA COUNTY",
    "zipcode": 34744,
    "tax": 0.07
  }, {
    "id": 2869,
    "name": "FL - OSCEOLA COUNTY",
    "zipcode": 34745,
    "tax": 0.07
  }, {
    "id": 2870,
    "name": "FL - OSCEOLA COUNTY",
    "zipcode": 34746,
    "tax": 0.07
  }, {
    "id": 2871,
    "name": "FL - OSCEOLA COUNTY",
    "zipcode": 34747,
    "tax": 0.07
  }, {
    "id": 2872,
    "name": "FL - LAKE COUNTY",
    "zipcode": 34748,
    "tax": 0.07
  }, {
    "id": 2873,
    "name": "FL - LAKE COUNTY",
    "zipcode": 34749,
    "tax": 0.07
  }, {
    "id": 2874,
    "name": "FL - LAKE COUNTY",
    "zipcode": 34753,
    "tax": 0.07
  }, {
    "id": 2875,
    "name": "FL - LAKE COUNTY",
    "zipcode": 34756,
    "tax": 0.07
  }, {
    "id": 2876,
    "name": "FL - OSCEOLA COUNTY",
    "zipcode": 34758,
    "tax": 0.07
  }, {
    "id": 2877,
    "name": "FL - POLK COUNTY",
    "zipcode": 34759,
    "tax": 0.07
  }, {
    "id": 2878,
    "name": "FL - ORANGE COUNTY",
    "zipcode": 34760,
    "tax": 0.065
  }, {
    "id": 2879,
    "name": "FL - ORANGE COUNTY",
    "zipcode": 34761,
    "tax": 0.065
  }, {
    "id": 2880,
    "name": "FL - LAKE COUNTY",
    "zipcode": 34762,
    "tax": 0.07
  }, {
    "id": 2881,
    "name": "FL - OSCEOLA COUNTY",
    "zipcode": 34769,
    "tax": 0.07
  }, {
    "id": 2882,
    "name": "FL - OSCEOLA COUNTY",
    "zipcode": 34770,
    "tax": 0.07
  }, {
    "id": 2883,
    "name": "FL - OSCEOLA COUNTY",
    "zipcode": 34771,
    "tax": 0.07
  }, {
    "id": 2884,
    "name": "FL - OSCEOLA COUNTY",
    "zipcode": 34772,
    "tax": 0.07
  }, {
    "id": 2885,
    "name": "FL - OSCEOLA COUNTY",
    "zipcode": 34773,
    "tax": 0.07
  }, {
    "id": 2886,
    "name": "FL - ORANGE COUNTY",
    "zipcode": 34777,
    "tax": 0.065
  }, {
    "id": 2887,
    "name": "FL - ORANGE COUNTY",
    "zipcode": 34778,
    "tax": 0.065
  }, {
    "id": 2888,
    "name": "FL - SUMTER COUNTY",
    "zipcode": 34785,
    "tax": 0.07
  }, {
    "id": 2889,
    "name": "FL - ORANGE COUNTY",
    "zipcode": 34786,
    "tax": 0.065
  }, {
    "id": 2890,
    "name": "FL - ORANGE COUNTY",
    "zipcode": 34787,
    "tax": 0.065
  }, {
    "id": 2891,
    "name": "FL - LAKE COUNTY",
    "zipcode": 34788,
    "tax": 0.07
  }, {
    "id": 2892,
    "name": "FL - LAKE COUNTY",
    "zipcode": 34789,
    "tax": 0.07
  }, {
    "id": 2893,
    "name": "FL - LAKE COUNTY",
    "zipcode": 34797,
    "tax": 0.07
  }, {
    "id": 2894,
    "name": "FL - ST. LUCIE COUNTY",
    "zipcode": 34945,
    "tax": 0.065
  }, {
    "id": 2895,
    "name": "FL - ST. LUCIE COUNTY",
    "zipcode": 34946,
    "tax": 0.065
  }, {
    "id": 2896,
    "name": "FL - ST. LUCIE COUNTY",
    "zipcode": 34947,
    "tax": 0.065
  }, {
    "id": 2897,
    "name": "FL - ST. LUCIE COUNTY",
    "zipcode": 34948,
    "tax": 0.065
  }, {
    "id": 2898,
    "name": "FL - ST. LUCIE COUNTY",
    "zipcode": 34949,
    "tax": 0.065
  }, {
    "id": 2899,
    "name": "FL - ST. LUCIE COUNTY",
    "zipcode": 34950,
    "tax": 0.065
  }, {
    "id": 2900,
    "name": "FL - ST. LUCIE COUNTY",
    "zipcode": 34951,
    "tax": 0.065
  }, {
    "id": 2901,
    "name": "FL - ST. LUCIE COUNTY",
    "zipcode": 34952,
    "tax": 0.065
  }, {
    "id": 2902,
    "name": "FL - ST. LUCIE COUNTY",
    "zipcode": 34953,
    "tax": 0.065
  }, {
    "id": 2903,
    "name": "FL - ST. LUCIE COUNTY",
    "zipcode": 34954,
    "tax": 0.065
  }, {
    "id": 2904,
    "name": "FL - FLORIDA STATE",
    "zipcode": 34956,
    "tax": 0.06
  }, {
    "id": 2905,
    "name": "FL - FLORIDA STATE",
    "zipcode": 34957,
    "tax": 0.06
  }, {
    "id": 2906,
    "name": "FL - FLORIDA STATE",
    "zipcode": 34958,
    "tax": 0.06
  }, {
    "id": 2907,
    "name": "FL - OKEECHOBEE COUNTY",
    "zipcode": 34972,
    "tax": 0.07
  }, {
    "id": 2908,
    "name": "FL - OKEECHOBEE COUNTY",
    "zipcode": 34973,
    "tax": 0.07
  }, {
    "id": 2909,
    "name": "FL - OKEECHOBEE COUNTY",
    "zipcode": 34974,
    "tax": 0.07
  }, {
    "id": 2910,
    "name": "FL - ST. LUCIE COUNTY",
    "zipcode": 34979,
    "tax": 0.065
  }, {
    "id": 2911,
    "name": "FL - ST. LUCIE COUNTY",
    "zipcode": 34981,
    "tax": 0.065
  }, {
    "id": 2912,
    "name": "FL - ST. LUCIE COUNTY",
    "zipcode": 34982,
    "tax": 0.065
  }, {
    "id": 2913,
    "name": "FL - ST. LUCIE COUNTY",
    "zipcode": 34983,
    "tax": 0.065
  }, {
    "id": 2914,
    "name": "FL - ST. LUCIE COUNTY",
    "zipcode": 34984,
    "tax": 0.065
  }, {
    "id": 2915,
    "name": "FL - ST. LUCIE COUNTY",
    "zipcode": 34985,
    "tax": 0.065
  }, {
    "id": 2916,
    "name": "FL - ST. LUCIE COUNTY",
    "zipcode": 34986,
    "tax": 0.065
  }, {
    "id": 2917,
    "name": "FL - ST. LUCIE COUNTY",
    "zipcode": 34987,
    "tax": 0.065
  }, {
    "id": 2918,
    "name": "FL - ST. LUCIE COUNTY",
    "zipcode": 34988,
    "tax": 0.065
  }, {
    "id": 2919,
    "name": "FL - FLORIDA STATE",
    "zipcode": 34990,
    "tax": 0.06
  }, {
    "id": 2920,
    "name": "FL - FLORIDA STATE",
    "zipcode": 34991,
    "tax": 0.06
  }, {
    "id": 2921,
    "name": "FL - FLORIDA STATE",
    "zipcode": 34992,
    "tax": 0.06
  }, {
    "id": 2922,
    "name": "FL - FLORIDA STATE",
    "zipcode": 34994,
    "tax": 0.06
  }, {
    "id": 2923,
    "name": "FL - FLORIDA STATE",
    "zipcode": 34995,
    "tax": 0.06
  }, {
    "id": 2924,
    "name": "FL - FLORIDA STATE",
    "zipcode": 34996,
    "tax": 0.06
  }, {
    "id": 2925,
    "name": "FL - FLORIDA STATE",
    "zipcode": 34997,
    "tax": 0.06
  }, {
    "id": 3216,
    "name": "NV CLARK COUNTY",
    "zipcode": 88901,
    "tax": 0.081
  }, {
    "id": 3217,
    "name": "NV CLARK COUNTY",
    "zipcode": 88905,
    "tax": 0.081
  }, {
    "id": 3218,
    "name": "NV LINCOLN COUNTY",
    "zipcode": 89001,
    "tax": 0.071
  }, {
    "id": 3219,
    "name": "NV CLARK COUNTY",
    "zipcode": 89002,
    "tax": 0.081
  }, {
    "id": 3220,
    "name": "NV NYE COUNTY",
    "zipcode": 89003,
    "tax": 0.071
  }, {
    "id": 3221,
    "name": "NV CLARK COUNTY",
    "zipcode": 89004,
    "tax": 0.081
  }, {
    "id": 3222,
    "name": "NV CLARK COUNTY",
    "zipcode": 89005,
    "tax": 0.081
  }, {
    "id": 3223,
    "name": "NV CLARK COUNTY",
    "zipcode": 89006,
    "tax": 0.081
  }, {
    "id": 3224,
    "name": "NV CLARK COUNTY",
    "zipcode": 89007,
    "tax": 0.081
  }, {
    "id": 3225,
    "name": "NV LINCOLN COUNTY",
    "zipcode": 89008,
    "tax": 0.071
  }, {
    "id": 3226,
    "name": "NV CLARK COUNTY",
    "zipcode": 89009,
    "tax": 0.081
  }, {
    "id": 3227,
    "name": "NV ESMERALDA COUNTY",
    "zipcode": 89010,
    "tax": 0.0685
  }, {
    "id": 3228,
    "name": "NV CLARK COUNTY",
    "zipcode": 89011,
    "tax": 0.081
  }, {
    "id": 3229,
    "name": "NV CLARK COUNTY",
    "zipcode": 89012,
    "tax": 0.081
  }, {
    "id": 3230,
    "name": "NV ESMERALDA COUNTY",
    "zipcode": 89013,
    "tax": 0.0685
  }, {
    "id": 3231,
    "name": "NV CLARK COUNTY",
    "zipcode": 89014,
    "tax": 0.081
  }, {
    "id": 3232,
    "name": "NV CLARK COUNTY",
    "zipcode": 89015,
    "tax": 0.081
  }, {
    "id": 3233,
    "name": "NV CLARK COUNTY",
    "zipcode": 89016,
    "tax": 0.081
  }, {
    "id": 3234,
    "name": "NV LINCOLN COUNTY",
    "zipcode": 89017,
    "tax": 0.071
  }, {
    "id": 3235,
    "name": "NV CLARK COUNTY",
    "zipcode": 89018,
    "tax": 0.081
  }, {
    "id": 3236,
    "name": "NV CLARK COUNTY",
    "zipcode": 89019,
    "tax": 0.081
  }, {
    "id": 3237,
    "name": "NV NYE COUNTY",
    "zipcode": 89020,
    "tax": 0.071
  }, {
    "id": 3238,
    "name": "NV CLARK COUNTY",
    "zipcode": 89021,
    "tax": 0.081
  }, {
    "id": 3239,
    "name": "NV NYE COUNTY",
    "zipcode": 89022,
    "tax": 0.071
  }, {
    "id": 3240,
    "name": "NV NYE COUNTY",
    "zipcode": 89023,
    "tax": 0.071
  }, {
    "id": 3241,
    "name": "NV CLARK COUNTY",
    "zipcode": 89024,
    "tax": 0.081
  }, {
    "id": 3242,
    "name": "NV CLARK COUNTY",
    "zipcode": 89025,
    "tax": 0.081
  }, {
    "id": 3243,
    "name": "NV CLARK COUNTY",
    "zipcode": 89026,
    "tax": 0.081
  }, {
    "id": 3244,
    "name": "NV CLARK COUNTY",
    "zipcode": 89027,
    "tax": 0.081
  }, {
    "id": 3245,
    "name": "NV CLARK COUNTY",
    "zipcode": 89028,
    "tax": 0.081
  }, {
    "id": 3246,
    "name": "NV CLARK COUNTY",
    "zipcode": 89029,
    "tax": 0.081
  }, {
    "id": 3247,
    "name": "NV CLARK COUNTY",
    "zipcode": 89030,
    "tax": 0.081
  }, {
    "id": 3248,
    "name": "NV CLARK COUNTY",
    "zipcode": 89031,
    "tax": 0.081
  }, {
    "id": 3249,
    "name": "NV CLARK COUNTY",
    "zipcode": 89032,
    "tax": 0.081
  }, {
    "id": 3250,
    "name": "NV CLARK COUNTY",
    "zipcode": 89033,
    "tax": 0.081
  }, {
    "id": 3251,
    "name": "NV CLARK COUNTY",
    "zipcode": 89034,
    "tax": 0.081
  }, {
    "id": 3252,
    "name": "NV CLARK COUNTY",
    "zipcode": 89036,
    "tax": 0.081
  }, {
    "id": 3253,
    "name": "NV CLARK COUNTY",
    "zipcode": 89037,
    "tax": 0.081
  }, {
    "id": 3254,
    "name": "NV CLARK COUNTY",
    "zipcode": 89039,
    "tax": 0.081
  }, {
    "id": 3255,
    "name": "NV CLARK COUNTY",
    "zipcode": 89040,
    "tax": 0.081
  }, {
    "id": 3256,
    "name": "NV NYE COUNTY",
    "zipcode": 89041,
    "tax": 0.071
  }, {
    "id": 3257,
    "name": "NV LINCOLN COUNTY",
    "zipcode": 89042,
    "tax": 0.071
  }, {
    "id": 3258,
    "name": "NV LINCOLN COUNTY",
    "zipcode": 89043,
    "tax": 0.071
  }, {
    "id": 3259,
    "name": "NV CLARK COUNTY",
    "zipcode": 89044,
    "tax": 0.081
  }, {
    "id": 3260,
    "name": "NV NYE COUNTY",
    "zipcode": 89045,
    "tax": 0.071
  }, {
    "id": 3261,
    "name": "NV CLARK COUNTY",
    "zipcode": 89046,
    "tax": 0.081
  }, {
    "id": 3262,
    "name": "NV ESMERALDA COUNTY",
    "zipcode": 89047,
    "tax": 0.0685
  }, {
    "id": 3263,
    "name": "NV NYE COUNTY",
    "zipcode": 89048,
    "tax": 0.071
  }, {
    "id": 3264,
    "name": "NV NYE COUNTY",
    "zipcode": 89049,
    "tax": 0.071
  }, {
    "id": 3265,
    "name": "NV CLARK COUNTY",
    "zipcode": 89052,
    "tax": 0.081
  }, {
    "id": 3266,
    "name": "NV CLARK COUNTY",
    "zipcode": 89053,
    "tax": 0.081
  }, {
    "id": 3267,
    "name": "NV CLARK COUNTY",
    "zipcode": 89054,
    "tax": 0.081
  }, {
    "id": 3268,
    "name": "NV NYE COUNTY",
    "zipcode": 89060,
    "tax": 0.071
  }, {
    "id": 3269,
    "name": "NV NYE COUNTY",
    "zipcode": 89061,
    "tax": 0.071
  }, {
    "id": 3270,
    "name": "NV CLARK COUNTY",
    "zipcode": 89067,
    "tax": 0.081
  }, {
    "id": 3271,
    "name": "NV CLARK COUNTY",
    "zipcode": 89070,
    "tax": 0.081
  }, {
    "id": 3272,
    "name": "NV CLARK COUNTY",
    "zipcode": 89074,
    "tax": 0.081
  }, {
    "id": 3273,
    "name": "NV CLARK COUNTY",
    "zipcode": 89077,
    "tax": 0.081
  }, {
    "id": 3274,
    "name": "NV CLARK COUNTY",
    "zipcode": 89081,
    "tax": 0.081
  }, {
    "id": 3275,
    "name": "NV CLARK COUNTY",
    "zipcode": 89084,
    "tax": 0.081
  }, {
    "id": 3276,
    "name": "NV CLARK COUNTY",
    "zipcode": 89085,
    "tax": 0.081
  }, {
    "id": 3277,
    "name": "NV CLARK COUNTY",
    "zipcode": 89086,
    "tax": 0.081
  }, {
    "id": 3278,
    "name": "NV CLARK COUNTY",
    "zipcode": 89087,
    "tax": 0.081
  }, {
    "id": 3279,
    "name": "NV CLARK COUNTY",
    "zipcode": 89101,
    "tax": 0.081
  }, {
    "id": 3280,
    "name": "NV CLARK COUNTY",
    "zipcode": 89102,
    "tax": 0.081
  }, {
    "id": 3281,
    "name": "NV CLARK COUNTY",
    "zipcode": 89103,
    "tax": 0.081
  }, {
    "id": 3282,
    "name": "NV CLARK COUNTY",
    "zipcode": 89104,
    "tax": 0.081
  }, {
    "id": 3283,
    "name": "NV CLARK COUNTY",
    "zipcode": 89105,
    "tax": 0.081
  }, {
    "id": 3284,
    "name": "NV CLARK COUNTY",
    "zipcode": 89106,
    "tax": 0.081
  }, {
    "id": 3285,
    "name": "NV CLARK COUNTY",
    "zipcode": 89107,
    "tax": 0.081
  }, {
    "id": 3286,
    "name": "NV CLARK COUNTY",
    "zipcode": 89108,
    "tax": 0.081
  }, {
    "id": 3287,
    "name": "NV CLARK COUNTY",
    "zipcode": 89109,
    "tax": 0.0815
  }, {
    "id": 3288,
    "name": "NV CLARK COUNTY",
    "zipcode": 89110,
    "tax": 0.081
  }, {
    "id": 3289,
    "name": "NV CLARK COUNTY",
    "zipcode": 89111,
    "tax": 0.081
  }, {
    "id": 3290,
    "name": "NV CLARK COUNTY",
    "zipcode": 89112,
    "tax": 0.081
  }, {
    "id": 3291,
    "name": "NV CLARK COUNTY",
    "zipcode": 89113,
    "tax": 0.081
  }, {
    "id": 3292,
    "name": "NV CLARK COUNTY",
    "zipcode": 89114,
    "tax": 0.081
  }, {
    "id": 3293,
    "name": "NV CLARK COUNTY",
    "zipcode": 89115,
    "tax": 0.081
  }, {
    "id": 3294,
    "name": "NV CLARK COUNTY",
    "zipcode": 89116,
    "tax": 0.081
  }, {
    "id": 3295,
    "name": "NV CLARK COUNTY",
    "zipcode": 89117,
    "tax": 0.081
  }, {
    "id": 3296,
    "name": "NV CLARK COUNTY",
    "zipcode": 89118,
    "tax": 0.081
  }, {
    "id": 3297,
    "name": "NV CLARK COUNTY",
    "zipcode": 89119,
    "tax": 0.081
  }, {
    "id": 3298,
    "name": "NV CLARK COUNTY",
    "zipcode": 89120,
    "tax": 0.081
  }, {
    "id": 3299,
    "name": "NV CLARK COUNTY",
    "zipcode": 89121,
    "tax": 0.081
  }, {
    "id": 3300,
    "name": "NV CLARK COUNTY",
    "zipcode": 89122,
    "tax": 0.081
  }, {
    "id": 3301,
    "name": "NV CLARK COUNTY",
    "zipcode": 89123,
    "tax": 0.081
  }, {
    "id": 3302,
    "name": "NV CLARK COUNTY",
    "zipcode": 89124,
    "tax": 0.081
  }, {
    "id": 3303,
    "name": "NV CLARK COUNTY",
    "zipcode": 89125,
    "tax": 0.081
  }, {
    "id": 3304,
    "name": "NV CLARK COUNTY",
    "zipcode": 89126,
    "tax": 0.081
  }, {
    "id": 3305,
    "name": "NV CLARK COUNTY",
    "zipcode": 89127,
    "tax": 0.081
  }, {
    "id": 3306,
    "name": "NV CLARK COUNTY",
    "zipcode": 89128,
    "tax": 0.081
  }, {
    "id": 3307,
    "name": "NV CLARK COUNTY",
    "zipcode": 89129,
    "tax": 0.081
  }, {
    "id": 3308,
    "name": "NV CLARK COUNTY",
    "zipcode": 89130,
    "tax": 0.081
  }, {
    "id": 3309,
    "name": "NV CLARK COUNTY",
    "zipcode": 89131,
    "tax": 0.081
  }, {
    "id": 3310,
    "name": "NV CLARK COUNTY",
    "zipcode": 89132,
    "tax": 0.081
  }, {
    "id": 3311,
    "name": "NV CLARK COUNTY",
    "zipcode": 89133,
    "tax": 0.081
  }, {
    "id": 3312,
    "name": "NV CLARK COUNTY",
    "zipcode": 89134,
    "tax": 0.081
  }, {
    "id": 3313,
    "name": "NV CLARK COUNTY",
    "zipcode": 89135,
    "tax": 0.081
  }, {
    "id": 3314,
    "name": "NV CLARK COUNTY",
    "zipcode": 89136,
    "tax": 0.081
  }, {
    "id": 3315,
    "name": "NV CLARK COUNTY",
    "zipcode": 89137,
    "tax": 0.081
  }, {
    "id": 3316,
    "name": "NV CLARK COUNTY",
    "zipcode": 89138,
    "tax": 0.081
  }, {
    "id": 3317,
    "name": "NV CLARK COUNTY",
    "zipcode": 89139,
    "tax": 0.081
  }, {
    "id": 3318,
    "name": "NV CLARK COUNTY",
    "zipcode": 89140,
    "tax": 0.081
  }, {
    "id": 3319,
    "name": "NV CLARK COUNTY",
    "zipcode": 89141,
    "tax": 0.081
  }, {
    "id": 3320,
    "name": "NV CLARK COUNTY",
    "zipcode": 89142,
    "tax": 0.081
  }, {
    "id": 3321,
    "name": "NV CLARK COUNTY",
    "zipcode": 89143,
    "tax": 0.081
  }, {
    "id": 3322,
    "name": "NV CLARK COUNTY",
    "zipcode": 89144,
    "tax": 0.081
  }, {
    "id": 3323,
    "name": "NV CLARK COUNTY",
    "zipcode": 89145,
    "tax": 0.081
  }, {
    "id": 3324,
    "name": "NV CLARK COUNTY",
    "zipcode": 89146,
    "tax": 0.081
  }, {
    "id": 3325,
    "name": "NV CLARK COUNTY",
    "zipcode": 89147,
    "tax": 0.081
  }, {
    "id": 3326,
    "name": "NV CLARK COUNTY",
    "zipcode": 89148,
    "tax": 0.081
  }, {
    "id": 3327,
    "name": "NV CLARK COUNTY",
    "zipcode": 89149,
    "tax": 0.081
  }, {
    "id": 3328,
    "name": "NV CLARK COUNTY",
    "zipcode": 89150,
    "tax": 0.081
  }, {
    "id": 3329,
    "name": "NV CLARK COUNTY",
    "zipcode": 89151,
    "tax": 0.081
  }, {
    "id": 3330,
    "name": "NV CLARK COUNTY",
    "zipcode": 89152,
    "tax": 0.081
  }, {
    "id": 3331,
    "name": "NV CLARK COUNTY",
    "zipcode": 89153,
    "tax": 0.081
  }, {
    "id": 3332,
    "name": "NV CLARK COUNTY",
    "zipcode": 89154,
    "tax": 0.081
  }, {
    "id": 3333,
    "name": "NV CLARK COUNTY",
    "zipcode": 89155,
    "tax": 0.081
  }, {
    "id": 3334,
    "name": "NV CLARK COUNTY",
    "zipcode": 89156,
    "tax": 0.081
  }, {
    "id": 3335,
    "name": "NV CLARK COUNTY",
    "zipcode": 89157,
    "tax": 0.081
  }, {
    "id": 3336,
    "name": "NV CLARK COUNTY",
    "zipcode": 89158,
    "tax": 0.081
  }, {
    "id": 3337,
    "name": "NV CLARK COUNTY",
    "zipcode": 89159,
    "tax": 0.081
  }, {
    "id": 3338,
    "name": "NV CLARK COUNTY",
    "zipcode": 89160,
    "tax": 0.081
  }, {
    "id": 3339,
    "name": "NV CLARK COUNTY",
    "zipcode": 89161,
    "tax": 0.081
  }, {
    "id": 3340,
    "name": "NV CLARK COUNTY",
    "zipcode": 89162,
    "tax": 0.081
  }, {
    "id": 3341,
    "name": "NV CLARK COUNTY",
    "zipcode": 89163,
    "tax": 0.081
  }, {
    "id": 3342,
    "name": "NV CLARK COUNTY",
    "zipcode": 89164,
    "tax": 0.081
  }, {
    "id": 3343,
    "name": "NV CLARK COUNTY",
    "zipcode": 89165,
    "tax": 0.081
  }, {
    "id": 3344,
    "name": "NV CLARK COUNTY",
    "zipcode": 89166,
    "tax": 0.081
  }, {
    "id": 3345,
    "name": "NV CLARK COUNTY",
    "zipcode": 89169,
    "tax": 0.081
  }, {
    "id": 3346,
    "name": "NV CLARK COUNTY",
    "zipcode": 89170,
    "tax": 0.081
  }, {
    "id": 3347,
    "name": "NV CLARK COUNTY",
    "zipcode": 89173,
    "tax": 0.081
  }, {
    "id": 3348,
    "name": "NV CLARK COUNTY",
    "zipcode": 89177,
    "tax": 0.081
  }, {
    "id": 3349,
    "name": "NV CLARK COUNTY",
    "zipcode": 89178,
    "tax": 0.081
  }, {
    "id": 3350,
    "name": "NV CLARK COUNTY",
    "zipcode": 89179,
    "tax": 0.081
  }, {
    "id": 3351,
    "name": "NV CLARK COUNTY",
    "zipcode": 89180,
    "tax": 0.081
  }, {
    "id": 3352,
    "name": "NV CLARK COUNTY",
    "zipcode": 89183,
    "tax": 0.081
  }, {
    "id": 3353,
    "name": "NV CLARK COUNTY",
    "zipcode": 89185,
    "tax": 0.081
  }, {
    "id": 3354,
    "name": "NV CLARK COUNTY",
    "zipcode": 89191,
    "tax": 0.081
  }, {
    "id": 3355,
    "name": "NV CLARK COUNTY",
    "zipcode": 89193,
    "tax": 0.081
  }, {
    "id": 3356,
    "name": "NV CLARK COUNTY",
    "zipcode": 89195,
    "tax": 0.081
  }, {
    "id": 3357,
    "name": "NV CLARK COUNTY",
    "zipcode": 89199,
    "tax": 0.081
  }, {
    "id": 3358,
    "name": "NV WHITE PINE COUNTY",
    "zipcode": 89301,
    "tax": 0.0773
  }, {
    "id": 3359,
    "name": "NV LANDER COUNTY",
    "zipcode": 89310,
    "tax": 0.071
  }, {
    "id": 3360,
    "name": "NV WHITE PINE COUNTY",
    "zipcode": 89311,
    "tax": 0.0773
  }, {
    "id": 3361,
    "name": "NV NYE COUNTY",
    "zipcode": 89314,
    "tax": 0.071
  }, {
    "id": 3362,
    "name": "NV WHITE PINE COUNTY",
    "zipcode": 89315,
    "tax": 0.0773
  }, {
    "id": 3363,
    "name": "NV EUREKA COUNTY",
    "zipcode": 89316,
    "tax": 0.0685
  }, {
    "id": 3364,
    "name": "NV WHITE PINE COUNTY",
    "zipcode": 89317,
    "tax": 0.0773
  }, {
    "id": 3365,
    "name": "NV WHITE PINE COUNTY",
    "zipcode": 89318,
    "tax": 0.0773
  }, {
    "id": 3366,
    "name": "NV WHITE PINE COUNTY",
    "zipcode": 89319,
    "tax": 0.0773
  }, {
    "id": 3367,
    "name": "NV WASHOE COUNTY",
    "zipcode": 89402,
    "tax": 0.0773
  }, {
    "id": 3368,
    "name": "NV LYON COUNTY",
    "zipcode": 89403,
    "tax": 0.071
  }, {
    "id": 3369,
    "name": "NV HUMBOLDT COUNTY",
    "zipcode": 89404,
    "tax": 0.0685
  }, {
    "id": 3370,
    "name": "NV WASHOE COUNTY",
    "zipcode": 89405,
    "tax": 0.0773
  }, {
    "id": 3371,
    "name": "NV CHURCHILL COUNTY",
    "zipcode": 89406,
    "tax": 0.076
  }, {
    "id": 3372,
    "name": "NV CHURCHILL COUNTY",
    "zipcode": 89407,
    "tax": 0.076
  }, {
    "id": 3373,
    "name": "NV LYON COUNTY",
    "zipcode": 89408,
    "tax": 0.071
  }, {
    "id": 3374,
    "name": "NV NYE COUNTY",
    "zipcode": 89409,
    "tax": 0.071
  }, {
    "id": 3375,
    "name": "NV DOUGLAS COUNTY",
    "zipcode": 89410,
    "tax": 0.071
  }, {
    "id": 3376,
    "name": "NV DOUGLAS COUNTY",
    "zipcode": 89411,
    "tax": 0.071
  }, {
    "id": 3377,
    "name": "NV WASHOE COUNTY",
    "zipcode": 89412,
    "tax": 0.0773
  }, {
    "id": 3378,
    "name": "NV DOUGLAS COUNTY",
    "zipcode": 89413,
    "tax": 0.071
  }, {
    "id": 3379,
    "name": "NV HUMBOLDT COUNTY",
    "zipcode": 89414,
    "tax": 0.0685
  }, {
    "id": 3380,
    "name": "NV MINERAL COUNTY",
    "zipcode": 89415,
    "tax": 0.0685
  }, {
    "id": 3381,
    "name": "NV PERSHING COUNTY",
    "zipcode": 89418,
    "tax": 0.071
  }, {
    "id": 3382,
    "name": "NV PERSHING COUNTY",
    "zipcode": 89419,
    "tax": 0.071
  }, {
    "id": 3383,
    "name": "NV MINERAL COUNTY",
    "zipcode": 89420,
    "tax": 0.0685
  }, {
    "id": 3384,
    "name": "NV HUMBOLDT COUNTY",
    "zipcode": 89421,
    "tax": 0.0685
  }, {
    "id": 3385,
    "name": "NV MINERAL COUNTY",
    "zipcode": 89422,
    "tax": 0.0685
  }, {
    "id": 3386,
    "name": "NV DOUGLAS COUNTY",
    "zipcode": 89423,
    "tax": 0.071
  }, {
    "id": 3387,
    "name": "NV WASHOE COUNTY",
    "zipcode": 89424,
    "tax": 0.0773
  }, {
    "id": 3388,
    "name": "NV HUMBOLDT COUNTY",
    "zipcode": 89425,
    "tax": 0.0685
  }, {
    "id": 3389,
    "name": "NV HUMBOLDT COUNTY",
    "zipcode": 89426,
    "tax": 0.0685
  }, {
    "id": 3390,
    "name": "NV MINERAL COUNTY",
    "zipcode": 89427,
    "tax": 0.0685
  }, {
    "id": 3391,
    "name": "NV LYON COUNTY",
    "zipcode": 89428,
    "tax": 0.071
  }, {
    "id": 3392,
    "name": "NV LYON COUNTY",
    "zipcode": 89429,
    "tax": 0.071
  }, {
    "id": 3393,
    "name": "NV LYON COUNTY",
    "zipcode": 89430,
    "tax": 0.071
  }, {
    "id": 3394,
    "name": "NV WASHOE COUNTY",
    "zipcode": 89431,
    "tax": 0.0773
  }, {
    "id": 3395,
    "name": "NV WASHOE COUNTY",
    "zipcode": 89432,
    "tax": 0.0773
  }, {
    "id": 3396,
    "name": "NV WASHOE COUNTY",
    "zipcode": 89433,
    "tax": 0.0773
  }, {
    "id": 3397,
    "name": "NV WASHOE COUNTY",
    "zipcode": 89434,
    "tax": 0.0773
  }, {
    "id": 3398,
    "name": "NV WASHOE COUNTY",
    "zipcode": 89435,
    "tax": 0.0773
  }, {
    "id": 3399,
    "name": "NV WASHOE COUNTY",
    "zipcode": 89436,
    "tax": 0.0773
  }, {
    "id": 3400,
    "name": "NV HUMBOLDT COUNTY",
    "zipcode": 89438,
    "tax": 0.0685
  }, {
    "id": 3401,
    "name": "NV WASHOE COUNTY",
    "zipcode": 89439,
    "tax": 0.0773
  }, {
    "id": 3402,
    "name": "NV STOREY COUNTY",
    "zipcode": 89440,
    "tax": 0.076
  }, {
    "id": 3403,
    "name": "NV WASHOE COUNTY",
    "zipcode": 89441,
    "tax": 0.0773
  }, {
    "id": 3404,
    "name": "NV WASHOE COUNTY",
    "zipcode": 89442,
    "tax": 0.0773
  }, {
    "id": 3405,
    "name": "NV DOUGLAS COUNTY",
    "zipcode": 89444,
    "tax": 0.071
  }, {
    "id": 3406,
    "name": "NV HUMBOLDT COUNTY",
    "zipcode": 89445,
    "tax": 0.0685
  }, {
    "id": 3407,
    "name": "NV HUMBOLDT COUNTY",
    "zipcode": 89446,
    "tax": 0.0685
  }, {
    "id": 3408,
    "name": "NV LYON COUNTY",
    "zipcode": 89447,
    "tax": 0.071
  }, {
    "id": 3409,
    "name": "NV DOUGLAS COUNTY",
    "zipcode": 89448,
    "tax": 0.071
  }, {
    "id": 3410,
    "name": "NV DOUGLAS COUNTY",
    "zipcode": 89449,
    "tax": 0.071
  }, {
    "id": 3411,
    "name": "NV WASHOE COUNTY",
    "zipcode": 89450,
    "tax": 0.0773
  }, {
    "id": 3412,
    "name": "NV WASHOE COUNTY",
    "zipcode": 89451,
    "tax": 0.0773
  }, {
    "id": 3413,
    "name": "NV WASHOE COUNTY",
    "zipcode": 89452,
    "tax": 0.0773
  }, {
    "id": 3414,
    "name": "NV DOUGLAS COUNTY",
    "zipcode": 89460,
    "tax": 0.071
  }, {
    "id": 3415,
    "name": "NV CHURCHILL COUNTY",
    "zipcode": 89496,
    "tax": 0.076
  }, {
    "id": 3416,
    "name": "NV WASHOE COUNTY",
    "zipcode": 89501,
    "tax": 0.0773
  }, {
    "id": 3417,
    "name": "NV WASHOE COUNTY",
    "zipcode": 89502,
    "tax": 0.0773
  }, {
    "id": 3418,
    "name": "NV WASHOE COUNTY",
    "zipcode": 89503,
    "tax": 0.0773
  }, {
    "id": 3419,
    "name": "NV WASHOE COUNTY",
    "zipcode": 89504,
    "tax": 0.0773
  }, {
    "id": 3420,
    "name": "NV WASHOE COUNTY",
    "zipcode": 89505,
    "tax": 0.0773
  }, {
    "id": 3421,
    "name": "NV WASHOE COUNTY",
    "zipcode": 89506,
    "tax": 0.0773
  }, {
    "id": 3422,
    "name": "NV WASHOE COUNTY",
    "zipcode": 89507,
    "tax": 0.0773
  }, {
    "id": 3423,
    "name": "NV WASHOE COUNTY",
    "zipcode": 89508,
    "tax": 0.0773
  }, {
    "id": 3424,
    "name": "NV WASHOE COUNTY",
    "zipcode": 89509,
    "tax": 0.0773
  }, {
    "id": 3425,
    "name": "NV WASHOE COUNTY",
    "zipcode": 89510,
    "tax": 0.0773
  }, {
    "id": 3426,
    "name": "NV WASHOE COUNTY",
    "zipcode": 89511,
    "tax": 0.0773
  }, {
    "id": 3427,
    "name": "NV WASHOE COUNTY",
    "zipcode": 89512,
    "tax": 0.0773
  }, {
    "id": 3428,
    "name": "NV WASHOE COUNTY",
    "zipcode": 89513,
    "tax": 0.0773
  }, {
    "id": 3429,
    "name": "NV WASHOE COUNTY",
    "zipcode": 89515,
    "tax": 0.0773
  }, {
    "id": 3430,
    "name": "NV WASHOE COUNTY",
    "zipcode": 89519,
    "tax": 0.0773
  }, {
    "id": 3431,
    "name": "NV WASHOE COUNTY",
    "zipcode": 89520,
    "tax": 0.0773
  }, {
    "id": 3432,
    "name": "NV WASHOE COUNTY",
    "zipcode": 89521,
    "tax": 0.0773
  }, {
    "id": 3433,
    "name": "NV WASHOE COUNTY",
    "zipcode": 89523,
    "tax": 0.0773
  }, {
    "id": 3434,
    "name": "NV WASHOE COUNTY",
    "zipcode": 89533,
    "tax": 0.0773
  }, {
    "id": 3435,
    "name": "NV WASHOE COUNTY",
    "zipcode": 89555,
    "tax": 0.0773
  }, {
    "id": 3436,
    "name": "NV WASHOE COUNTY",
    "zipcode": 89557,
    "tax": 0.0773
  }, {
    "id": 3437,
    "name": "NV WASHOE COUNTY",
    "zipcode": 89570,
    "tax": 0.0773
  }, {
    "id": 3438,
    "name": "NV WASHOE COUNTY",
    "zipcode": 89595,
    "tax": 0.0773
  }, {
    "id": 3439,
    "name": "NV WASHOE COUNTY",
    "zipcode": 89599,
    "tax": 0.0773
  }, {
    "id": 3440,
    "name": "NV CARSON CITY CO",
    "zipcode": 89701,
    "tax": 0.0748
  }, {
    "id": 3441,
    "name": "NV CARSON CITY CO",
    "zipcode": 89702,
    "tax": 0.0748
  }, {
    "id": 3442,
    "name": "NV CARSON CITY CO",
    "zipcode": 89703,
    "tax": 0.0748
  }, {
    "id": 3443,
    "name": "NV WASHOE COUNTY",
    "zipcode": 89704,
    "tax": 0.0773
  }, {
    "id": 3444,
    "name": "NV DOUGLAS COUNTY",
    "zipcode": 89705,
    "tax": 0.071
  }, {
    "id": 3445,
    "name": "NV CARSON CITY CO",
    "zipcode": 89706,
    "tax": 0.0748
  }, {
    "id": 3446,
    "name": "NV CARSON CITY CO",
    "zipcode": 89711,
    "tax": 0.0748
  }, {
    "id": 3447,
    "name": "NV CARSON CITY CO",
    "zipcode": 89712,
    "tax": 0.0748
  }, {
    "id": 3448,
    "name": "NV CARSON CITY CO",
    "zipcode": 89713,
    "tax": 0.0748
  }, {
    "id": 3449,
    "name": "NV CARSON CITY CO",
    "zipcode": 89714,
    "tax": 0.0748
  }, {
    "id": 3450,
    "name": "NV CARSON CITY CO",
    "zipcode": 89721,
    "tax": 0.0748
  }, {
    "id": 3451,
    "name": "NV ELKO COUNTY",
    "zipcode": 89801,
    "tax": 0.0685
  }, {
    "id": 3452,
    "name": "NV ELKO COUNTY",
    "zipcode": 89802,
    "tax": 0.0685
  }, {
    "id": 3453,
    "name": "NV ELKO COUNTY",
    "zipcode": 89803,
    "tax": 0.0685
  }, {
    "id": 3454,
    "name": "NV ELKO COUNTY",
    "zipcode": 89815,
    "tax": 0.0685
  }, {
    "id": 3455,
    "name": "NV LANDER COUNTY",
    "zipcode": 89820,
    "tax": 0.071
  }, {
    "id": 3456,
    "name": "NV EUREKA COUNTY",
    "zipcode": 89821,
    "tax": 0.0685
  }, {
    "id": 3457,
    "name": "NV ELKO COUNTY",
    "zipcode": 89822,
    "tax": 0.0685
  }, {
    "id": 3458,
    "name": "NV ELKO COUNTY",
    "zipcode": 89823,
    "tax": 0.0685
  }, {
    "id": 3459,
    "name": "NV ELKO COUNTY",
    "zipcode": 89825,
    "tax": 0.0685
  }, {
    "id": 3460,
    "name": "NV ELKO COUNTY",
    "zipcode": 89826,
    "tax": 0.0685
  }, {
    "id": 3461,
    "name": "NV ELKO COUNTY",
    "zipcode": 89828,
    "tax": 0.0685
  }, {
    "id": 3462,
    "name": "NV ELKO COUNTY",
    "zipcode": 89830,
    "tax": 0.0685
  }, {
    "id": 3463,
    "name": "NV ELKO COUNTY",
    "zipcode": 89831,
    "tax": 0.0685
  }, {
    "id": 3464,
    "name": "NV ELKO COUNTY",
    "zipcode": 89832,
    "tax": 0.0685
  }, {
    "id": 3465,
    "name": "NV ELKO COUNTY",
    "zipcode": 89834,
    "tax": 0.0685
  }, {
    "id": 3466,
    "name": "NV ELKO COUNTY",
    "zipcode": 89835,
    "tax": 0.0685
  }, {
    "id": 3467,
    "name": "NV ELKO COUNTY",
    "zipcode": 89883,
    "tax": 0.0685
  }
]
